{"type": "FeatureCollection", "features": [{"type": "Feature", "properties": {"field_id": "451623001001160", "CSBID": "451623001001160", "STATEFIPS": "45", "CSBACRES": 4.233174233397975, "county": "001", "source_attribute": "", "CDL2020": 37, "CDL2021": 37, "CDL2022": 37, "CDL2023": 176, "crop_code_2020": 37, "crop_2020": "Other Hay/Non Alfalfa", "dominant_pct_2020": 77.272727, "valid_pixels_2020": 22, "matches_csb_2020": true, "crop_code_2021": 37, "crop_2021": "Other Hay/Non Alfalfa", "dominant_pct_2021": 54.545455, "valid_pixels_2021": 22, "matches_csb_2021": true, "crop_code_2022": 37, "crop_2022": "Other Hay/Non Alfalfa", "dominant_pct_2022": 50.0, "valid_pixels_2022": 22, "matches_csb_2022": true, "crop_code_2023": 176, "crop_2023": "Grassland/Pasture", "dominant_pct_2023": 54.545455, "valid_pixels_2023": 22, "matches_csb_2023": true}, "geometry": {"type": "MultiPolygon", "coordinates": [[[[-82.52278754975626, 34.348431523265994], [-82.52278755010754, 34.348072197698954], [-82.52242822377873, 34.34807219795173], [-82.52215872895471, 34.34807219785604], [-82.52188923521517, 34.348072197262866], [-82.52188923445452, 34.347802702956265], [-82.52188923495191, 34.347173882237236], [-82.52215872897962, 34.3471738823243], [-82.52242822409183, 34.34717388191382], [-82.52305704431642, 34.34717388194478], [-82.52305704492203, 34.34690438798484], [-82.52305704351355, 34.34663489280101], [-82.52305704478572, 34.34627556672555], [-82.52359603326326, 34.346275567065454], [-82.52359603340265, 34.34663489301455], [-82.52359603237245, 34.347173882411624], [-82.52332653896407, 34.34717388211066], [-82.52305704505834, 34.347533208777804], [-82.52305704445273, 34.347802702537926], [-82.52305704477673, 34.34807219722416], [-82.52305704443417, 34.34843152355022], [-82.52278754975626, 34.348431523265994]]]]}}, {"type": "Feature", "properties": {"field_id": "451623001001187", "CSBID": "451623001001187", "STATEFIPS": "45", "CSBACRES": 2.9410683003849662, "county": "001", "source_attribute": "", "CDL2020": 37, "CDL2021": 176, "CDL2022": 176, "CDL2023": 37, "crop_code_2020": 37, "crop_2020": "Other Hay/Non Alfalfa", "dominant_pct_2020": 76.923077, "valid_pixels_2020": 13, "matches_csb_2020": true, "crop_code_2021": 176, "crop_2021": "Grassland/Pasture", "dominant_pct_2021": 53.846154, "valid_pixels_2021": 13, "matches_csb_2021": true, "crop_code_2022": 176, "crop_2022": "Grassland/Pasture", "dominant_pct_2022": 61.538462, "valid_pixels_2022": 13, "matches_csb_2022": true, "crop_code_2023": 176, "crop_2023": "Grassland/Pasture", "dominant_pct_2023": 38.461538, "valid_pixels_2023": 13, "matches_csb_2023": false}, "geometry": {"type": "MultiPolygon", "coordinates": [[[[-82.52359603373802, 34.3407060119418], [-82.5235960338818, 34.34007719114139], [-82.52422485407, 34.34007719156284], [-82.52485367509034, 34.34034668686895], [-82.52512316957421, 34.34034668742668], [-82.52539266421284, 34.340346686474916], [-82.5253926643063, 34.34070601215638], [-82.52485367522365, 34.34097550721709], [-82.5244943487604, 34.34097550638799], [-82.52449434964136, 34.34070601197415], [-82.52422485468438, 34.34070601185767], [-82.52395535957257, 34.340706012002585], [-82.52395536007288, 34.340975506795644], [-82.5235960340748, 34.340975506861255], [-82.52359603373802, 34.3407060119418]]]]}}, {"type": "Feature", "properties": {"field_id": "451623001001196", "CSBID": "451623001001196", "STATEFIPS": "45", "CSBACRES": 17.514312061244784, "county": "001", "source_attribute": "", "CDL2020": 37, "CDL2021": 37, "CDL2022": 37, "CDL2023": 37, "crop_code_2020": 37, "crop_2020": "Other Hay/Non Alfalfa", "dominant_pct_2020": 75.0, "valid_pixels_2020": 84, "matches_csb_2020": true, "crop_code_2021": 37, "crop_2021": "Other Hay/Non Alfalfa", "dominant_pct_2021": 67.857143, "valid_pixels_2021": 84, "matches_csb_2021": true, "crop_code_2022": 37, "crop_2022": "Other Hay/Non Alfalfa", "dominant_pct_2022": 58.333333, "valid_pixels_2022": 84, "matches_csb_2022": true, "crop_code_2023": 37, "crop_2023": "Other Hay/Non Alfalfa", "dominant_pct_2023": 57.142857, "valid_pixels_2023": 84, "matches_csb_2023": true}, "geometry": {"type": "MultiPolygon", "coordinates": [[[[-82.52485367544078, 34.33980769768163], [-82.52512316944673, 34.33980769659485], [-82.5251231703126, 34.33953820206207], [-82.52485367507384, 34.33953820289608], [-82.52485367544078, 34.33980769768163], [-82.5244943486537, 34.339807697991404], [-82.52449434885709, 34.34007719281757], [-82.52422485407, 34.34007719156284], [-82.52422485464773, 34.33980769762212], [-82.52395535940259, 34.33980769738783], [-82.52395535973291, 34.33917887718479], [-82.52422485476588, 34.33890938154787], [-82.5244943489052, 34.33890938229642], [-82.5244943491086, 34.339178877408564], [-82.52512317007313, 34.33917887752945], [-82.52512317000937, 34.33890938178463], [-82.52512316979089, 34.338639886839466], [-82.52512316970616, 34.33828056103997], [-82.52539266475993, 34.338280560972976], [-82.52575199051743, 34.33828056130438], [-82.5257519902608, 34.33863988672465], [-82.52539266376904, 34.33863988740512], [-82.52539266406399, 34.3391788760714], [-82.52575199031659, 34.339538201947974], [-82.52602148385182, 34.33953820244922], [-82.52602148642323, 34.33917887601858], [-82.52629097871059, 34.33917887589585], [-82.52691980014117, 34.33917887630203], [-82.52745878986369, 34.338909381597674], [-82.52745878927917, 34.338639886651755], [-82.52745878937783, 34.33828056123069], [-82.52781811529104, 34.338280560622046], [-82.52808760959624, 34.33863988745183], [-82.52862659894154, 34.33890938144599], [-82.52898592590833, 34.338909381532545], [-82.52952491497929, 34.33917887608782], [-82.52952491423886, 34.33980769730734], [-82.5292554202392, 34.34007719152445], [-82.52898592498585, 34.34007719130166], [-82.52898592575875, 34.33980769660031], [-82.52862659896977, 34.339807697019204], [-82.52835710434283, 34.339807697111205], [-82.5283571051308, 34.339538202071324], [-82.52781811602883, 34.33917887622903], [-82.52745878936383, 34.3391788763314], [-82.52745878861055, 34.339807696790054], [-82.52835710434283, 34.339807697111205], [-82.52835710479398, 34.3400771913062], [-82.52781811519118, 34.34034668587731], [-82.52691980054009, 34.340706012516385], [-82.52656047408466, 34.34070601250083], [-82.52629097983836, 34.340975506523186], [-82.52602148456461, 34.3409755070251], [-82.52575199029641, 34.34070601210928], [-82.52575199086264, 34.34034668579515], [-82.52539266421284, 34.340346686474916], [-82.52512316966528, 34.34007719116821], [-82.52512316957421, 34.34034668742668], [-82.52485367509034, 34.34034668686895], [-82.52485367544078, 34.33980769768163]]]]}}, {"type": "Feature", "properties": {"field_id": "451623001001204", "CSBID": "451623001001204", "STATEFIPS": "45", "CSBACRES": 3.307537355816114, "county": "001", "source_attribute": "", "CDL2020": 37, "CDL2021": 176, "CDL2022": 176, "CDL2023": 176, "crop_code_2020": 37, "crop_2020": "Other Hay/Non Alfalfa", "dominant_pct_2020": 73.333333, "valid_pixels_2020": 15, "matches_csb_2020": true, "crop_code_2021": 176, "crop_2021": "Grassland/Pasture", "dominant_pct_2021": 53.333333, "valid_pixels_2021": 15, "matches_csb_2021": true, "crop_code_2022": 176, "crop_2022": "Grassland/Pasture", "dominant_pct_2022": 60.0, "valid_pixels_2022": 15, "matches_csb_2022": true, "crop_code_2023": 176, "crop_2023": "Grassland/Pasture", "dominant_pct_2023": 73.333333, "valid_pixels_2023": 15, "matches_csb_2023": true}, "geometry": {"type": "MultiPolygon", "coordinates": [[[[-82.52539266446502, 34.33774157173459], [-82.5251231701987, 34.33774157167518], [-82.52485367469326, 34.33774157175076], [-82.52449434864367, 34.33774157193481], [-82.52449434900188, 34.33801106653338], [-82.52422485457446, 34.338011066291116], [-82.52395536042143, 34.33774157158526], [-82.52395535935779, 34.337112751491546], [-82.52422485422818, 34.33711275096622], [-82.52422485473481, 34.337382245891476], [-82.52575199030689, 34.33738224563157], [-82.52602148533921, 34.33738224537308], [-82.52629098013242, 34.337741571810334], [-82.52629098006912, 34.33801106653603], [-82.52575199028385, 34.33801106641175], [-82.52575199051743, 34.33828056130438], [-82.52539266475993, 34.338280560972976], [-82.52539266446502, 34.33774157173459]]]]}}, {"type": "Feature", "properties": {"field_id": "451623001001218", "CSBID": "451623001001218", "STATEFIPS": "45", "CSBACRES": 6.187809269344218, "county": "001", "source_attribute": "", "CDL2020": 37, "CDL2021": 37, "CDL2022": 37, "CDL2023": 37, "crop_code_2020": 37, "crop_2020": "Other Hay/Non Alfalfa", "dominant_pct_2020": 85.185185, "valid_pixels_2020": 27, "matches_csb_2020": true, "crop_code_2021": 37, "crop_2021": "Other Hay/Non Alfalfa", "dominant_pct_2021": 66.666667, "valid_pixels_2021": 27, "matches_csb_2021": true, "crop_code_2022": 37, "crop_2022": "Other Hay/Non Alfalfa", "dominant_pct_2022": 51.851852, "valid_pixels_2022": 27, "matches_csb_2022": true, "crop_code_2023": 176, "crop_2023": "Grassland/Pasture", "dominant_pct_2023": 51.851852, "valid_pixels_2023": 27, "matches_csb_2023": false}, "geometry": {"type": "MultiPolygon", "coordinates": [[[[-82.53248935507168, 34.33567544636075], [-82.53248935604195, 34.335316120689434], [-82.5324893554916, 34.33504662573508], [-82.53338767017874, 34.33504662605152], [-82.53374699552732, 34.335046625982145], [-82.53401649236594, 34.33504662643491], [-82.53491480661698, 34.33567544684967], [-82.53491480676092, 34.3359449414785], [-82.53491480582052, 34.3362144358952], [-82.53284867964737, 34.33621443583189], [-82.53248935507168, 34.33567544636075]]]]}}, {"type": "Feature", "properties": {"field_id": "451623001001219", "CSBID": "451623001001219", "STATEFIPS": "45", "CSBACRES": 4.545813303363282, "county": "001", "source_attribute": "", "CDL2020": 37, "CDL2021": 176, "CDL2022": 176, "CDL2023": 176, "crop_code_2020": 37, "crop_2020": "Other Hay/Non Alfalfa", "dominant_pct_2020": 90.0, "valid_pixels_2020": 20, "matches_csb_2020": true, "crop_code_2021": 176, "crop_2021": "Grassland/Pasture", "dominant_pct_2021": 95.0, "valid_pixels_2021": 20, "matches_csb_2021": true, "crop_code_2022": 176, "crop_2022": "Grassland/Pasture", "dominant_pct_2022": 100.0, "valid_pixels_2022": 20, "matches_csb_2022": true, "crop_code_2023": 176, "crop_2023": "Grassland/Pasture", "dominant_pct_2023": 95.0, "valid_pixels_2023": 20, "matches_csb_2023": true}, "geometry": {"type": "MultiPolygon", "coordinates": [[[[-82.52602148486727, 34.33621443555809], [-82.52602148462735, 34.335944941019186], [-82.5253926641535, 34.33594494094769], [-82.52512316946569, 34.3359449410154], [-82.5248536746231, 34.33594494134445], [-82.52449434914743, 34.33594494152909], [-82.52422485415005, 34.33594494128745], [-82.52425531739301, 34.33570338784041], [-82.52443469506466, 34.33534629814873], [-82.52449434913795, 34.33531612073191], [-82.52485367495494, 34.33531612092646], [-82.5253926642303, 34.33504662595733], [-82.52602148517015, 34.33504662602812], [-82.52602148541008, 34.33531612085324], [-82.52629097977325, 34.33531612072904], [-82.52656047398165, 34.335316120866175], [-82.52656047437033, 34.335675446280916], [-82.52656047410167, 34.336214435824544], [-82.52629098002662, 34.33621443606653], [-82.52602148486727, 34.33621443555809]]]]}}, {"type": "Feature", "properties": {"field_id": "451623001001224", "CSBID": "451623001001224", "STATEFIPS": "45", "CSBACRES": 4.447507684144567, "county": "001", "source_attribute": "", "CDL2020": 37, "CDL2021": 176, "CDL2022": 176, "CDL2023": 176, "crop_code_2020": 37, "crop_2020": "Other Hay/Non Alfalfa", "dominant_pct_2020": 75.0, "valid_pixels_2020": 20, "matches_csb_2020": true, "crop_code_2021": 176, "crop_2021": "Grassland/Pasture", "dominant_pct_2021": 60.0, "valid_pixels_2021": 20, "matches_csb_2021": true, "crop_code_2022": 176, "crop_2022": "Grassland/Pasture", "dominant_pct_2022": 65.0, "valid_pixels_2022": 20, "matches_csb_2022": true, "crop_code_2023": 176, "crop_2023": "Grassland/Pasture", "dominant_pct_2023": 75.0, "valid_pixels_2023": 20, "matches_csb_2023": true}, "geometry": {"type": "MultiPolygon", "coordinates": [[[[-82.53159104014195, 34.33594494221107], [-82.5313215447746, 34.33567544783853], [-82.53132154480093, 34.33531612052379], [-82.5307825564908, 34.33504662623096], [-82.53078255629134, 34.334777131444575], [-82.53078255609186, 34.33450763657222], [-82.53105205121204, 34.33450763667986], [-82.53159103981281, 34.33477713116078], [-82.53195036592605, 34.33477713145233], [-82.53221986043368, 34.33477713138563], [-82.53248935478658, 34.33477713158033], [-82.53338767069141, 34.33477713240206], [-82.53338767017874, 34.33504662605152], [-82.5324893554916, 34.33504662573508], [-82.53248935604195, 34.335316120689434], [-82.53221986074696, 34.33531612150649], [-82.5322198606975, 34.33567544743047], [-82.53221986031198, 34.33594494218438], [-82.53159104014195, 34.33594494221107]]]]}}, {"type": "Feature", "properties": {"field_id": "451623001001231", "CSBID": "451623001001231", "STATEFIPS": "45", "CSBACRES": 4.003016126409183, "county": "001", "source_attribute": "", "CDL2020": 37, "CDL2021": 176, "CDL2022": 176, "CDL2023": 176, "crop_code_2020": 37, "crop_2020": "Other Hay/Non Alfalfa", "dominant_pct_2020": 52.941176, "valid_pixels_2020": 17, "matches_csb_2020": true, "crop_code_2021": 176, "crop_2021": "Grassland/Pasture", "dominant_pct_2021": 82.352941, "valid_pixels_2021": 17, "matches_csb_2021": true, "crop_code_2022": 176, "crop_2022": "Grassland/Pasture", "dominant_pct_2022": 70.588235, "valid_pixels_2022": 17, "matches_csb_2022": true, "crop_code_2023": 176, "crop_2023": "Grassland/Pasture", "dominant_pct_2023": 64.705882, "valid_pixels_2023": 17, "matches_csb_2023": true}, "geometry": {"type": "MultiPolygon", "coordinates": [[[[-82.53698093184838, 34.33477713111046], [-82.53698093184873, 34.33441780556003], [-82.53671143719212, 34.33441780564763], [-82.53635211088022, 34.33441780538402], [-82.53629245718233, 34.33375880649751], [-82.53671143663112, 34.33360932130499], [-82.53725042450337, 34.33324999509028], [-82.53751992145577, 34.333249995397665], [-82.5375199217824, 34.33360932119185], [-82.53787924549619, 34.33387881566852], [-82.53787924710541, 34.33414831074502], [-82.537879246546, 34.334417805483106], [-82.53725042651385, 34.33477713115791], [-82.53698093184838, 34.33477713111046]]]]}}, {"type": "Feature", "properties": {"field_id": "451623001001238", "CSBID": "451623001001238", "STATEFIPS": "45", "CSBACRES": 2.6360029115600883, "county": "001", "source_attribute": "", "CDL2020": 37, "CDL2021": 37, "CDL2022": 176, "CDL2023": 37, "crop_code_2020": 37, "crop_2020": "Other Hay/Non Alfalfa", "dominant_pct_2020": 81.818182, "valid_pixels_2020": 11, "matches_csb_2020": true, "crop_code_2021": 37, "crop_2021": "Other Hay/Non Alfalfa", "dominant_pct_2021": 72.727273, "valid_pixels_2021": 11, "matches_csb_2021": true, "crop_code_2022": 176, "crop_2022": "Grassland/Pasture", "dominant_pct_2022": 54.545455, "valid_pixels_2022": 11, "matches_csb_2022": true, "crop_code_2023": 37, "crop_2023": "Other Hay/Non Alfalfa", "dominant_pct_2023": 63.636364, "valid_pixels_2023": 11, "matches_csb_2023": true}, "geometry": {"type": "MultiPolygon", "coordinates": [[[[-82.53015373513189, 34.33360932179788], [-82.53015373576397, 34.33324999575606], [-82.53015373542486, 34.33298050102975], [-82.53042322908222, 34.33235168021848], [-82.5307825557365, 34.332351680066566], [-82.53105205111464, 34.332351680173154], [-82.53105205138893, 34.3327110062178], [-82.53105205056139, 34.333249995757434], [-82.5310520497514, 34.33360932129387], [-82.53015373513189, 34.33360932179788]]]]}}, {"type": "Feature", "properties": {"field_id": "451623001001243", "CSBID": "451623001001243", "STATEFIPS": "45", "CSBACRES": 5.730075281942755, "county": "001", "source_attribute": "", "CDL2020": 176, "CDL2021": 176, "CDL2022": 176, "CDL2023": 176, "crop_code_2020": 37, "crop_2020": "Other Hay/Non Alfalfa", "dominant_pct_2020": 51.851852, "valid_pixels_2020": 27, "matches_csb_2020": false, "crop_code_2021": 176, "crop_2021": "Grassland/Pasture", "dominant_pct_2021": 77.777778, "valid_pixels_2021": 27, "matches_csb_2021": true, "crop_code_2022": 176, "crop_2022": "Grassland/Pasture", "dominant_pct_2022": 85.185185, "valid_pixels_2022": 27, "matches_csb_2022": true, "crop_code_2023": 176, "crop_2023": "Grassland/Pasture", "dominant_pct_2023": 85.185185, "valid_pixels_2023": 27, "matches_csb_2023": true}, "geometry": {"type": "MultiPolygon", "coordinates": [[[[-82.53518430131801, 34.33181269095356], [-82.53491480639006, 34.33118386995772], [-82.53455548035836, 34.330914376098136], [-82.53455548022328, 34.33064488062469], [-82.53491480656783, 34.33064488124665], [-82.53518430128263, 34.330914375731474], [-82.53518430050318, 34.33118386985462], [-82.53518430116787, 34.33154319601925], [-82.5354537952915, 34.33181269085919], [-82.53581312115772, 34.3318126907322], [-82.53608261588941, 34.331543196523384], [-82.53608261664152, 34.33118387010481], [-82.53671143711851, 34.33118387021436], [-82.53698093154267, 34.331183870504184], [-82.53698093169696, 34.331543196543855], [-82.53698093130893, 34.33208218569654], [-82.53671143704996, 34.33235167991655], [-82.53608261627177, 34.33271100598016], [-82.53518430119875, 34.33271100610616], [-82.53518430053401, 34.33235168043809], [-82.53518430131801, 34.33181269095356]], [[-82.53635211052286, 34.3320821851445], [-82.53635211065459, 34.3318126908013], [-82.53608261590614, 34.331812691078824], [-82.53608261592285, 34.332082185548295], [-82.53635211052286, 34.3320821851445]]]]}}, {"type": "Feature", "properties": {"field_id": "451623001001248", "CSBID": "451623001001248", "STATEFIPS": "45", "CSBACRES": 3.9490344851654404, "county": "001", "source_attribute": "", "CDL2020": 176, "CDL2021": 176, "CDL2022": 176, "CDL2023": 176, "crop_code_2020": 176, "crop_2020": "Grassland/Pasture", "dominant_pct_2020": 55.555556, "valid_pixels_2020": 18, "matches_csb_2020": true, "crop_code_2021": 176, "crop_2021": "Grassland/Pasture", "dominant_pct_2021": 66.666667, "valid_pixels_2021": 18, "matches_csb_2021": true, "crop_code_2022": 176, "crop_2022": "Grassland/Pasture", "dominant_pct_2022": 55.555556, "valid_pixels_2022": 18, "matches_csb_2022": true, "crop_code_2023": 176, "crop_2023": "Grassland/Pasture", "dominant_pct_2023": 77.777778, "valid_pixels_2023": 18, "matches_csb_2023": true}, "geometry": {"type": "MultiPolygon", "coordinates": [[[[-82.53078255606812, 34.3309143757521], [-82.53078255555926, 34.330644881419104], [-82.53042322921763, 34.33064488068654], [-82.53042323011566, 34.33001606074796], [-82.53078255493956, 34.33001605983591], [-82.53105205009197, 34.3293872400401], [-82.53132154508914, 34.32938723977418], [-82.53132154568162, 34.32974656606773], [-82.53159103957574, 34.33028555509107], [-82.53195036487391, 34.33028555500031], [-82.53195036512501, 34.330644880532724], [-82.53159104024058, 34.33091437571563], [-82.53132154572842, 34.33118387034626], [-82.530782556577, 34.331183869999144], [-82.53078255606812, 34.3309143757521]]]]}}, {"type": "Feature", "properties": {"field_id": "451623001001250", "CSBID": "451623001001250", "STATEFIPS": "45", "CSBACRES": 12.640829411592978, "county": "001", "source_attribute": "", "CDL2020": 37, "CDL2021": 37, "CDL2022": 37, "CDL2023": 37, "crop_code_2020": 37, "crop_2020": "Other Hay/Non Alfalfa", "dominant_pct_2020": 88.135593, "valid_pixels_2020": 59, "matches_csb_2020": true, "crop_code_2021": 37, "crop_2021": "Other Hay/Non Alfalfa", "dominant_pct_2021": 83.050847, "valid_pixels_2021": 59, "matches_csb_2021": true, "crop_code_2022": 37, "crop_2022": "Other Hay/Non Alfalfa", "dominant_pct_2022": 86.440678, "valid_pixels_2022": 59, "matches_csb_2022": true, "crop_code_2023": 37, "crop_2023": "Other Hay/Non Alfalfa", "dominant_pct_2023": 84.745763, "valid_pixels_2023": 59, "matches_csb_2023": true}, "geometry": {"type": "MultiPolygon", "coordinates": [[[[-82.54704206284994, 34.332980502806535], [-82.54677256794591, 34.33271100771699], [-82.54614374733022, 34.33235168227999], [-82.54614374676186, 34.332082187382774], [-82.54614374743231, 34.33181269164036], [-82.54641324125963, 34.33181269234953], [-82.54704206238817, 34.331543196590765], [-82.54794037721256, 34.330914377713064], [-82.54847936745536, 34.33064488228831], [-82.54910818753807, 34.330285555634525], [-82.54937768257085, 34.330285556560106], [-82.55000650307525, 34.330285557051965], [-82.55027599810805, 34.33028555589722], [-82.55063532311623, 34.33028555680238], [-82.55090481768552, 34.330285556847734], [-82.55090481818236, 34.330644883032384], [-82.55063532319606, 34.33091437746154], [-82.55027599729058, 34.33091437769413], [-82.54973700862276, 34.33118387199488], [-82.5493776821768, 34.33154319791037], [-82.54883869299448, 34.33181269227502], [-82.54847936634002, 34.33181269277758], [-82.54794037775291, 34.33181269296856], [-82.54767088267047, 34.33208218723934], [-82.54767088289444, 34.33271100756632], [-82.54767088349888, 34.33298050074656], [-82.54731155717059, 34.33298050282774], [-82.54704206284994, 34.332980502806535]]]]}}, {"type": "Feature", "properties": {"field_id": "451623001001251", "CSBID": "451623001001251", "STATEFIPS": "45", "CSBACRES": 4.437590129467583, "county": "001", "source_attribute": "", "CDL2020": 37, "CDL2021": 176, "CDL2022": 176, "CDL2023": 176, "crop_code_2020": 37, "crop_2020": "Other Hay/Non Alfalfa", "dominant_pct_2020": 65.0, "valid_pixels_2020": 20, "matches_csb_2020": true, "crop_code_2021": 176, "crop_2021": "Grassland/Pasture", "dominant_pct_2021": 65.0, "valid_pixels_2021": 20, "matches_csb_2021": true, "crop_code_2022": 176, "crop_2022": "Grassland/Pasture", "dominant_pct_2022": 55.0, "valid_pixels_2022": 20, "matches_csb_2022": true, "crop_code_2023": 176, "crop_2023": "Grassland/Pasture", "dominant_pct_2023": 50.0, "valid_pixels_2023": 20, "matches_csb_2023": true}, "geometry": {"type": "MultiPolygon", "coordinates": [[[[-82.53518430128263, 34.330914375731474], [-82.53491480656783, 34.33064488124665], [-82.53491480606661, 34.330285554573685], [-82.53491480654297, 34.330016060923136], [-82.53518430093794, 34.33001606132525], [-82.53545379517828, 34.330016061988694], [-82.53545379527799, 34.329387240816864], [-82.53545379512164, 34.32911774612062], [-82.53581312198544, 34.3291177448528], [-82.53581312122104, 34.329387239296494], [-82.5360826162213, 34.32938724065349], [-82.5363521104466, 34.3293872394891], [-82.5363521109422, 34.329746566671886], [-82.53635211067876, 34.33028555659031], [-82.53608261629877, 34.33064488227782], [-82.53581312143362, 34.33091437639424], [-82.53518430128263, 34.330914375731474]]]]}}, {"type": "Feature", "properties": {"field_id": "451623001001257", "CSBID": "451623001001257", "STATEFIPS": "45", "CSBACRES": 19.14119405324898, "county": "001", "source_attribute": "", "CDL2020": 37, "CDL2021": 37, "CDL2022": 37, "CDL2023": 37, "crop_code_2020": 37, "crop_2020": "Other Hay/Non Alfalfa", "dominant_pct_2020": 95.294118, "valid_pixels_2020": 85, "matches_csb_2020": true, "crop_code_2021": 37, "crop_2021": "Other Hay/Non Alfalfa", "dominant_pct_2021": 87.058824, "valid_pixels_2021": 85, "matches_csb_2021": true, "crop_code_2022": 37, "crop_2022": "Other Hay/Non Alfalfa", "dominant_pct_2022": 80.0, "valid_pixels_2022": 85, "matches_csb_2022": true, "crop_code_2023": 37, "crop_2023": "Other Hay/Non Alfalfa", "dominant_pct_2023": 81.176471, "valid_pixels_2023": 85, "matches_csb_2023": true}, "geometry": {"type": "MultiPolygon", "coordinates": [[[[-82.54551492673382, 34.3320821876437], [-82.54497593728944, 34.33181269328888], [-82.54470644277491, 34.331543198104704], [-82.54470644232146, 34.33118387167771], [-82.54434711656947, 34.331183870932], [-82.54371829545973, 34.331183871352984], [-82.54356881028642, 34.331153693313944], [-82.54344880163686, 34.331094038686544], [-82.54326913804381, 34.33091437726952], [-82.5427301493331, 34.330644883022465], [-82.54290981224213, 34.33028555574456], [-82.54290981203626, 34.329746567460965], [-82.54264031717774, 34.32974656762132], [-82.54264031730702, 34.329387241191306], [-82.54290981244125, 34.32911774683485], [-82.54317930713017, 34.329117747188306], [-82.54317930654253, 34.32938724138438], [-82.54380812796364, 34.329387241089464], [-82.54380812760658, 34.329117746134116], [-82.54407762214097, 34.329117745292635], [-82.54434711621168, 34.329117746483455], [-82.54434711658088, 34.32938723941541], [-82.54470644268875, 34.32938724117088], [-82.54497593784977, 34.32938724001989], [-82.54524543153633, 34.32911774645077], [-82.54524543176422, 34.32884825115504], [-82.54551492675854, 34.32884825166474], [-82.5458742522304, 34.328848251837464], [-82.54614374670884, 34.32911774669343], [-82.54614374743174, 34.3293872416507], [-82.54614374743231, 34.33181269164036], [-82.54587425292843, 34.33208218706125], [-82.54551492673382, 34.3320821876437]]]]}}, {"type": "Feature", "properties": {"field_id": "451623001001258", "CSBID": "451623001001258", "STATEFIPS": "45", "CSBACRES": 8.885457754892826, "county": "001", "source_attribute": "", "CDL2020": 28, "CDL2021": 37, "CDL2022": 37, "CDL2023": 24, "crop_code_2020": 28, "crop_2020": "Oats", "dominant_pct_2020": 51.219512, "valid_pixels_2020": 41, "matches_csb_2020": true, "crop_code_2021": 37, "crop_2021": "Other Hay/Non Alfalfa", "dominant_pct_2021": 65.853659, "valid_pixels_2021": 41, "matches_csb_2021": true, "crop_code_2022": 37, "crop_2022": "Other Hay/Non Alfalfa", "dominant_pct_2022": 65.853659, "valid_pixels_2022": 41, "matches_csb_2022": true, "crop_code_2023": 24, "crop_2023": "Winter Wheat", "dominant_pct_2023": 41.463415, "valid_pixels_2023": 41, "matches_csb_2023": true}, "geometry": {"type": "MultiPolygon", "coordinates": [[[[-82.5375199203252, 34.329746566558164], [-82.53725042568324, 34.32884825047363], [-82.53671143648246, 34.32884825039478], [-82.53671143723487, 34.32821942961641], [-82.53787924733764, 34.32821942956043], [-82.53787924634891, 34.32794993537548], [-82.53841823612764, 34.327949935356436], [-82.53841823558062, 34.328219430047994], [-82.53841823603858, 34.32857875570562], [-82.53904705634211, 34.329117744988594], [-82.5393165508122, 34.32938723924696], [-82.53931655078303, 34.32974656567355], [-82.53877756246571, 34.32974656605586], [-82.53877756262824, 34.33028555496562], [-82.53814874137238, 34.330285555144044], [-82.53787924696947, 34.33028555629444], [-82.53751992058223, 34.330285555592674], [-82.5375199203252, 34.329746566558164]]]]}}, {"type": "Feature", "properties": {"field_id": "451623001001259", "CSBID": "451623001001259", "STATEFIPS": "45", "CSBACRES": 3.6844874367322995, "county": "001", "source_attribute": "", "CDL2020": 176, "CDL2021": 176, "CDL2022": 176, "CDL2023": 176, "crop_code_2020": 176, "crop_2020": "Grassland/Pasture", "dominant_pct_2020": 63.157895, "valid_pixels_2020": 19, "matches_csb_2020": true, "crop_code_2021": 176, "crop_2021": "Grassland/Pasture", "dominant_pct_2021": 68.421053, "valid_pixels_2021": 19, "matches_csb_2021": true, "crop_code_2022": 176, "crop_2022": "Grassland/Pasture", "dominant_pct_2022": 73.684211, "valid_pixels_2022": 19, "matches_csb_2022": true, "crop_code_2023": 176, "crop_2023": "Grassland/Pasture", "dominant_pct_2023": 73.684211, "valid_pixels_2023": 19, "matches_csb_2023": true}, "geometry": {"type": "MultiPolygon", "coordinates": [[[[-82.52925541990719, 34.32857875699928], [-82.5292554198973, 34.328219430969], [-82.5289859249289, 34.328219430498095], [-82.5289859250828, 34.32794993555891], [-82.52952491438691, 34.32794993511735], [-82.53015373575882, 34.32794993587402], [-82.53042322917256, 34.32794993718213], [-82.5304232298273, 34.32821943073046], [-82.53015373500043, 34.32857875671818], [-82.52988424097498, 34.32884825116897], [-82.52925541945729, 34.329117745252155], [-82.52925541900024, 34.32938724057776], [-82.52862659837483, 34.32938724002492], [-82.5286265997764, 34.329117745458404], [-82.52898592601427, 34.3285787558957], [-82.52925541990719, 34.32857875699928]]]]}}, {"type": "Feature", "properties": {"field_id": "451623001001261", "CSBID": "451623001001261", "STATEFIPS": "45", "CSBACRES": 4.376599028571515, "county": "001", "source_attribute": "", "CDL2020": 37, "CDL2021": 37, "CDL2022": 176, "CDL2023": 37, "crop_code_2020": 37, "crop_2020": "Other Hay/Non Alfalfa", "dominant_pct_2020": 75.0, "valid_pixels_2020": 20, "matches_csb_2020": true, "crop_code_2021": 37, "crop_2021": "Other Hay/Non Alfalfa", "dominant_pct_2021": 55.0, "valid_pixels_2021": 20, "matches_csb_2021": true, "crop_code_2022": 176, "crop_2022": "Grassland/Pasture", "dominant_pct_2022": 50.0, "valid_pixels_2022": 20, "matches_csb_2022": true, "crop_code_2023": 37, "crop_2023": "Other Hay/Non Alfalfa", "dominant_pct_2023": 60.0, "valid_pixels_2023": 20, "matches_csb_2023": true}, "geometry": {"type": "MultiPolygon", "coordinates": [[[[-82.53581312122104, 34.329387239296494], [-82.53581312198544, 34.3291177448528], [-82.53545379512164, 34.32911774612062], [-82.53545379511999, 34.328848250452864], [-82.53518430152735, 34.328848250295955], [-82.53518430106791, 34.32857875618686], [-82.53518430133279, 34.328219429772965], [-82.5354537959946, 34.32821943030875], [-82.53581312195207, 34.32821942941985], [-82.53581312147762, 34.327949935362646], [-82.5358131211578, 34.327680440333936], [-82.53608261596185, 34.327680440551525], [-82.53635211061126, 34.32768044103038], [-82.53635211078883, 34.327949934921], [-82.53635211081175, 34.32821942961111], [-82.53671143723487, 34.32821942961641], [-82.53671143648246, 34.32884825039478], [-82.53671143558462, 34.329117744545584], [-82.53635210933942, 34.329117745045444], [-82.5363521104466, 34.3293872394891], [-82.5360826162213, 34.32938724065349], [-82.53581312122104, 34.329387239296494]]]]}}, {"type": "Feature", "properties": {"field_id": "451623001001262", "CSBID": "451623001001262", "STATEFIPS": "45", "CSBACRES": 15.70476291622756, "county": "001", "source_attribute": "", "CDL2020": 37, "CDL2021": 37, "CDL2022": 176, "CDL2023": 176, "crop_code_2020": 28, "crop_2020": "Oats", "dominant_pct_2020": 49.315068, "valid_pixels_2020": 73, "matches_csb_2020": false, "crop_code_2021": 37, "crop_2021": "Other Hay/Non Alfalfa", "dominant_pct_2021": 47.945205, "valid_pixels_2021": 73, "matches_csb_2021": true, "crop_code_2022": 37, "crop_2022": "Other Hay/Non Alfalfa", "dominant_pct_2022": 46.575342, "valid_pixels_2022": 73, "matches_csb_2022": false, "crop_code_2023": 176, "crop_2023": "Grassland/Pasture", "dominant_pct_2023": 35.616438, "valid_pixels_2023": 73, "matches_csb_2023": true}, "geometry": {"type": "MultiPolygon", "coordinates": [[[[-82.53725042623195, 34.33091437591904], [-82.53725042596679, 34.33118387016983], [-82.53787924644558, 34.331183870293515], [-82.53787924685035, 34.330914375409776], [-82.53725042623195, 34.33091437591904], [-82.5372504266517, 34.330644880696745], [-82.53787924710049, 34.33064488132559], [-82.53814874151225, 34.33064488093432], [-82.53814874137238, 34.330285555144044], [-82.53877756262824, 34.33028555496562], [-82.53877756246571, 34.32974656605586], [-82.53931655078303, 34.32974656567355], [-82.5393165508122, 34.32938723924696], [-82.53904705634211, 34.329117744988594], [-82.53841823603858, 34.32857875570562], [-82.53841823558062, 34.328219430047994], [-82.53841823612764, 34.327949935356436], [-82.53787924634891, 34.32794993537548], [-82.53787924733764, 34.32821942956043], [-82.53671143723487, 34.32821942961641], [-82.53635211081175, 34.32821942961111], [-82.53635211078883, 34.327949934921], [-82.53635211061126, 34.32768044103038], [-82.53608261596185, 34.327680440551525], [-82.53608261640461, 34.3273211142605], [-82.53671143745981, 34.32705161964018], [-82.53698093193961, 34.327051619800756], [-82.53725042626472, 34.32705162022269], [-82.53751992058987, 34.3270516200205], [-82.53787924656352, 34.32705161970752], [-82.53814874141965, 34.327321114165244], [-82.53877756238909, 34.327949935432585], [-82.53904705647649, 34.328578755586165], [-82.53931655124349, 34.32884825026909], [-82.53967587779283, 34.328848250734374], [-82.5399453721172, 34.32911774526709], [-82.54021486583541, 34.32938724060822], [-82.54048436141436, 34.32974656667361], [-82.54048436153623, 34.330016060034325], [-82.54021486658235, 34.330644881739644], [-82.53994537212361, 34.33091437657424], [-82.53967587754912, 34.330914376698836], [-82.53967587713647, 34.330644882360474], [-82.53967587674089, 34.33028555555685], [-82.53931655128137, 34.330285555089944], [-82.53877756227213, 34.33064488126256], [-82.53841823576938, 34.33064488080452], [-82.53814874162994, 34.33154319606982], [-82.53814874107674, 34.33181269062671], [-82.53751992123357, 34.33181269081975], [-82.53751992056287, 34.33154319676942], [-82.53725042628457, 34.331543196083246], [-82.53698093169696, 34.331543196543855], [-82.53698093154267, 34.331183870504184], [-82.53725042623195, 34.33091437591904]]]]}}, {"type": "Feature", "properties": {"field_id": "451623001001264", "CSBID": "451623001001264", "STATEFIPS": "45", "CSBACRES": 5.923776287733908, "county": "001", "source_attribute": "", "CDL2020": 37, "CDL2021": 176, "CDL2022": 176, "CDL2023": 176, "crop_code_2020": 37, "crop_2020": "Other Hay/Non Alfalfa", "dominant_pct_2020": 52.0, "valid_pixels_2020": 25, "matches_csb_2020": true, "crop_code_2021": 176, "crop_2021": "Grassland/Pasture", "dominant_pct_2021": 44.0, "valid_pixels_2021": 25, "matches_csb_2021": true, "crop_code_2022": 176, "crop_2022": "Grassland/Pasture", "dominant_pct_2022": 68.0, "valid_pixels_2022": 25, "matches_csb_2022": true, "crop_code_2023": 176, "crop_2023": "Grassland/Pasture", "dominant_pct_2023": 64.0, "valid_pixels_2023": 25, "matches_csb_2023": true}, "geometry": {"type": "MultiPolygon", "coordinates": [[[[-82.5358131189437, 34.32642279986146], [-82.5364419431289, 34.32642280002821], [-82.53671143681872, 34.32642279916834], [-82.53698093004465, 34.32642280034067], [-82.53751992095316, 34.326512631704496], [-82.53751992058987, 34.3270516200205], [-82.53725042626472, 34.32705162022269], [-82.53698093193961, 34.327051619800756], [-82.53671143745981, 34.32705161964018], [-82.53608261640461, 34.3273211142605], [-82.53608261596185, 34.327680440551525], [-82.5358131211578, 34.327680440333936], [-82.53581312147762, 34.327949935362646], [-82.53581312195207, 34.32821942941985], [-82.5354537959946, 34.32821943030875], [-82.53518430133279, 34.328219429772965], [-82.53455548073468, 34.32794993583374], [-82.53455547920606, 34.327680441059016], [-82.5351842993297, 34.32768044094101], [-82.5354537942884, 34.32768044172944], [-82.53545379371461, 34.32642279986623], [-82.5358131189437, 34.32642279986146]]]]}}, {"type": "Feature", "properties": {"field_id": "451623001001266", "CSBID": "451623001001266", "STATEFIPS": "45", "CSBACRES": 14.144361343838874, "county": "001", "source_attribute": "", "CDL2020": 176, "CDL2021": 176, "CDL2022": 176, "CDL2023": 176, "crop_code_2020": 176, "crop_2020": "Grassland/Pasture", "dominant_pct_2020": 60.0, "valid_pixels_2020": 65, "matches_csb_2020": true, "crop_code_2021": 176, "crop_2021": "Grassland/Pasture", "dominant_pct_2021": 72.307692, "valid_pixels_2021": 65, "matches_csb_2021": true, "crop_code_2022": 176, "crop_2022": "Grassland/Pasture", "dominant_pct_2022": 75.384615, "valid_pixels_2022": 65, "matches_csb_2022": true, "crop_code_2023": 176, "crop_2023": "Grassland/Pasture", "dominant_pct_2023": 78.461538, "valid_pixels_2023": 65, "matches_csb_2023": true}, "geometry": {"type": "MultiPolygon", "coordinates": [[[[-82.53401649127044, 34.32794993516359], [-82.53374699696553, 34.327680440825375], [-82.53311817536787, 34.32732111409788], [-82.53311817542269, 34.327051619628946], [-82.53311817547753, 34.32678212507388], [-82.53284868124325, 34.32642279916292], [-82.53248935555177, 34.32642279899451], [-82.53248935504567, 34.3267821257916], [-82.53195036641424, 34.32678212554522], [-82.53195036600839, 34.326422799254615], [-82.5322198600821, 34.326153304681434], [-82.53248935546694, 34.32615330487155], [-82.53248935553681, 34.32588380977707], [-82.53221986085443, 34.325614315165595], [-82.53195036610218, 34.32561431511045], [-82.53195036554166, 34.32525498920811], [-82.53248935471925, 34.32525498894684], [-82.53248935545199, 34.325614315482], [-82.53338767046833, 34.32561431590808], [-82.53338767006814, 34.32525498899276], [-82.53356733385063, 34.325254989156285], [-82.53371681817413, 34.32528516747572], [-82.53401649101316, 34.32543465227147], [-82.53428598548619, 34.325614315723705], [-82.5345554799095, 34.32588381010487], [-82.53518430095436, 34.32642279882521], [-82.53545379371461, 34.32642279986623], [-82.5354537942884, 34.32768044172944], [-82.5351842993297, 34.32768044094101], [-82.53455547920606, 34.327680441059016], [-82.53455548073468, 34.32794993583374], [-82.53401649127044, 34.32794993516359]]]]}}, {"type": "Feature", "properties": {"field_id": "451623001001267", "CSBID": "451623001001267", "STATEFIPS": "45", "CSBACRES": 4.753304821959788, "county": "001", "source_attribute": "", "CDL2020": 176, "CDL2021": 176, "CDL2022": 176, "CDL2023": 176, "crop_code_2020": 176, "crop_2020": "Grassland/Pasture", "dominant_pct_2020": 89.473684, "valid_pixels_2020": 19, "matches_csb_2020": true, "crop_code_2021": 176, "crop_2021": "Grassland/Pasture", "dominant_pct_2021": 100.0, "valid_pixels_2021": 19, "matches_csb_2021": true, "crop_code_2022": 176, "crop_2022": "Grassland/Pasture", "dominant_pct_2022": 94.736842, "valid_pixels_2022": 19, "matches_csb_2022": true, "crop_code_2023": 176, "crop_2023": "Grassland/Pasture", "dominant_pct_2023": 100.0, "valid_pixels_2023": 19, "matches_csb_2023": true}, "geometry": {"type": "MultiPolygon", "coordinates": [[[[-82.53015373486588, 34.325883810036], [-82.53078255560635, 34.32588381017526], [-82.5310520506742, 34.32588381015236], [-82.53105205010513, 34.326153304866715], [-82.53078255657883, 34.32678212504838], [-82.5304232297252, 34.32705161963089], [-82.53015373586864, 34.32705161971468], [-82.53015373506543, 34.326782125667194], [-82.5295249141721, 34.32678212567064], [-82.52925541971011, 34.32705161961864], [-82.52925542049198, 34.32732111484461], [-82.52862659894969, 34.327321114040856], [-82.52862659927494, 34.32678212502109], [-82.52925541969304, 34.32642279940898], [-82.5298842404402, 34.32615330420996], [-82.52988424057273, 34.3258838098757], [-82.53015373486588, 34.325883810036]]]]}}, {"type": "Feature", "properties": {"field_id": "451623001001281", "CSBID": "451623001001281", "STATEFIPS": "45", "CSBACRES": 4.132697886258406, "county": "001", "source_attribute": "", "CDL2020": 37, "CDL2021": 176, "CDL2022": 176, "CDL2023": 37, "crop_code_2020": 37, "crop_2020": "Other Hay/Non Alfalfa", "dominant_pct_2020": 55.555556, "valid_pixels_2020": 18, "matches_csb_2020": true, "crop_code_2021": 176, "crop_2021": "Grassland/Pasture", "dominant_pct_2021": 50.0, "valid_pixels_2021": 18, "matches_csb_2021": true, "crop_code_2022": 176, "crop_2022": "Grassland/Pasture", "dominant_pct_2022": 61.111111, "valid_pixels_2022": 18, "matches_csb_2022": true, "crop_code_2023": 176, "crop_2023": "Grassland/Pasture", "dominant_pct_2023": 50.0, "valid_pixels_2023": 18, "matches_csb_2023": false}, "geometry": {"type": "MultiPolygon", "coordinates": [[[[-82.5393165512827, 34.321392233652396], [-82.53904705654044, 34.321122738996785], [-82.53841823588006, 34.320853244067685], [-82.53841823588783, 34.320493918787996], [-82.53904705602827, 34.320493919034774], [-82.5390470560964, 34.320224424784286], [-82.5402148668722, 34.32022442441093], [-82.54048436057124, 34.32022442454814], [-82.54048436100226, 34.32049391917903], [-82.54021486636755, 34.32049391904185], [-82.54021486677883, 34.32085324520862], [-82.54021486642874, 34.32112273875298], [-82.53967587661243, 34.32139223347823], [-82.5393165512827, 34.321392233652396]]]]}}, {"type": "Feature", "properties": {"field_id": "451623001001285", "CSBID": "451623001001285", "STATEFIPS": "45", "CSBACRES": 4.641658947719539, "county": "001", "source_attribute": "", "CDL2020": 37, "CDL2021": 37, "CDL2022": 37, "CDL2023": 37, "crop_code_2020": 37, "crop_2020": "Other Hay/Non Alfalfa", "dominant_pct_2020": 76.190476, "valid_pixels_2020": 21, "matches_csb_2020": true, "crop_code_2021": 37, "crop_2021": "Other Hay/Non Alfalfa", "dominant_pct_2021": 71.428571, "valid_pixels_2021": 21, "matches_csb_2021": true, "crop_code_2022": 37, "crop_2022": "Other Hay/Non Alfalfa", "dominant_pct_2022": 85.714286, "valid_pixels_2022": 21, "matches_csb_2022": true, "crop_code_2023": 37, "crop_2023": "Other Hay/Non Alfalfa", "dominant_pct_2023": 76.190476, "valid_pixels_2023": 21, "matches_csb_2023": true}, "geometry": {"type": "MultiPolygon", "coordinates": [[[[-82.54111318134245, 34.32139223382734], [-82.54111318168916, 34.32085324479951], [-82.54084368720017, 34.32085324447412], [-82.5404843606474, 34.32085324420776], [-82.54021486677883, 34.32085324520862], [-82.54021486636755, 34.32049391904185], [-82.54048436100226, 34.32049391917903], [-82.54111318161044, 34.32049391825228], [-82.54174200222344, 34.320224423469476], [-82.54201149731449, 34.31995492889261], [-82.54228099147322, 34.319954929548366], [-82.54264031760411, 34.32022442391739], [-82.54264031777707, 34.320493918550056], [-82.54264031733642, 34.32085324421357], [-82.54228099171105, 34.320853244182764], [-82.54201149660506, 34.32112273934911], [-82.54174200303464, 34.32139223329831], [-82.54111318134245, 34.32139223382734]]]]}}, {"type": "Feature", "properties": {"field_id": "451623001001295", "CSBID": "451623001001295", "STATEFIPS": "45", "CSBACRES": 3.308253514560647, "county": "001", "source_attribute": "", "CDL2020": 37, "CDL2021": 176, "CDL2022": 176, "CDL2023": 176, "crop_code_2020": 37, "crop_2020": "Other Hay/Non Alfalfa", "dominant_pct_2020": 92.307692, "valid_pixels_2020": 13, "matches_csb_2020": true, "crop_code_2021": 176, "crop_2021": "Grassland/Pasture", "dominant_pct_2021": 61.538462, "valid_pixels_2021": 13, "matches_csb_2021": true, "crop_code_2022": 176, "crop_2022": "Grassland/Pasture", "dominant_pct_2022": 61.538462, "valid_pixels_2022": 13, "matches_csb_2022": true, "crop_code_2023": 176, "crop_2023": "Grassland/Pasture", "dominant_pct_2023": 53.846154, "valid_pixels_2023": 13, "matches_csb_2023": true}, "geometry": {"type": "MultiPolygon", "coordinates": [[[[-82.5497370083644, 34.319326108883445], [-82.5497370087184, 34.319685434926946], [-82.55000650334225, 34.3196854350178], [-82.55000650297933, 34.31932610821506], [-82.5497370083644, 34.319326108883445], [-82.54973700895067, 34.319056614123554], [-82.54937768218664, 34.31905661412877], [-82.54937768293631, 34.318787119156504], [-82.55000650321013, 34.318787119620744], [-82.55063532338494, 34.319056613936716], [-82.5506353237708, 34.31968543486856], [-82.55063532305101, 34.31995492904884], [-82.5491081880004, 34.31995492958606], [-82.54910818751748, 34.319685434648726], [-82.54937768267558, 34.319326108255495], [-82.5497370083644, 34.319326108883445]]]]}}, {"type": "Feature", "properties": {"field_id": "451623001001299", "CSBID": "451623001001299", "STATEFIPS": "45", "CSBACRES": 5.048982917619439, "county": "001", "source_attribute": "", "CDL2020": 37, "CDL2021": 176, "CDL2022": 176, "CDL2023": 176, "crop_code_2020": 37, "crop_2020": "Other Hay/Non Alfalfa", "dominant_pct_2020": 81.818182, "valid_pixels_2020": 22, "matches_csb_2020": true, "crop_code_2021": 176, "crop_2021": "Grassland/Pasture", "dominant_pct_2021": 63.636364, "valid_pixels_2021": 22, "matches_csb_2021": true, "crop_code_2022": 176, "crop_2022": "Grassland/Pasture", "dominant_pct_2022": 63.636364, "valid_pixels_2022": 22, "matches_csb_2022": true, "crop_code_2023": 176, "crop_2023": "Grassland/Pasture", "dominant_pct_2023": 68.181818, "valid_pixels_2023": 22, "matches_csb_2023": true}, "geometry": {"type": "MultiPolygon", "coordinates": [[[[-82.54021486600217, 34.318787119649706], [-82.54021486652046, 34.31842779361378], [-82.53967587688614, 34.31842779336733], [-82.5396758769393, 34.318158298708695], [-82.53994537171907, 34.31788880370307], [-82.5402148662911, 34.31788880370359], [-82.54048436070852, 34.31788880396531], [-82.54084368685677, 34.31788880397573], [-82.5411131822037, 34.3178888037927], [-82.54174200308061, 34.31788880376348], [-82.54201149672525, 34.31788880491538], [-82.54228099192713, 34.31815829841866], [-82.54228099209122, 34.31842779295279], [-82.54228099215543, 34.318787119749686], [-82.54021486600217, 34.318787119649706]], [[-82.54111318216617, 34.31842779294538], [-82.54111318048153, 34.31815829866552], [-82.54084368760576, 34.318158298341814], [-82.54084368711612, 34.31842779338094], [-82.54111318216617, 34.31842779294538]]]]}}]}
