{
"type": "FeatureCollection",
"name": "fields_with_ssurgo_summary",
"crs": { "type": "name", "properties": { "name": "urn:ogc:def:crs:OGC:1.3:CRS84" } },
"features": [
{ "type": "Feature", "properties": { "field_id": "451623001001160", "CSBID": "451623001001160", "STATEFIPS": "45", "CSBACRES_x": 4.2331742333979747, "county": "001", "source_attribute": "", "CDL2020": 37, "CDL2021": 37, "CDL2022": 37, "CDL2023": 176, "CSBACRES_y": 4.2331742333979747, "field_area_m2": 17125.696622516185, "covered_area_m2": 17125.696622516527, "coverage_percent": 100.0, "ssurgo_coverage_percent": 100.0, "uncovered_percent": 0.0, "area_weighted_aws025wta": 2.0437086373285567, "weighted_selected_soil_attribute": 2.0437086373285567, "dominant_mukey": "1154999", "dominant_musym": "DuB", "dominant_muname": "Durham loamy sand, 2 to 6 percent slopes", "dominant_mapunit_percent": 97.026623310984505, "mapunit_count": 2, "map_unit_count": 2, "ssurgo_polygon_count": 2 }, "geometry": { "type": "MultiPolygon", "coordinates": [ [ [ [ -82.522787549756259, 34.34843152326598 ], [ -82.522787550107537, 34.348072197698954 ], [ -82.522428223778732, 34.34807219795173 ], [ -82.522158728954722, 34.348072197856034 ], [ -82.52188923521517, 34.348072197262866 ], [ -82.52188923445452, 34.347802702956258 ], [ -82.521889234951914, 34.347173882237222 ], [ -82.522158728979619, 34.347173882324299 ], [ -82.522428224091826, 34.347173881913811 ], [ -82.523057044316417, 34.347173881944769 ], [ -82.523057044922027, 34.346904387984843 ], [ -82.523057043513546, 34.346634892801021 ], [ -82.523057044785716, 34.346275566725552 ], [ -82.52359603326326, 34.346275567065447 ], [ -82.523596033402654, 34.34663489301456 ], [ -82.523596032372453, 34.347173882411617 ], [ -82.523326538964071, 34.34717388211066 ], [ -82.523057045058337, 34.347533208777804 ], [ -82.523057044452727, 34.347802702537919 ], [ -82.523057044776735, 34.348072197224155 ], [ -82.523057044434168, 34.348431523550218 ], [ -82.522787549756259, 34.34843152326598 ] ] ] ] } },
{ "type": "Feature", "properties": { "field_id": "451623001001187", "CSBID": "451623001001187", "STATEFIPS": "45", "CSBACRES_x": 2.9410683003849662, "county": "001", "source_attribute": "", "CDL2020": 37, "CDL2021": 176, "CDL2022": 176, "CDL2023": 37, "CSBACRES_y": 2.9410683003849662, "field_area_m2": 11898.376323819059, "covered_area_m2": 11898.376323819059, "coverage_percent": 100.0, "ssurgo_coverage_percent": 100.0, "uncovered_percent": 0.0, "area_weighted_aws025wta": 3.5, "weighted_selected_soil_attribute": 3.5, "dominant_mukey": "1154985", "dominant_musym": "ApB", "dominant_muname": "Appling sandy loam, 2 to 6 percent slopes", "dominant_mapunit_percent": 100.0, "mapunit_count": 1, "map_unit_count": 1, "ssurgo_polygon_count": 1 }, "geometry": { "type": "MultiPolygon", "coordinates": [ [ [ [ -82.523596033738016, 34.340706011941791 ], [ -82.523596033881802, 34.34007719114139 ], [ -82.524224854069999, 34.340077191562834 ], [ -82.524853675090341, 34.340346686868941 ], [ -82.525123169574215, 34.340346687426688 ], [ -82.525392664212845, 34.340346686474909 ], [ -82.525392664306295, 34.340706012156382 ], [ -82.524853675223653, 34.340975507217088 ], [ -82.524494348760413, 34.340975506387998 ], [ -82.524494349641358, 34.340706011974149 ], [ -82.524224854684377, 34.340706011857662 ], [ -82.523955359572568, 34.340706012002585 ], [ -82.523955360072875, 34.340975506795644 ], [ -82.523596034074799, 34.340975506861248 ], [ -82.523596033738016, 34.340706011941791 ] ] ] ] } },
{ "type": "Feature", "properties": { "field_id": "451623001001196", "CSBID": "451623001001196", "STATEFIPS": "45", "CSBACRES_x": 17.514312061244784, "county": "001", "source_attribute": "", "CDL2020": 37, "CDL2021": 37, "CDL2022": 37, "CDL2023": 37, "CSBACRES_y": 17.514312061244784, "field_area_m2": 70855.94859810546, "covered_area_m2": 70855.948598104704, "coverage_percent": 99.999999999998934, "ssurgo_coverage_percent": 99.999999999998934, "uncovered_percent": 1.0658141036401503e-12, "area_weighted_aws025wta": 3.4964647033779594, "weighted_selected_soil_attribute": 3.4964647033779594, "dominant_mukey": "1154985", "dominant_musym": "ApB", "dominant_muname": "Appling sandy loam, 2 to 6 percent slopes", "dominant_mapunit_percent": 88.215677926530816, "mapunit_count": 2, "map_unit_count": 2, "ssurgo_polygon_count": 3 }, "geometry": { "type": "Polygon", "coordinates": [ [ [ -82.524494348653704, 34.339807697991411 ], [ -82.52449434885709, 34.34007719281756 ], [ -82.524224854069999, 34.340077191562834 ], [ -82.524224854647727, 34.339807697622113 ], [ -82.523955359402606, 34.339807697387847 ], [ -82.523955359732909, 34.339178877184793 ], [ -82.524224854765876, 34.338909381547879 ], [ -82.524494348905193, 34.338909382296421 ], [ -82.524494349108608, 34.339178877408571 ], [ -82.52512317007313, 34.339178877529442 ], [ -82.525123170009365, 34.338909381784624 ], [ -82.525123169790888, 34.338639886839466 ], [ -82.525123169706163, 34.338280561039973 ], [ -82.525392664759934, 34.338280560972976 ], [ -82.525751990517435, 34.338280561304373 ], [ -82.525751990260801, 34.33863988672465 ], [ -82.52539266376904, 34.338639887405122 ], [ -82.525392664063986, 34.339178876071401 ], [ -82.525751990316593, 34.339538201947974 ], [ -82.526021483851821, 34.339538202449205 ], [ -82.526021486423232, 34.339178876018586 ], [ -82.526290978710591, 34.339178875895847 ], [ -82.526919800141172, 34.339178876302029 ], [ -82.527458789863687, 34.338909381597666 ], [ -82.527458789279166, 34.338639886651741 ], [ -82.527458789377846, 34.33828056123069 ], [ -82.527818115291041, 34.338280560622046 ], [ -82.528087609596241, 34.338639887451833 ], [ -82.528626598941543, 34.338909381445987 ], [ -82.52898592590833, 34.338909381532552 ], [ -82.529524914979291, 34.339178876087821 ], [ -82.529524914238863, 34.339807697307336 ], [ -82.529255420239195, 34.34007719152445 ], [ -82.528985924985847, 34.34007719130166 ], [ -82.528985925758747, 34.33980769660031 ], [ -82.52862659896978, 34.339807697019211 ], [ -82.528357104342831, 34.339807697111212 ], [ -82.528357104793983, 34.3400771913062 ], [ -82.527818115191181, 34.3403466858773 ], [ -82.526919800540085, 34.340706012516378 ], [ -82.526560474084675, 34.340706012500831 ], [ -82.526290979838365, 34.340975506523186 ], [ -82.526021484564609, 34.340975507025099 ], [ -82.525751990296413, 34.340706012109273 ], [ -82.525751990862645, 34.34034668579514 ], [ -82.525392664212845, 34.340346686474909 ], [ -82.525123169665278, 34.340077191168206 ], [ -82.525123169574215, 34.340346687426688 ], [ -82.524853675090341, 34.340346686868941 ], [ -82.524853675440781, 34.339807697681621 ], [ -82.524494348653704, 34.339807697991411 ] ], [ [ -82.528357105130794, 34.339538202071317 ], [ -82.527818116028826, 34.339178876229028 ], [ -82.527458789363834, 34.339178876331395 ], [ -82.527458788610545, 34.339807696790054 ], [ -82.528357104342831, 34.339807697111212 ], [ -82.528357105130794, 34.339538202071317 ] ], [ [ -82.525123169446729, 34.339807696594853 ], [ -82.525123170312597, 34.339538202062073 ], [ -82.524853675073842, 34.33953820289608 ], [ -82.524853675440781, 34.339807697681621 ], [ -82.525123169446729, 34.339807696594853 ] ] ] } },
{ "type": "Feature", "properties": { "field_id": "451623001001204", "CSBID": "451623001001204", "STATEFIPS": "45", "CSBACRES_x": 3.3075373558161139, "county": "001", "source_attribute": "", "CDL2020": 37, "CDL2021": 176, "CDL2022": 176, "CDL2023": 176, "CSBACRES_y": 3.3075373558161139, "field_area_m2": 13380.970179311144, "covered_area_m2": 13380.970179312459, "coverage_percent": 100.0, "ssurgo_coverage_percent": 100.0, "uncovered_percent": 0.0, "area_weighted_aws025wta": 3.4979447570645004, "weighted_selected_soil_attribute": 3.4979447570645004, "dominant_mukey": "1154985", "dominant_musym": "ApB", "dominant_muname": "Appling sandy loam, 2 to 6 percent slopes", "dominant_mapunit_percent": 93.149190215010179, "mapunit_count": 2, "map_unit_count": 2, "ssurgo_polygon_count": 2 }, "geometry": { "type": "MultiPolygon", "coordinates": [ [ [ [ -82.525392664465016, 34.337741571734583 ], [ -82.525123170198711, 34.337741571675174 ], [ -82.524853674693261, 34.337741571750755 ], [ -82.524494348643671, 34.337741571934806 ], [ -82.524494349001884, 34.338011066533383 ], [ -82.52422485457447, 34.338011066291109 ], [ -82.523955360421439, 34.337741571585255 ], [ -82.523955359357785, 34.337112751491539 ], [ -82.52422485422818, 34.33711275096622 ], [ -82.524224854734811, 34.337382245891476 ], [ -82.525751990306887, 34.337382245631552 ], [ -82.526021485339214, 34.337382245373071 ], [ -82.526290980132416, 34.337741571810334 ], [ -82.52629098006912, 34.338011066536033 ], [ -82.525751990283851, 34.338011066411752 ], [ -82.525751990517435, 34.338280561304373 ], [ -82.525392664759934, 34.338280560972976 ], [ -82.525392664465016, 34.337741571734583 ] ] ] ] } },
{ "type": "Feature", "properties": { "field_id": "451623001001218", "CSBID": "451623001001218", "STATEFIPS": "45", "CSBACRES_x": 6.1878092693442177, "county": "001", "source_attribute": "", "CDL2020": 37, "CDL2021": 37, "CDL2022": 37, "CDL2023": 37, "CSBACRES_y": 6.1878092693442177, "field_area_m2": 25033.527709895701, "covered_area_m2": 25033.527709895701, "coverage_percent": 100.0, "ssurgo_coverage_percent": 100.0, "uncovered_percent": 0.0, "area_weighted_aws025wta": 2.95, "weighted_selected_soil_attribute": 2.95, "dominant_mukey": "1154991", "dominant_musym": "CcB", "dominant_muname": "Cecil sandy loam, 2 to 6 percent slopes", "dominant_mapunit_percent": 100.0, "mapunit_count": 1, "map_unit_count": 1, "ssurgo_polygon_count": 1 }, "geometry": { "type": "MultiPolygon", "coordinates": [ [ [ [ -82.532489355071675, 34.335675446360746 ], [ -82.53248935604195, 34.335316120689434 ], [ -82.532489355491606, 34.335046625735082 ], [ -82.53338767017874, 34.335046626051522 ], [ -82.533746995527324, 34.335046625982137 ], [ -82.534016492365936, 34.335046626434917 ], [ -82.534914806616982, 34.335675446849663 ], [ -82.534914806760924, 34.335944941478502 ], [ -82.53491480582052, 34.336214435895201 ], [ -82.532848679647373, 34.336214435831899 ], [ -82.532489355071675, 34.335675446360746 ] ] ] ] } },
{ "type": "Feature", "properties": { "field_id": "451623001001219", "CSBID": "451623001001219", "STATEFIPS": "45", "CSBACRES_x": 4.5458133033632819, "county": "001", "source_attribute": "", "CDL2020": 37, "CDL2021": 176, "CDL2022": 176, "CDL2023": 176, "CSBACRES_y": 4.5458133033632819, "field_area_m2": 18390.54168646146, "covered_area_m2": 18390.541686460379, "coverage_percent": 99.999999999994131, "ssurgo_coverage_percent": 99.999999999994131, "uncovered_percent": 5.8690829973784275e-12, "area_weighted_aws025wta": 2.9532123611189816, "weighted_selected_soil_attribute": 2.9532123611189816, "dominant_mukey": "1154991", "dominant_musym": "CcB", "dominant_muname": "Cecil sandy loam, 2 to 6 percent slopes", "dominant_mapunit_percent": 99.393362391790333, "mapunit_count": 3, "map_unit_count": 3, "ssurgo_polygon_count": 3 }, "geometry": { "type": "MultiPolygon", "coordinates": [ [ [ [ -82.526021484867272, 34.336214435558077 ], [ -82.52602148462735, 34.335944941019186 ], [ -82.5253926641535, 34.335944940947684 ], [ -82.525123169465687, 34.335944941015391 ], [ -82.524853674623103, 34.335944941344444 ], [ -82.524494349147432, 34.335944941529092 ], [ -82.524224854150049, 34.335944941287451 ], [ -82.524255317393013, 34.335703387840411 ], [ -82.524434695064656, 34.335346298148721 ], [ -82.524494349137953, 34.335316120731918 ], [ -82.52485367495494, 34.335316120926457 ], [ -82.525392664230296, 34.335046625957318 ], [ -82.526021485170162, 34.33504662602811 ], [ -82.526021485410084, 34.335316120853236 ], [ -82.52629097977325, 34.33531612072904 ], [ -82.526560473981647, 34.335316120866175 ], [ -82.526560474370328, 34.335675446280916 ], [ -82.526560474101672, 34.336214435824537 ], [ -82.526290980026616, 34.33621443606652 ], [ -82.526021484867272, 34.336214435558077 ] ] ] ] } },
{ "type": "Feature", "properties": { "field_id": "451623001001224", "CSBID": "451623001001224", "STATEFIPS": "45", "CSBACRES_x": 4.4475076841445667, "county": "001", "source_attribute": "", "CDL2020": 37, "CDL2021": 176, "CDL2022": 176, "CDL2023": 176, "CSBACRES_y": 4.4475076841445667, "field_area_m2": 17992.908887819056, "covered_area_m2": 17992.908887819052, "coverage_percent": 99.999999999999972, "ssurgo_coverage_percent": 99.999999999999972, "uncovered_percent": 2.8421709430404007e-14, "area_weighted_aws025wta": 2.95, "weighted_selected_soil_attribute": 2.95, "dominant_mukey": "1154991", "dominant_musym": "CcB", "dominant_muname": "Cecil sandy loam, 2 to 6 percent slopes", "dominant_mapunit_percent": 99.999999999999972, "mapunit_count": 1, "map_unit_count": 1, "ssurgo_polygon_count": 1 }, "geometry": { "type": "MultiPolygon", "coordinates": [ [ [ [ -82.531591040141947, 34.335944942211071 ], [ -82.531321544774599, 34.33567544783854 ], [ -82.531321544800932, 34.335316120523785 ], [ -82.530782556490806, 34.335046626230962 ], [ -82.530782556291342, 34.334777131444582 ], [ -82.530782556091864, 34.334507636572226 ], [ -82.531052051212043, 34.334507636679852 ], [ -82.53159103981281, 34.334777131160777 ], [ -82.53195036592605, 34.33477713145232 ], [ -82.532219860433685, 34.334777131385621 ], [ -82.532489354786577, 34.334777131580324 ], [ -82.533387670691411, 34.334777132402053 ], [ -82.53338767017874, 34.335046626051522 ], [ -82.532489355491606, 34.335046625735082 ], [ -82.53248935604195, 34.335316120689434 ], [ -82.532219860746963, 34.335316121506494 ], [ -82.532219860697495, 34.335675447430468 ], [ -82.532219860311997, 34.335944942184383 ], [ -82.531591040141947, 34.335944942211071 ] ] ] ] } },
{ "type": "Feature", "properties": { "field_id": "451623001001231", "CSBID": "451623001001231", "STATEFIPS": "45", "CSBACRES_x": 4.0030161264091833, "county": "001", "source_attribute": "", "CDL2020": 37, "CDL2021": 176, "CDL2022": 176, "CDL2023": 176, "CSBACRES_y": 4.0030161264091833, "field_area_m2": 16194.721897910846, "covered_area_m2": 16194.721897908843, "coverage_percent": 99.999999999987637, "ssurgo_coverage_percent": 99.999999999987637, "uncovered_percent": 1.2363443602225743e-11, "area_weighted_aws025wta": 2.9845047563551557, "weighted_selected_soil_attribute": 2.9845047563551557, "dominant_mukey": "1154992", "dominant_musym": "CcC", "dominant_muname": "Cecil sandy loam, 6 to 10 percent slopes", "dominant_mapunit_percent": 86.261890887877328, "mapunit_count": 2, "map_unit_count": 2, "ssurgo_polygon_count": 2 }, "geometry": { "type": "MultiPolygon", "coordinates": [ [ [ [ -82.536980931848376, 34.334777131110457 ], [ -82.536980931848731, 34.334417805560037 ], [ -82.536711437192125, 34.334417805647639 ], [ -82.536352110880216, 34.334417805384021 ], [ -82.536292457182327, 34.333758806497507 ], [ -82.536711436631123, 34.333609321304991 ], [ -82.53725042450337, 34.33324999509027 ], [ -82.537519921455768, 34.333249995397665 ], [ -82.537519921782405, 34.333609321191851 ], [ -82.537879245496185, 34.333878815668513 ], [ -82.537879247105408, 34.334148310745014 ], [ -82.537879246545998, 34.334417805483092 ], [ -82.53725042651385, 34.334777131157914 ], [ -82.536980931848376, 34.334777131110457 ] ] ] ] } },
{ "type": "Feature", "properties": { "field_id": "451623001001238", "CSBID": "451623001001238", "STATEFIPS": "45", "CSBACRES_x": 2.6360029115600883, "county": "001", "source_attribute": "", "CDL2020": 37, "CDL2021": 37, "CDL2022": 176, "CDL2023": 37, "CSBACRES_y": 2.6360029115600883, "field_area_m2": 10664.248092584985, "covered_area_m2": 10664.24809258298, "coverage_percent": 99.999999999981199, "ssurgo_coverage_percent": 99.999999999981199, "uncovered_percent": 1.8800960788212251e-11, "area_weighted_aws025wta": 3.0079983988162895, "weighted_selected_soil_attribute": 3.0079983988162895, "dominant_mukey": "1155004", "dominant_musym": "HeB", "dominant_muname": "Helena sandy loam, 2 to 6 percent slopes", "dominant_mapunit_percent": 57.998398816278829, "mapunit_count": 2, "map_unit_count": 2, "ssurgo_polygon_count": 2 }, "geometry": { "type": "MultiPolygon", "coordinates": [ [ [ [ -82.53015373513189, 34.33360932179788 ], [ -82.530153735763975, 34.333249995756063 ], [ -82.530153735424861, 34.332980501029752 ], [ -82.530423229082217, 34.33235168021848 ], [ -82.530782555736494, 34.332351680066566 ], [ -82.531052051114642, 34.332351680173133 ], [ -82.531052051388926, 34.332711006217799 ], [ -82.531052050561385, 34.333249995757434 ], [ -82.531052049751395, 34.333609321293871 ], [ -82.53015373513189, 34.33360932179788 ] ] ] ] } },
{ "type": "Feature", "properties": { "field_id": "451623001001243", "CSBID": "451623001001243", "STATEFIPS": "45", "CSBACRES_x": 5.7300752819427547, "county": "001", "source_attribute": "", "CDL2020": 176, "CDL2021": 176, "CDL2022": 176, "CDL2023": 176, "CSBACRES_y": 5.7300752819427547, "field_area_m2": 23181.746216805026, "covered_area_m2": 23181.746216809304, "coverage_percent": 100.0, "ssurgo_coverage_percent": 100.0, "uncovered_percent": 0.0, "area_weighted_aws025wta": 3.4134518514413852, "weighted_selected_soil_attribute": 3.4134518514413852, "dominant_mukey": "1154985", "dominant_musym": "ApB", "dominant_muname": "Appling sandy loam, 2 to 6 percent slopes", "dominant_mapunit_percent": 70.699027049725359, "mapunit_count": 4, "map_unit_count": 4, "ssurgo_polygon_count": 4 }, "geometry": { "type": "MultiPolygon", "coordinates": [ [ [ [ -82.535184301318012, 34.331812690953562 ], [ -82.534914806390077, 34.331183869957719 ], [ -82.534555480358364, 34.330914376098136 ], [ -82.534555480223275, 34.330644880624689 ], [ -82.534914806567826, 34.330644881246656 ], [ -82.535184301282627, 34.330914375731474 ], [ -82.535184300503175, 34.33118386985462 ], [ -82.535184301167874, 34.33154319601924 ], [ -82.535453795291502, 34.331812690859188 ], [ -82.53581312115773, 34.3318126907322 ], [ -82.536082615889413, 34.331543196523384 ], [ -82.536082616641522, 34.331183870104809 ], [ -82.536711437118512, 34.33118387021436 ], [ -82.536980931542672, 34.331183870504191 ], [ -82.536980931696974, 34.331543196543848 ], [ -82.536980931308946, 34.332082185696542 ], [ -82.536711437049959, 34.332351679916542 ], [ -82.53608261627177, 34.332711005980151 ], [ -82.535184301198754, 34.332711006106159 ], [ -82.535184300534013, 34.332351680438094 ], [ -82.535184301318012, 34.331812690953562 ] ], [ [ -82.536352110522856, 34.332082185144493 ], [ -82.53635211065459, 34.3318126908013 ], [ -82.536082615906139, 34.331812691078824 ], [ -82.536082615922865, 34.332082185548288 ], [ -82.536352110522856, 34.332082185144493 ] ] ] ] } },
{ "type": "Feature", "properties": { "field_id": "451623001001248", "CSBID": "451623001001248", "STATEFIPS": "45", "CSBACRES_x": 3.9490344851654404, "county": "001", "source_attribute": "", "CDL2020": 176, "CDL2021": 176, "CDL2022": 176, "CDL2023": 176, "CSBACRES_y": 3.9490344851654404, "field_area_m2": 15976.271924619761, "covered_area_m2": 15976.271924618286, "coverage_percent": 99.999999999990777, "ssurgo_coverage_percent": 99.999999999990777, "uncovered_percent": 9.2228447101661004e-12, "area_weighted_aws025wta": 2.9594542236755541, "weighted_selected_soil_attribute": 2.9594542236755541, "dominant_mukey": "1154991", "dominant_musym": "CcB", "dominant_muname": "Cecil sandy loam, 2 to 6 percent slopes", "dominant_mapunit_percent": 97.636444081102525, "mapunit_count": 2, "map_unit_count": 2, "ssurgo_polygon_count": 2 }, "geometry": { "type": "MultiPolygon", "coordinates": [ [ [ [ -82.530782556068118, 34.330914375752101 ], [ -82.530782555559256, 34.330644881419104 ], [ -82.530423229217632, 34.330644880686535 ], [ -82.530423230115659, 34.330016060747958 ], [ -82.530782554939563, 34.330016059835906 ], [ -82.531052050091972, 34.329387240040099 ], [ -82.531321545089142, 34.329387239774185 ], [ -82.531321545681621, 34.32974656606774 ], [ -82.531591039575744, 34.330285555091066 ], [ -82.531950364873907, 34.330285555000302 ], [ -82.531950365125013, 34.330644880532709 ], [ -82.531591040240585, 34.330914375715629 ], [ -82.531321545728417, 34.331183870346266 ], [ -82.530782556576995, 34.331183869999151 ], [ -82.530782556068118, 34.330914375752101 ] ] ] ] } },
{ "type": "Feature", "properties": { "field_id": "451623001001250", "CSBID": "451623001001250", "STATEFIPS": "45", "CSBACRES_x": 12.640829411592978, "county": "001", "source_attribute": "", "CDL2020": 37, "CDL2021": 37, "CDL2022": 37, "CDL2023": 37, "CSBACRES_y": 12.640829411592978, "field_area_m2": 51140.490018001277, "covered_area_m2": 51140.490017982709, "coverage_percent": 99.999999999963691, "ssurgo_coverage_percent": 99.999999999963691, "uncovered_percent": 3.6308733797341119e-11, "area_weighted_aws025wta": 2.9542755797513345, "weighted_selected_soil_attribute": 2.9542755797513345, "dominant_mukey": "1154991", "dominant_musym": "CcB", "dominant_muname": "Cecil sandy loam, 2 to 6 percent slopes", "dominant_mapunit_percent": 89.311050621631892, "mapunit_count": 3, "map_unit_count": 3, "ssurgo_polygon_count": 3 }, "geometry": { "type": "MultiPolygon", "coordinates": [ [ [ [ -82.54704206284994, 34.332980502806542 ], [ -82.546772567945908, 34.332711007716988 ], [ -82.54614374733022, 34.332351682279999 ], [ -82.546143746761857, 34.332082187382767 ], [ -82.546143747432325, 34.331812691640359 ], [ -82.546413241259629, 34.33181269234953 ], [ -82.547042062388172, 34.331543196590758 ], [ -82.547940377212555, 34.330914377713057 ], [ -82.548479367455357, 34.330644882288304 ], [ -82.549108187538067, 34.330285555634525 ], [ -82.549377682570849, 34.330285556560106 ], [ -82.550006503075252, 34.330285557051972 ], [ -82.550275998108049, 34.33028555589722 ], [ -82.550635323116225, 34.33028555680238 ], [ -82.55090481768552, 34.330285556847727 ], [ -82.55090481818236, 34.330644883032384 ], [ -82.550635323196062, 34.330914377461546 ], [ -82.550275997290584, 34.330914377694135 ], [ -82.549737008622756, 34.331183871994881 ], [ -82.549377682176797, 34.331543197910371 ], [ -82.54883869299448, 34.331812692275022 ], [ -82.548479366340018, 34.331812692777582 ], [ -82.547940377752909, 34.331812692968569 ], [ -82.547670882670474, 34.332082187239337 ], [ -82.547670882894437, 34.332711007566317 ], [ -82.547670883498881, 34.332980500746551 ], [ -82.547311557170602, 34.332980502827738 ], [ -82.54704206284994, 34.332980502806542 ] ] ] ] } },
{ "type": "Feature", "properties": { "field_id": "451623001001251", "CSBID": "451623001001251", "STATEFIPS": "45", "CSBACRES_x": 4.4375901294675826, "county": "001", "source_attribute": "", "CDL2020": 37, "CDL2021": 176, "CDL2022": 176, "CDL2023": 176, "CSBACRES_y": 4.4375901294675826, "field_area_m2": 17952.831332152906, "covered_area_m2": 17952.83133215475, "coverage_percent": 100.0, "ssurgo_coverage_percent": 100.0, "uncovered_percent": 0.0, "area_weighted_aws025wta": 3.0641700334791819, "weighted_selected_soil_attribute": 3.0641700334791819, "dominant_mukey": "1154992", "dominant_musym": "CcC", "dominant_muname": "Cecil sandy loam, 6 to 10 percent slopes", "dominant_mapunit_percent": 78.019150153974849, "mapunit_count": 3, "map_unit_count": 3, "ssurgo_polygon_count": 3 }, "geometry": { "type": "MultiPolygon", "coordinates": [ [ [ [ -82.535184301282627, 34.330914375731474 ], [ -82.534914806567826, 34.330644881246656 ], [ -82.53491480606661, 34.330285554573678 ], [ -82.534914806542972, 34.330016060923136 ], [ -82.535184300937942, 34.33001606132526 ], [ -82.535453795178285, 34.33001606198868 ], [ -82.535453795277988, 34.329387240816864 ], [ -82.53545379512164, 34.329117746120623 ], [ -82.535813121985441, 34.329117744852795 ], [ -82.53581312122104, 34.329387239296487 ], [ -82.536082616221293, 34.329387240653482 ], [ -82.5363521104466, 34.329387239489087 ], [ -82.536352110942204, 34.329746566671879 ], [ -82.536352110678763, 34.330285556590312 ], [ -82.536082616298771, 34.330644882277817 ], [ -82.53581312143362, 34.33091437639424 ], [ -82.535184301282627, 34.330914375731474 ] ] ] ] } },
{ "type": "Feature", "properties": { "field_id": "451623001001257", "CSBID": "451623001001257", "STATEFIPS": "45", "CSBACRES_x": 19.141194053248981, "county": "001", "source_attribute": "", "CDL2020": 37, "CDL2021": 37, "CDL2022": 37, "CDL2023": 37, "CSBACRES_y": 19.141194053248981, "field_area_m2": 77438.562084611025, "covered_area_m2": 77438.562084610559, "coverage_percent": 99.999999999999389, "ssurgo_coverage_percent": 99.999999999999389, "uncovered_percent": 6.1106675275368616e-13, "area_weighted_aws025wta": 2.9640460848463794, "weighted_selected_soil_attribute": 2.9640460848463794, "dominant_mukey": "1154991", "dominant_musym": "CcB", "dominant_muname": "Cecil sandy loam, 2 to 6 percent slopes", "dominant_mapunit_percent": 64.884787884051434, "mapunit_count": 3, "map_unit_count": 3, "ssurgo_polygon_count": 3 }, "geometry": { "type": "MultiPolygon", "coordinates": [ [ [ [ -82.545514926733816, 34.332082187643707 ], [ -82.544975937289436, 34.331812693288882 ], [ -82.54470644277491, 34.331543198104704 ], [ -82.544706442321456, 34.331183871677709 ], [ -82.544347116569469, 34.331183870932001 ], [ -82.543718295459726, 34.331183871352984 ], [ -82.543568810286416, 34.331153693313944 ], [ -82.543448801636856, 34.331094038686544 ], [ -82.543269138043811, 34.330914377269522 ], [ -82.542730149333096, 34.330644883022472 ], [ -82.542909812242129, 34.330285555744553 ], [ -82.542909812036257, 34.329746567460973 ], [ -82.542640317177742, 34.329746567621321 ], [ -82.542640317307018, 34.329387241191306 ], [ -82.542909812441252, 34.329117746834854 ], [ -82.543179307130174, 34.329117747188313 ], [ -82.543179306542527, 34.329387241384367 ], [ -82.543808127963644, 34.329387241089464 ], [ -82.543808127606582, 34.329117746134109 ], [ -82.544077622140975, 34.329117745292642 ], [ -82.544347116211682, 34.329117746483448 ], [ -82.54434711658088, 34.329387239415411 ], [ -82.544706442688749, 34.32938724117087 ], [ -82.54497593784977, 34.329387240019884 ], [ -82.54524543153633, 34.329117746450763 ], [ -82.545245431764215, 34.328848251155037 ], [ -82.545514926758543, 34.328848251664731 ], [ -82.545874252230405, 34.328848251837456 ], [ -82.54614374670885, 34.329117746693427 ], [ -82.546143747431742, 34.3293872416507 ], [ -82.546143747432325, 34.331812691640359 ], [ -82.545874252928428, 34.332082187061253 ], [ -82.545514926733816, 34.332082187643707 ] ] ] ] } },
{ "type": "Feature", "properties": { "field_id": "451623001001258", "CSBID": "451623001001258", "STATEFIPS": "45", "CSBACRES_x": 8.8854577548928262, "county": "001", "source_attribute": "", "CDL2020": 28, "CDL2021": 37, "CDL2022": 37, "CDL2023": 24, "CSBACRES_y": 8.8854577548928262, "field_area_m2": 35947.29729539933, "covered_area_m2": 35947.297295401338, "coverage_percent": 100.0, "ssurgo_coverage_percent": 100.0, "uncovered_percent": 0.0, "area_weighted_aws025wta": 3.091935725126886, "weighted_selected_soil_attribute": 3.091935725126886, "dominant_mukey": "1154992", "dominant_musym": "CcC", "dominant_muname": "Cecil sandy loam, 6 to 10 percent slopes", "dominant_mapunit_percent": 48.051596591339752, "mapunit_count": 3, "map_unit_count": 3, "ssurgo_polygon_count": 4 }, "geometry": { "type": "MultiPolygon", "coordinates": [ [ [ [ -82.537519920325195, 34.329746566558164 ], [ -82.537250425683254, 34.328848250473619 ], [ -82.536711436482477, 34.328848250394778 ], [ -82.536711437234871, 34.328219429616418 ], [ -82.537879247337642, 34.328219429560434 ], [ -82.537879246348908, 34.327949935375486 ], [ -82.53841823612764, 34.327949935356436 ], [ -82.538418235580636, 34.328219430047987 ], [ -82.538418236038581, 34.328578755705621 ], [ -82.539047056342113, 34.329117744988601 ], [ -82.539316550812202, 34.329387239246962 ], [ -82.539316550783028, 34.329746565673545 ], [ -82.538777562465725, 34.329746566055874 ], [ -82.538777562628241, 34.330285554965613 ], [ -82.538148741372382, 34.330285555144037 ], [ -82.537879246969467, 34.330285556294442 ], [ -82.537519920582227, 34.330285555592674 ], [ -82.537519920325195, 34.329746566558164 ] ] ] ] } },
{ "type": "Feature", "properties": { "field_id": "451623001001259", "CSBID": "451623001001259", "STATEFIPS": "45", "CSBACRES_x": 3.6844874367322995, "county": "001", "source_attribute": "", "CDL2020": 176, "CDL2021": 176, "CDL2022": 176, "CDL2023": 176, "CSBACRES_y": 3.6844874367322995, "field_area_m2": 14906.000763411212, "covered_area_m2": 14906.000763415444, "coverage_percent": 100.0, "ssurgo_coverage_percent": 100.0, "uncovered_percent": 0.0, "area_weighted_aws025wta": 3.4411194060167194, "weighted_selected_soil_attribute": 3.4411194060167194, "dominant_mukey": "1154985", "dominant_musym": "ApB", "dominant_muname": "Appling sandy loam, 2 to 6 percent slopes", "dominant_mapunit_percent": 89.294437457610726, "mapunit_count": 2, "map_unit_count": 2, "ssurgo_polygon_count": 2 }, "geometry": { "type": "MultiPolygon", "coordinates": [ [ [ [ -82.529255419907187, 34.328578756999278 ], [ -82.529255419897297, 34.328219430969 ], [ -82.528985924928904, 34.328219430498095 ], [ -82.528985925082793, 34.327949935558912 ], [ -82.529524914386911, 34.327949935117353 ], [ -82.530153735758816, 34.32794993587401 ], [ -82.530423229172555, 34.327949937182133 ], [ -82.530423229827306, 34.328219430730456 ], [ -82.530153735000425, 34.32857875671818 ], [ -82.52988424097498, 34.328848251168971 ], [ -82.529255419457286, 34.329117745252155 ], [ -82.529255419000236, 34.329387240577759 ], [ -82.528626598374828, 34.329387240024921 ], [ -82.528626599776402, 34.329117745458404 ], [ -82.528985926014272, 34.328578755895698 ], [ -82.529255419907187, 34.328578756999278 ] ] ] ] } },
{ "type": "Feature", "properties": { "field_id": "451623001001261", "CSBID": "451623001001261", "STATEFIPS": "45", "CSBACRES_x": 4.3765990285715146, "county": "001", "source_attribute": "", "CDL2020": 37, "CDL2021": 37, "CDL2022": 176, "CDL2023": 37, "CSBACRES_y": 4.3765990285715146, "field_area_m2": 17706.088291870219, "covered_area_m2": 17706.088291868902, "coverage_percent": 99.999999999992568, "ssurgo_coverage_percent": 99.999999999992568, "uncovered_percent": 7.4322770160506479e-12, "area_weighted_aws025wta": 2.9580786669857435, "weighted_selected_soil_attribute": 2.9580786669857435, "dominant_mukey": "1154991", "dominant_musym": "CcB", "dominant_muname": "Cecil sandy loam, 2 to 6 percent slopes", "dominant_mapunit_percent": 79.803332535636585, "mapunit_count": 2, "map_unit_count": 2, "ssurgo_polygon_count": 2 }, "geometry": { "type": "MultiPolygon", "coordinates": [ [ [ [ -82.53581312122104, 34.329387239296487 ], [ -82.535813121985441, 34.329117744852795 ], [ -82.53545379512164, 34.329117746120623 ], [ -82.535453795119992, 34.328848250452872 ], [ -82.535184301527352, 34.328848250295941 ], [ -82.535184301067915, 34.328578756186857 ], [ -82.535184301332791, 34.328219429772972 ], [ -82.535453795994599, 34.328219430308756 ], [ -82.535813121952074, 34.328219429419853 ], [ -82.535813121477631, 34.327949935362646 ], [ -82.535813121157801, 34.327680440333936 ], [ -82.536082615961845, 34.327680440551525 ], [ -82.536352110611261, 34.327680441030381 ], [ -82.536352110788826, 34.327949934921001 ], [ -82.536352110811748, 34.328219429611096 ], [ -82.536711437234871, 34.328219429616418 ], [ -82.536711436482477, 34.328848250394778 ], [ -82.536711435584621, 34.329117744545577 ], [ -82.536352109339418, 34.329117745045437 ], [ -82.5363521104466, 34.329387239489087 ], [ -82.536082616221293, 34.329387240653482 ], [ -82.53581312122104, 34.329387239296487 ] ] ] ] } },
{ "type": "Feature", "properties": { "field_id": "451623001001262", "CSBID": "451623001001262", "STATEFIPS": "45", "CSBACRES_x": 15.70476291622756, "county": "001", "source_attribute": "", "CDL2020": 37, "CDL2021": 37, "CDL2022": 176, "CDL2023": 176, "CSBACRES_y": 15.70476291622756, "field_area_m2": 63535.71061062481, "covered_area_m2": 63535.710610637238, "coverage_percent": 100.0, "ssurgo_coverage_percent": 100.0, "uncovered_percent": 0.0, "area_weighted_aws025wta": 3.1387782187970421, "weighted_selected_soil_attribute": 3.1387782187970421, "dominant_mukey": "1154985", "dominant_musym": "ApB", "dominant_muname": "Appling sandy loam, 2 to 6 percent slopes", "dominant_mapunit_percent": 34.057680413492307, "mapunit_count": 3, "map_unit_count": 3, "ssurgo_polygon_count": 4 }, "geometry": { "type": "Polygon", "coordinates": [ [ [ -82.537250426651696, 34.330644880696738 ], [ -82.537879247100491, 34.33064488132559 ], [ -82.538148741512245, 34.330644880934322 ], [ -82.538148741372382, 34.330285555144037 ], [ -82.538777562628241, 34.330285554965613 ], [ -82.538777562465725, 34.329746566055874 ], [ -82.539316550783028, 34.329746565673545 ], [ -82.539316550812202, 34.329387239246962 ], [ -82.539047056342113, 34.329117744988601 ], [ -82.538418236038581, 34.328578755705621 ], [ -82.538418235580636, 34.328219430047987 ], [ -82.53841823612764, 34.327949935356436 ], [ -82.537879246348908, 34.327949935375486 ], [ -82.537879247337642, 34.328219429560434 ], [ -82.536711437234871, 34.328219429616418 ], [ -82.536352110811748, 34.328219429611096 ], [ -82.536352110788826, 34.327949934921001 ], [ -82.536352110611261, 34.327680441030381 ], [ -82.536082615961845, 34.327680440551525 ], [ -82.536082616404613, 34.327321114260492 ], [ -82.536711437459815, 34.327051619640173 ], [ -82.53698093193961, 34.327051619800756 ], [ -82.53725042626472, 34.32705162022269 ], [ -82.537519920589872, 34.327051620020498 ], [ -82.53787924656352, 34.327051619707518 ], [ -82.538148741419647, 34.327321114165237 ], [ -82.538777562389086, 34.327949935432592 ], [ -82.539047056476491, 34.328578755586172 ], [ -82.539316551243488, 34.32884825026909 ], [ -82.539675877792831, 34.328848250734367 ], [ -82.539945372117202, 34.329117745267084 ], [ -82.540214865835409, 34.329387240608213 ], [ -82.540484361414357, 34.329746566673613 ], [ -82.54048436153623, 34.330016060034325 ], [ -82.540214866582346, 34.330644881739637 ], [ -82.539945372123611, 34.330914376574242 ], [ -82.539675877549115, 34.330914376698836 ], [ -82.539675877136474, 34.330644882360481 ], [ -82.539675876740887, 34.330285555556856 ], [ -82.539316551281388, 34.330285555089944 ], [ -82.538777562272131, 34.330644881262558 ], [ -82.538418235769385, 34.33064488080452 ], [ -82.538148741629939, 34.331543196069816 ], [ -82.538148741076739, 34.33181269062672 ], [ -82.537519921233567, 34.331812690819753 ], [ -82.537519920562872, 34.331543196769417 ], [ -82.537250426284572, 34.331543196083238 ], [ -82.536980931696974, 34.331543196543848 ], [ -82.536980931542672, 34.331183870504191 ], [ -82.53725042623195, 34.330914375919043 ], [ -82.537250426651696, 34.330644880696738 ] ], [ [ -82.537250425966789, 34.331183870169824 ], [ -82.537879246445584, 34.331183870293515 ], [ -82.537879246850352, 34.330914375409769 ], [ -82.53725042623195, 34.330914375919043 ], [ -82.537250425966789, 34.331183870169824 ] ] ] } },
{ "type": "Feature", "properties": { "field_id": "451623001001264", "CSBID": "451623001001264", "STATEFIPS": "45", "CSBACRES_x": 5.923776287733908, "county": "001", "source_attribute": "", "CDL2020": 37, "CDL2021": 176, "CDL2022": 176, "CDL2023": 176, "CSBACRES_y": 5.923776287733908, "field_area_m2": 23965.392214400941, "covered_area_m2": 23965.392214401283, "coverage_percent": 100.0, "ssurgo_coverage_percent": 100.0, "uncovered_percent": 0.0, "area_weighted_aws025wta": 2.9504367100640922, "weighted_selected_soil_attribute": 2.9504367100640922, "dominant_mukey": "1154991", "dominant_musym": "CcB", "dominant_muname": "Cecil sandy loam, 2 to 6 percent slopes", "dominant_mapunit_percent": 98.908224839771165, "mapunit_count": 2, "map_unit_count": 2, "ssurgo_polygon_count": 2 }, "geometry": { "type": "MultiPolygon", "coordinates": [ [ [ [ -82.535813118943693, 34.326422799861461 ], [ -82.536441943128906, 34.326422800028212 ], [ -82.53671143681872, 34.326422799168341 ], [ -82.536980930044649, 34.326422800340673 ], [ -82.537519920953159, 34.326512631704496 ], [ -82.537519920589872, 34.327051620020498 ], [ -82.53725042626472, 34.32705162022269 ], [ -82.53698093193961, 34.327051619800756 ], [ -82.536711437459815, 34.327051619640173 ], [ -82.536082616404613, 34.327321114260492 ], [ -82.536082615961845, 34.327680440551525 ], [ -82.535813121157801, 34.327680440333936 ], [ -82.535813121477631, 34.327949935362646 ], [ -82.535813121952074, 34.328219429419853 ], [ -82.535453795994599, 34.328219430308756 ], [ -82.535184301332791, 34.328219429772972 ], [ -82.534555480734682, 34.327949935833743 ], [ -82.534555479206063, 34.327680441059009 ], [ -82.5351842993297, 34.327680440940995 ], [ -82.535453794288401, 34.327680441729434 ], [ -82.535453793714609, 34.326422799866229 ], [ -82.535813118943693, 34.326422799861461 ] ] ] ] } },
{ "type": "Feature", "properties": { "field_id": "451623001001266", "CSBID": "451623001001266", "STATEFIPS": "45", "CSBACRES_x": 14.144361343838874, "county": "001", "source_attribute": "", "CDL2020": 176, "CDL2021": 176, "CDL2022": 176, "CDL2023": 176, "CSBACRES_y": 14.144361343838874, "field_area_m2": 57222.736150476856, "covered_area_m2": 57222.736150473356, "coverage_percent": 99.999999999993889, "ssurgo_coverage_percent": 99.999999999993889, "uncovered_percent": 6.1106675275368616e-12, "area_weighted_aws025wta": 3.2960654192499894, "weighted_selected_soil_attribute": 3.2960654192499894, "dominant_mukey": "1154985", "dominant_musym": "ApB", "dominant_muname": "Appling sandy loam, 2 to 6 percent slopes", "dominant_mapunit_percent": 40.106541333020537, "mapunit_count": 3, "map_unit_count": 3, "ssurgo_polygon_count": 3 }, "geometry": { "type": "MultiPolygon", "coordinates": [ [ [ [ -82.534016491270435, 34.327949935163595 ], [ -82.533746996965533, 34.327680440825375 ], [ -82.533118175367875, 34.327321114097877 ], [ -82.533118175422686, 34.327051619628946 ], [ -82.533118175477526, 34.326782125073883 ], [ -82.532848681243252, 34.326422799162927 ], [ -82.532489355551775, 34.3264227989945 ], [ -82.532489355045669, 34.326782125791603 ], [ -82.531950366414236, 34.326782125545222 ], [ -82.531950366008388, 34.326422799254608 ], [ -82.532219860082094, 34.326153304681434 ], [ -82.532489355466936, 34.326153304871553 ], [ -82.532489355536811, 34.325883809777061 ], [ -82.532219860854426, 34.325614315165588 ], [ -82.53195036610218, 34.325614315110457 ], [ -82.531950365541661, 34.325254989208112 ], [ -82.532489354719246, 34.325254988946838 ], [ -82.532489355451986, 34.325614315481999 ], [ -82.533387670468329, 34.325614315908084 ], [ -82.533387670068137, 34.325254988992754 ], [ -82.533567333850627, 34.325254989156271 ], [ -82.533716818174142, 34.32528516747572 ], [ -82.534016491013162, 34.325434652271475 ], [ -82.534285985486193, 34.325614315723712 ], [ -82.5345554799095, 34.325883810104862 ], [ -82.535184300954356, 34.326422798825213 ], [ -82.535453793714609, 34.326422799866229 ], [ -82.535453794288401, 34.327680441729434 ], [ -82.5351842993297, 34.327680440940995 ], [ -82.534555479206063, 34.327680441059009 ], [ -82.534555480734682, 34.327949935833743 ], [ -82.534016491270435, 34.327949935163595 ] ] ] ] } },
{ "type": "Feature", "properties": { "field_id": "451623001001267", "CSBID": "451623001001267", "STATEFIPS": "45", "CSBACRES_x": 4.7533048219597882, "county": "001", "source_attribute": "", "CDL2020": 176, "CDL2021": 176, "CDL2022": 176, "CDL2023": 176, "CSBACRES_y": 4.7533048219597882, "field_area_m2": 19230.025107075744, "covered_area_m2": 19230.025107075748, "coverage_percent": 100.0, "ssurgo_coverage_percent": 100.0, "uncovered_percent": 0.0, "area_weighted_aws025wta": 3.5, "weighted_selected_soil_attribute": 3.5, "dominant_mukey": "1154985", "dominant_musym": "ApB", "dominant_muname": "Appling sandy loam, 2 to 6 percent slopes", "dominant_mapunit_percent": 100.00000000000001, "mapunit_count": 1, "map_unit_count": 1, "ssurgo_polygon_count": 1 }, "geometry": { "type": "MultiPolygon", "coordinates": [ [ [ [ -82.530153734865877, 34.32588381003599 ], [ -82.530782555606351, 34.325883810175263 ], [ -82.531052050674205, 34.325883810152362 ], [ -82.531052050105131, 34.326153304866722 ], [ -82.530782556578828, 34.326782125048375 ], [ -82.530423229725201, 34.327051619630893 ], [ -82.530153735868637, 34.32705161971468 ], [ -82.530153735065426, 34.326782125667194 ], [ -82.5295249141721, 34.326782125670647 ], [ -82.529255419710111, 34.327051619618643 ], [ -82.529255420491978, 34.327321114844594 ], [ -82.528626598949685, 34.327321114040856 ], [ -82.528626599274943, 34.326782125021097 ], [ -82.529255419693044, 34.326422799408974 ], [ -82.529884240440197, 34.32615330420996 ], [ -82.529884240572741, 34.325883809875705 ], [ -82.530153734865877, 34.32588381003599 ] ] ] ] } },
{ "type": "Feature", "properties": { "field_id": "451623001001281", "CSBID": "451623001001281", "STATEFIPS": "45", "CSBACRES_x": 4.1326978862584056, "county": "001", "source_attribute": "", "CDL2020": 37, "CDL2021": 176, "CDL2022": 176, "CDL2023": 37, "CSBACRES_y": 4.1326978862584056, "field_area_m2": 16719.394419509877, "covered_area_m2": 16719.394419513537, "coverage_percent": 100.0, "ssurgo_coverage_percent": 100.0, "uncovered_percent": 0.0, "area_weighted_aws025wta": 3.0553972671253562, "weighted_selected_soil_attribute": 3.0553972671253562, "dominant_mukey": "1154991", "dominant_musym": "CcB", "dominant_muname": "Cecil sandy loam, 2 to 6 percent slopes", "dominant_mapunit_percent": 79.731294783602777, "mapunit_count": 2, "map_unit_count": 2, "ssurgo_polygon_count": 2 }, "geometry": { "type": "MultiPolygon", "coordinates": [ [ [ [ -82.539316551282695, 34.321392233652396 ], [ -82.53904705654044, 34.321122738996785 ], [ -82.538418235880059, 34.320853244067685 ], [ -82.538418235887832, 34.320493918787996 ], [ -82.539047056028267, 34.320493919034767 ], [ -82.539047056096393, 34.320224424784286 ], [ -82.540214866872205, 34.320224424410931 ], [ -82.540484360571241, 34.320224424548137 ], [ -82.540484361002257, 34.320493919179022 ], [ -82.540214866367549, 34.320493919041851 ], [ -82.540214866778825, 34.320853245208625 ], [ -82.540214866428741, 34.321122738752983 ], [ -82.539675876612435, 34.321392233478228 ], [ -82.539316551282695, 34.321392233652396 ] ] ] ] } },
{ "type": "Feature", "properties": { "field_id": "451623001001285", "CSBID": "451623001001285", "STATEFIPS": "45", "CSBACRES_x": 4.6416589477195389, "county": "001", "source_attribute": "", "CDL2020": 37, "CDL2021": 37, "CDL2022": 37, "CDL2023": 37, "CSBACRES_y": 4.6416589477195389, "field_area_m2": 18778.491903040795, "covered_area_m2": 18778.49190303982, "coverage_percent": 99.999999999994813, "ssurgo_coverage_percent": 99.999999999994813, "uncovered_percent": 5.1869619710487314e-12, "area_weighted_aws025wta": 2.9537392338279647, "weighted_selected_soil_attribute": 2.9537392338279647, "dominant_mukey": "1154991", "dominant_musym": "CcB", "dominant_muname": "Cecil sandy loam, 2 to 6 percent slopes", "dominant_mapunit_percent": 99.280916571540146, "mapunit_count": 2, "map_unit_count": 2, "ssurgo_polygon_count": 2 }, "geometry": { "type": "MultiPolygon", "coordinates": [ [ [ [ -82.541113181342453, 34.321392233827346 ], [ -82.541113181689155, 34.320853244799508 ], [ -82.540843687200166, 34.320853244474122 ], [ -82.540484360647397, 34.320853244207761 ], [ -82.540214866778825, 34.320853245208625 ], [ -82.540214866367549, 34.320493919041851 ], [ -82.540484361002257, 34.320493919179022 ], [ -82.541113181610442, 34.320493918252289 ], [ -82.541742002223444, 34.320224423469469 ], [ -82.54201149731449, 34.319954928892606 ], [ -82.54228099147322, 34.319954929548366 ], [ -82.542640317604111, 34.320224423917395 ], [ -82.542640317777071, 34.320493918550056 ], [ -82.542640317336421, 34.320853244213573 ], [ -82.542280991711053, 34.320853244182757 ], [ -82.542011496605056, 34.321122739349114 ], [ -82.541742003034642, 34.321392233298312 ], [ -82.541113181342453, 34.321392233827346 ] ] ] ] } },
{ "type": "Feature", "properties": { "field_id": "451623001001295", "CSBID": "451623001001295", "STATEFIPS": "45", "CSBACRES_x": 3.3082535145606471, "county": "001", "source_attribute": "", "CDL2020": 37, "CDL2021": 176, "CDL2022": 176, "CDL2023": 176, "CSBACRES_y": 3.3082535145606471, "field_area_m2": 13384.081312449362, "covered_area_m2": 13384.081312454013, "coverage_percent": 100.0, "ssurgo_coverage_percent": 100.0, "uncovered_percent": 0.0, "area_weighted_aws025wta": 3.2320599653720214, "weighted_selected_soil_attribute": 3.2320599653720214, "dominant_mukey": "1154993", "dominant_musym": "CcD", "dominant_muname": "Cecil-Cataula complex, 10 to 15 percent slopes, moderately eroded", "dominant_mapunit_percent": 70.497912571674036, "mapunit_count": 3, "map_unit_count": 3, "ssurgo_polygon_count": 3 }, "geometry": { "type": "Polygon", "coordinates": [ [ [ -82.549737008950672, 34.319056614123554 ], [ -82.549377682186645, 34.319056614128769 ], [ -82.54937768293631, 34.318787119156511 ], [ -82.550006503210128, 34.318787119620744 ], [ -82.550635323384938, 34.319056613936716 ], [ -82.550635323770805, 34.319685434868568 ], [ -82.550635323051011, 34.319954929048841 ], [ -82.549108188000403, 34.319954929586054 ], [ -82.549108187517476, 34.319685434648726 ], [ -82.549377682675583, 34.319326108255495 ], [ -82.549737008364403, 34.319326108883445 ], [ -82.549737008950672, 34.319056614123554 ] ], [ [ -82.549737008718395, 34.319685434926953 ], [ -82.550006503342246, 34.319685435017803 ], [ -82.550006502979329, 34.319326108215058 ], [ -82.549737008364403, 34.319326108883445 ], [ -82.549737008718395, 34.319685434926953 ] ] ] } },
{ "type": "Feature", "properties": { "field_id": "451623001001299", "CSBID": "451623001001299", "STATEFIPS": "45", "CSBACRES_x": 5.0489829176194387, "county": "001", "source_attribute": "", "CDL2020": 37, "CDL2021": 176, "CDL2022": 176, "CDL2023": 176, "CSBACRES_y": 5.0489829176194387, "field_area_m2": 20426.368955009992, "covered_area_m2": 20426.368955013731, "coverage_percent": 100.0, "ssurgo_coverage_percent": 100.0, "uncovered_percent": 0.0, "area_weighted_aws025wta": 3.4966762261318145, "weighted_selected_soil_attribute": 3.4966762261318145, "dominant_mukey": "1154985", "dominant_musym": "ApB", "dominant_muname": "Appling sandy loam, 2 to 6 percent slopes", "dominant_mapunit_percent": 88.920753772731402, "mapunit_count": 2, "map_unit_count": 2, "ssurgo_polygon_count": 2 }, "geometry": { "type": "MultiPolygon", "coordinates": [ [ [ [ -82.540214866002174, 34.318787119649706 ], [ -82.540214866520458, 34.318427793613779 ], [ -82.539675876886136, 34.31842779336732 ], [ -82.539675876939299, 34.318158298708688 ], [ -82.539945371719071, 34.31788880370307 ], [ -82.540214866291095, 34.317888803703589 ], [ -82.540484360708518, 34.31788880396531 ], [ -82.540843686856775, 34.317888803975727 ], [ -82.541113182203702, 34.317888803792691 ], [ -82.541742003080614, 34.317888803763481 ], [ -82.542011496725252, 34.31788880491537 ], [ -82.542280991927129, 34.318158298418666 ], [ -82.542280992091221, 34.318427792952789 ], [ -82.54228099215544, 34.318787119749686 ], [ -82.540214866002174, 34.318787119649706 ] ], [ [ -82.541113182166171, 34.318427792945378 ], [ -82.541113180481531, 34.318158298665523 ], [ -82.540843687605758, 34.318158298341821 ], [ -82.540843687116123, 34.318427793380941 ], [ -82.541113182166171, 34.318427792945378 ] ] ] ] } }
]
}
