{
"type": "FeatureCollection",
"name": "field_buffer_500m",
"crs": { "type": "name", "properties": { "name": "urn:ogc:def:crs:EPSG::32617" } },
"features": [
{ "type": "Feature", "properties": { "buffer_distance_m": 500 }, "geometry": { "type": "Polygon", "coordinates": [ [ [ 356834.515568397589959, 3798699.228090430144221 ], [ 356834.971803066087887, 3798729.116098823025823 ], [ 356838.127142732264474, 3798778.081898554228246 ], [ 356846.066745658172294, 3798826.502642219886184 ], [ 356858.714150110259652, 3798873.912017583381385 ], [ 356875.947556235885713, 3798919.853452313225716 ], [ 356897.600999046815559, 3798963.884510966949165 ], [ 356923.465946732787415, 3799005.581155830994248 ], [ 356953.293308910680935, 3799044.541830584406853 ], [ 356986.795835470198654, 3799080.391327454708517 ], [ 357023.650882914254908, 3799112.784400628414005 ], [ 357063.50352155190194, 3799141.409091113135219 ], [ 357105.969953621446621, 3799165.989731036126614 ], [ 357150.641209425288253, 3799186.289598440751433 ], [ 357197.087085880863015, 3799202.113197020255029 ], [ 357244.860289558535442, 3799213.308138829190284 ], [ 357293.500744306074921, 3799219.766611844301224 ], [ 357342.540021976747084, 3799221.42641823971644 ], [ 357483.055562598223332, 3799219.282895928248763 ], [ 357532.021439921110868, 3799216.128045859280974 ], [ 357580.442308062687516, 3799208.188918112777174 ], [ 357627.851852714724373, 3799195.541969988960773 ], [ 357673.793499060091563, 3799178.308997174259275 ], [ 357714.23498823895352, 3799158.421307214070112 ], [ 357723.921472802583594, 3799168.7879448980093 ], [ 357760.774246823799331, 3799201.183958638925105 ], [ 357762.305228705226909, 3799202.283781221136451 ], [ 357731.718604957161006, 3799204.244286895729601 ], [ 357683.580958261271007, 3799212.091469511389732 ], [ 357636.436883539136034, 3799224.591370431706309 ], [ 357590.734968222212046, 3799241.625050033908337 ], [ 357546.910077241773251, 3799263.030428679659963 ], [ 357505.379215182096232, 3799288.603828942403197 ], [ 357466.537558379757684, 3799318.101913647726178 ], [ 357430.754694723931607, 3799351.24400128563866 ], [ 357417.57602289802162, 3799366.085959418676794 ], [ 357402.626049786398653, 3799366.314070975407958 ], [ 357377.832486999337561, 3799366.692337452899665 ], [ 357344.768494117539376, 3799367.197156513575464 ], [ 357319.974527026119176, 3799367.575715856160969 ], [ 357271.008422794460785, 3799370.731257738545537 ], [ 357222.587400953343604, 3799378.671122476458549 ], [ 357175.177782440674491, 3799391.318844827823341 ], [ 357129.236147826770321, 3799408.552620304748416 ], [ 357085.204940193798393, 3799430.206478219479322 ], [ 357043.508204166544601, 3799456.071880069561303 ], [ 357004.547502130793873, 3799485.899727881420404 ], [ 356968.698046967736445, 3799519.402763157151639 ], [ 356936.305088548571803, 3799556.258333333767951 ], [ 356907.680588789342437, 3799596.111499101854861 ], [ 356883.100217287021223, 3799638.578452665824443 ], [ 356862.800696470367257, 3799683.250214023515582 ], [ 356846.977521833381616, 3799729.696569667663425 ], [ 356835.783079206827097, 3799777.470215776003897 ], [ 356829.325177199090831, 3799826.111065993085504 ], [ 356827.666008940548636, 3799875.150682313833386 ], [ 356828.274431645870209, 3799914.999562755227089 ], [ 356831.472996475116815, 3799964.342001976445317 ], [ 356839.529524923302233, 3800013.127240262459964 ], [ 356852.365227135131136, 3800060.878176106605679 ], [ 356869.854574711469468, 3800107.12782309576869 ], [ 356891.826528330275323, 3800151.423876864369959 ], [ 356918.066210447752383, 3800193.333138461690396 ], [ 356948.31700672081206, 3800232.445750879123807 ], [ 356973.567050375742838, 3800261.953832747414708 ], [ 357007.04706539720064, 3800297.420909711159766 ], [ 357043.823362400231417, 3800329.457278621383011 ], [ 357083.546003892610315, 3800357.758103822823614 ], [ 357125.837017030979041, 3800382.054094478487968 ], [ 357163.430090118024964, 3800399.016922995913774 ], [ 357171.991647746297531, 3800406.156652186997235 ], [ 357208.499523913138546, 3800430.239488004241139 ], [ 357218.232482194202021, 3800445.930848921649158 ], [ 357248.058859704353381, 3800484.892405911814421 ], [ 357281.560500131512526, 3800520.74287044396624 ], [ 357318.414767171314452, 3800553.136985950637609 ], [ 357358.266737173253205, 3800581.762782104313374 ], [ 357400.73261721979361, 3800606.344579238910228 ], [ 357445.403441229776945, 3800626.645643269177526 ], [ 357491.849008490971755, 3800642.470465551596135 ], [ 357539.62202669220278, 3800653.666645722463727 ], [ 357588.262419555336237, 3800660.126359385438263 ], [ 357637.301757582754362, 3800661.787396506872028 ], [ 357670.359153651515953, 3800661.283939994871616 ], [ 357695.154147348715924, 3800660.906219258438796 ], [ 357743.828220059163868, 3800657.785550649743527 ], [ 357791.966658151010051, 3800649.937321240082383 ], [ 357839.111394746578299, 3800637.436211764812469 ], [ 357884.813818649854511, 3800620.401177976746112 ], [ 357928.639043158153072, 3800598.994318712037057 ], [ 357970.170044276630506, 3800573.419333416037261 ], [ 358009.011628958804067, 3800543.91958382120356 ], [ 358044.794195611379109, 3800510.775778207927942 ], [ 358047.823326308163814, 3800507.364120449405164 ], [ 358051.720942017156631, 3800505.614084183238447 ], [ 358069.898312900797464, 3800495.388457290362567 ], [ 358072.809397879638709, 3800503.270259433425963 ], [ 358093.869150846789125, 3800546.804881592281163 ], [ 358119.036215724889189, 3800588.101314452476799 ], [ 358148.075151952158194, 3800626.773225503508002 ], [ 358180.714297199505381, 3800662.458834914956242 ], [ 358216.648308800649829, 3800694.824300024658442 ], [ 358255.541020264907274, 3800723.566838474012911 ], [ 358313.993445306608919, 3800762.539782577659935 ], [ 358357.145822351565585, 3800788.277238444890827 ], [ 358402.66340135858627, 3800809.553851909004152 ], [ 358419.018257533200085, 3800815.279023523442447 ], [ 358426.975177484331653, 3800825.675607538316399 ], [ 358460.472294926643372, 3800861.530035809148103 ], [ 358497.322436835325789, 3800893.928553442936391 ], [ 358537.170722059963737, 3800922.559150157496333 ], [ 358579.633396168181207, 3800947.14610220817849 ], [ 358624.3015271492186, 3800967.452627716585994 ], [ 358670.744943587633315, 3800983.283166971523315 ], [ 358718.516377380990889, 3800994.485265742987394 ], [ 358767.155771105026361, 3801000.951043478213251 ], [ 358816.194708544877358, 3801002.618232231587172 ], [ 358822.631408987857867, 3801002.521012485958636 ], [ 358834.599541201547254, 3801047.084534990601242 ], [ 358852.07662214373704, 3801093.334421715233475 ], [ 358874.036027933470905, 3801137.632106504403055 ], [ 358900.263039467681665, 3801179.544446528423578 ], [ 358930.501208987669088, 3801218.66162286279723 ], [ 358955.742182116839103, 3801248.174790375865996 ], [ 358989.215196994133294, 3801283.652883537113667 ], [ 359025.985806284355931, 3801315.7006621141918 ], [ 359065.704080598545261, 3801344.013141780160367 ], [ 359107.99203894258244, 3801368.320885369554162 ], [ 359152.447245792485774, 3801388.392566994763911 ], [ 359198.646640892664436, 3801404.037173467688262 ], [ 359246.150565330754034, 3801415.105822089128196 ], [ 359294.174806645256467, 3801421.449305532500148 ], [ 359341.248503120557871, 3801443.282905037049204 ], [ 359359.338893312378787, 3801450.705369697883725 ], [ 359382.174244576017372, 3801463.832465814892203 ], [ 359385.891447278205305, 3801465.510942324995995 ], [ 359374.848061346914619, 3801512.584359583910555 ], [ 359368.377402680634987, 3801561.22356464760378 ], [ 359366.705382824700791, 3801610.262794273905456 ], [ 359367.303361683443654, 3801650.111558064352721 ], [ 359368.200470704992767, 3801709.88579811854288 ], [ 359371.343283012975007, 3801758.852673789020628 ], [ 359379.270550516492222, 3801807.275711819063872 ], [ 359391.905929438245948, 3801854.688572749961168 ], [ 359409.127734398411121, 3801900.634645661804825 ], [ 359430.698251588852145, 3801944.525231129489839 ], [ 359430.939655700640287, 3801945.999878670554608 ], [ 359443.57478023681324, 3801993.412829529028386 ], [ 359460.796342818648554, 3802039.35901613207534 ], [ 359482.438490548287518, 3802083.39595202403143 ], [ 359508.292797918606084, 3802125.099537859205157 ], [ 359538.110274062608369, 3802164.068145705852658 ], [ 359571.603760669473559, 3802199.92648693965748 ], [ 359608.450697472842876, 3802232.329226473812014 ], [ 359648.296228679944761, 3802260.964308522641659 ], [ 359690.75662042334443, 3802285.555961865000427 ], [ 359735.422956323891412, 3802305.867355670779943 ], [ 359781.865075575595256, 3802321.702880308032036 ], [ 359829.635715624841396, 3802332.910031168255955 ], [ 359878.274819549114909, 3802339.380877369083464 ], [ 359927.313966652436648, 3802341.053101186640561 ], [ 359952.102348931657616, 3802340.681227851193398 ], [ 360001.069232377049047, 3802337.538728679995984 ], [ 360049.492309032531921, 3802329.611773236189038 ], [ 360096.905239300918765, 3802316.976702252402902 ], [ 360142.851411824114621, 3802299.755198082886636 ], [ 360186.888340889359824, 3802278.113112834282219 ], [ 360208.121282584615983, 3802264.949698187410831 ], [ 360224.877890840987675, 3802258.669165183790028 ], [ 360268.914885479898658, 3802237.027533000335097 ], [ 360310.618589353805874, 3802211.173747521359473 ], [ 360349.587376253562979, 3802181.356792815029621 ], [ 360385.445958502124995, 3802147.863820126280189 ], [ 360417.849001150461845, 3802111.017382476013154 ], [ 360446.484447714989074, 3802071.172328323125839 ], [ 360471.076525427924935, 3802028.712384209036827 ], [ 360491.388401057920419, 3801984.046459291130304 ], [ 360507.224461725272704, 3801937.604707354214042 ], [ 360518.432198745664209, 3801889.834384231362492 ], [ 360524.903676360030659, 3801841.195540517102927 ], [ 360526.576571206678636, 3801792.156591066159308 ], [ 360526.128633399901446, 3801762.270036462694407 ], [ 360525.083225956361275, 3801692.533263508696109 ], [ 360521.941263121319935, 3801643.566258140839636 ], [ 360514.014821012620814, 3801595.143008966464549 ], [ 360501.380235692253336, 3801547.729858903214335 ], [ 360484.159185269090813, 3801501.783423051703721 ], [ 360462.517518071283121, 3801457.746191235259175 ], [ 360436.663655433862004, 3801416.042266577947885 ], [ 360406.846584485145286, 3801377.073281151242554 ], [ 360373.353460261714645, 3801341.214528037235141 ], [ 360336.506840244983323, 3801308.811347044073045 ], [ 360301.381482157914434, 3801283.567846938502043 ], [ 360297.929991340497509, 3801279.057094560004771 ], [ 360288.097053449368104, 3801268.529930800199509 ], [ 360302.276345395133831, 3801244.047593543771654 ], [ 360322.587628334993497, 3801199.381271005608141 ], [ 360338.423049348581117, 3801152.939177758991718 ], [ 360349.63010518689407, 3801105.168575049843639 ], [ 360356.100866137887351, 3801056.529518351890147 ], [ 360357.77301544562215, 3801007.490426797419786 ], [ 360357.324616602214519, 3800977.603828401304781 ], [ 360356.278272418887354, 3800907.867986401543021 ], [ 360353.135632810124662, 3800858.900941449217498 ], [ 360345.20850527373841, 3800810.477720530703664 ], [ 360332.573232730501331, 3800763.06466786749661 ], [ 360315.351500318618491, 3800717.118399163708091 ], [ 360315.20887583628064, 3800716.828192349523306 ], [ 360317.633269475074485, 3800698.760122267529368 ], [ 360319.336664543836378, 3800649.346811821684241 ], [ 360318.290273302874994, 3800579.611600707750767 ], [ 360315.147605782898609, 3800530.644661850761622 ], [ 360307.220470961823594, 3800482.221547600347549 ], [ 360294.585211506579071, 3800434.808599171694368 ], [ 360289.690352176257875, 3800421.749490985181183 ], [ 360288.06040387385292, 3800398.495703199412674 ], [ 360284.85589033231372, 3800371.749853312503546 ], [ 360276.776240109174978, 3800324.016341286245733 ], [ 360264.118086859234609, 3800277.287976512685418 ], [ 360247.00010172725888, 3800232.002840947825462 ], [ 360229.903839067497756, 3800192.649824447929859 ], [ 360206.564740723639261, 3800145.801877697464079 ], [ 360178.456221963395365, 3800101.650379429571331 ], [ 360145.886289597023278, 3800060.679131805431098 ], [ 360109.211837598995771, 3800023.337088518310338 ], [ 360068.834736344346311, 3799990.033435257617384 ], [ 360025.197429003834259, 3799961.133105946704745 ], [ 360019.659298047889024, 3799957.868854069616646 ], [ 359979.343647400382906, 3799936.521879670675844 ], [ 359937.250189015525393, 3799918.938200751785189 ], [ 359893.729316418292001, 3799905.264187021646649 ], [ 359886.316601957427338, 3799903.65972468489781 ], [ 359852.534763446834404, 3799889.702163786161691 ], [ 359851.355947674484923, 3799889.335704605095088 ], [ 359856.329130509635434, 3799874.747982688248158 ], [ 359867.533816412207671, 3799826.976736055221409 ], [ 359874.002147379913367, 3799778.337269718293101 ], [ 359875.671829841099679, 3799729.298008390702307 ], [ 359875.221923944773152, 3799699.411478559952229 ], [ 359871.913010814867448, 3799649.021805550437421 ], [ 359863.632058561895974, 3799599.780461210757494 ], [ 359864.085180438589305, 3799597.848607921972871 ], [ 359870.553700373682659, 3799549.209303574636579 ], [ 359872.22360009199474, 3799500.170185388531536 ], [ 359871.324067357927561, 3799440.397154849488288 ], [ 359868.258407132641878, 3799392.130899170879275 ], [ 359860.54389981465647, 3799344.386621118988842 ], [ 359848.252723251178395, 3799297.611021833028644 ], [ 359831.499875150853768, 3799252.241739379242063 ], [ 359810.44209715136094, 3799208.703254155348986 ], [ 359785.276408326171804, 3799167.402917403262109 ], [ 359756.238261850608978, 3799128.727139982394874 ], [ 359723.599342074012384, 3799093.037777061574161 ], [ 359687.665022608591244, 3799060.668742562178522 ], [ 359648.771509217564017, 3799031.922885017935187 ], [ 359626.568239035375882, 3799017.117564388085157 ], [ 359602.360085529508069, 3798991.203247879631817 ], [ 359565.511162872309797, 3798958.802655071485788 ], [ 359525.663861563138198, 3798930.169909941032529 ], [ 359483.201933669508435, 3798905.580762032419443 ], [ 359438.53431159327738, 3798885.272018758580089 ], [ 359392.091169819468632, 3798869.439264812972397 ], [ 359344.319782093167305, 3798858.234978578984737 ], [ 359320.242469482996967, 3798855.033264112193137 ], [ 359292.046205800026655, 3798838.705911745782942 ], [ 359247.378136132494546, 3798818.398023957386613 ], [ 359200.934631082694978, 3798802.566170214675367 ], [ 359153.162968867400195, 3798791.362820562440902 ], [ 359104.523218636459205, 3798784.895869834348559 ], [ 359055.483809736964758, 3798783.227598562370986 ], [ 359005.893330070073716, 3798783.975559550803155 ], [ 358964.5944443421904, 3798786.629313063807786 ], [ 358960.337820719927549, 3798786.484567016828805 ], [ 358959.885256581881549, 3798756.597806784324348 ], [ 358956.735850051860325, 3798707.631200153380632 ], [ 358948.802031486586202, 3798659.209078665357083 ], [ 358936.160208234272432, 3798611.797775885555893 ], [ 358918.932128502754495, 3798565.853890599217266 ], [ 358897.28370885248296, 3798521.8198894970119 ], [ 358871.423436322133057, 3798480.119845958892256 ], [ 358841.600360575888772, 3798441.155355978291482 ], [ 358834.303119454591069, 3798433.34510484430939 ], [ 358828.995968710514717, 3798401.188775671645999 ], [ 358816.163039451348595, 3798353.43154889671132 ], [ 358798.675333839084487, 3798307.175555393099785 ], [ 358776.703912188007962, 3798262.87325959187001 ], [ 358750.463693388795946, 3798220.958015348762274 ], [ 358720.211352626385633, 3798181.839826982934028 ], [ 358694.960994090011809, 3798152.329052379820496 ], [ 358661.485064423584845, 3798116.863271853420883 ], [ 358624.713200016471092, 3798084.827519272454083 ], [ 358584.995242423028685, 3798056.526577591896057 ], [ 358542.709061850444414, 3798032.229697381146252 ], [ 358498.256962162791751, 3798012.168035218026489 ], [ 358452.061853427265305, 3797996.532454502768815 ], [ 358404.563228416547645, 3797985.471709614619613 ], [ 358356.21298134571407, 3797979.091030686162412 ], [ 358307.471108624129556, 3797977.451122462749481 ], [ 358282.673668476461899, 3797977.826999592594802 ], [ 358257.874331430532038, 3797978.203000258188695 ], [ 358224.810090012964793, 3797978.704375927336514 ], [ 358200.011453626968432, 3797979.080470190383494 ], [ 358142.14813533105189, 3797979.958320996724069 ], [ 358117.345960644364823, 3797980.334836398251355 ], [ 358068.676728178164922, 3797983.452358655165881 ], [ 358020.542721713602077, 3797991.296500133816153 ], [ 357973.401871463342104, 3798003.792634398210794 ], [ 357927.702659096801654, 3798020.821877568494529 ], [ 357883.879851041652728, 3798042.222219342365861 ], [ 357842.350362266879529, 3798067.790064303670079 ], [ 357803.50928989861859, 3798097.282168860081583 ], [ 357767.726154403528199, 3798130.417955375742167 ], [ 357735.341384099272545, 3798166.882181491237134 ], [ 357728.012635712220799, 3798175.992845254950225 ], [ 357720.069452413648833, 3798170.28747931914404 ], [ 357677.60282497422304, 3798145.706446098163724 ], [ 357632.931321309297346, 3798125.40623918781057 ], [ 357586.485153308196459, 3798109.582361082080752 ], [ 357538.711623883456923, 3798098.387204692233354 ], [ 357490.07081919000484, 3798091.928585716988891 ], [ 357441.031177735072561, 3798090.268704316578805 ], [ 357383.171042051166296, 3798091.151290597394109 ], [ 357335.604351606220007, 3798094.148701610043645 ], [ 357288.539158462022897, 3798101.661497824825346 ], [ 357242.403110991290305, 3798113.621415736153722 ], [ 357197.615415072301403, 3798129.919783965684474 ], [ 357154.583025059022475, 3798150.408510680776089 ], [ 357097.179027388978284, 3798181.177974057849497 ], [ 357054.589906370034441, 3798206.809819364920259 ], [ 357014.756280166853685, 3798236.543755305930972 ], [ 356978.071836413291749, 3798270.085912503767759 ], [ 356944.899138431705069, 3798307.10478379484266 ], [ 356915.566041911195498, 3798347.234500608406961 ], [ 356890.362454612215515, 3798390.078448959160596 ], [ 356869.537471121177077, 3798435.213189299684018 ], [ 356853.296910974255297, 3798482.192641500849277 ], [ 356841.801284481654875, 3798530.55249359505251 ], [ 356835.164206355868373, 3798579.814790709409863 ], [ 356833.45127282384783, 3798629.492658837232739 ], [ 356834.515568397589959, 3798699.228090430144221 ] ] ] } }
]
}
