{
"type": "FeatureCollection",
"name": "field_ssurgo_intersections",
"crs": { "type": "name", "properties": { "name": "urn:ogc:def:crs:OGC:1.3:CRS84" } },
"features": [
{ "type": "Feature", "properties": { "field_id": "451623001001160", "mukey": "1154999", "musym": "DuB", "muname": "Durham loamy sand, 2 to 6 percent slopes", "aws025wta": 2.0, "selected_soil_attribute": 2.0, "intersection_area_m2": 16616.485151310775, "intersection_area_acres": 4.1060228941954922, "field_area_m2": 17125.696622516185, "percent_of_field": 97.026623310984505 }, "geometry": { "type": "Polygon", "coordinates": [ [ [ -82.522787550107537, 34.348072197698954 ], [ -82.522428223778732, 34.34807219795173 ], [ -82.522158728954722, 34.348072197856034 ], [ -82.52188923521517, 34.348072197262866 ], [ -82.52188923445452, 34.347802702956258 ], [ -82.521889234951914, 34.347173882237222 ], [ -82.522158728979619, 34.347173882324299 ], [ -82.522428224091826, 34.347173881913811 ], [ -82.523057044316417, 34.347173881944769 ], [ -82.523057044922027, 34.346904387984843 ], [ -82.523057043513546, 34.346634892801021 ], [ -82.52305704451787, 34.346349838796996 ], [ -82.523596033299924, 34.346386484179355 ], [ -82.523596033402654, 34.34663489301456 ], [ -82.523596032372453, 34.347173882411617 ], [ -82.523326538964071, 34.34717388211066 ], [ -82.523057045058337, 34.347533208777804 ], [ -82.523057044452727, 34.347802702537919 ], [ -82.523057044776735, 34.348072197224155 ], [ -82.523057044434168, 34.348431523550218 ], [ -82.522787549756259, 34.34843152326598 ], [ -82.522787550107537, 34.348072197698954 ] ] ] } },
{ "type": "Feature", "properties": { "field_id": "451623001001160", "mukey": "1154986", "musym": "ApC", "muname": "Appling sandy loam, 6 to 10 percent slopes", "aws025wta": 3.47, "selected_soil_attribute": 3.47, "intersection_area_m2": 509.21147120575267, "intersection_area_acres": 0.12582889460186805, "field_area_m2": 17125.696622516185, "percent_of_field": 2.9733766890174946 }, "geometry": { "type": "Polygon", "coordinates": [ [ [ -82.523057044785716, 34.346275566725552 ], [ -82.52359603326326, 34.346275567065447 ], [ -82.523596033299924, 34.346386484179355 ], [ -82.52305704451787, 34.346349838796996 ], [ -82.523057044785716, 34.346275566725552 ] ] ] } },
{ "type": "Feature", "properties": { "field_id": "451623001001187", "mukey": "1154985", "musym": "ApB", "muname": "Appling sandy loam, 2 to 6 percent slopes", "aws025wta": 3.5, "selected_soil_attribute": 3.5, "intersection_area_m2": 11898.376323819059, "intersection_area_acres": 2.940152814778688, "field_area_m2": 11898.376323819059, "percent_of_field": 100.0 }, "geometry": { "type": "Polygon", "coordinates": [ [ [ -82.523596033881802, 34.34007719114139 ], [ -82.524224854069999, 34.340077191562834 ], [ -82.524853675090341, 34.340346686868941 ], [ -82.525123169574215, 34.340346687426688 ], [ -82.525392664212845, 34.340346686474909 ], [ -82.525392664306295, 34.340706012156382 ], [ -82.524853675223653, 34.340975507217088 ], [ -82.524494348760413, 34.340975506387998 ], [ -82.524494349641358, 34.340706011974149 ], [ -82.524224854684377, 34.340706011857662 ], [ -82.523955359572568, 34.340706012002585 ], [ -82.523955360072875, 34.340975506795644 ], [ -82.523596034074799, 34.340975506861248 ], [ -82.523596033738016, 34.340706011941791 ], [ -82.523596033881802, 34.34007719114139 ] ] ] } },
{ "type": "Feature", "properties": { "field_id": "451623001001196", "mukey": "1154986", "musym": "ApC", "muname": "Appling sandy loam, 6 to 10 percent slopes", "aws025wta": 3.47, "selected_soil_attribute": 3.47, "intersection_area_m2": 3139.9662045966897, "intersection_area_acres": 0.77590254531398894, "field_area_m2": 70855.94859810546, "percent_of_field": 4.4314786079663691 }, "geometry": { "type": "MultiPolygon", "coordinates": [ [ [ [ -82.525123169790888, 34.338639886839466 ], [ -82.525123169706163, 34.338280561039973 ], [ -82.525392664759934, 34.338280560972976 ], [ -82.525751990517435, 34.338280561304373 ], [ -82.525751990260801, 34.33863988672465 ], [ -82.52539266376904, 34.338639887405122 ], [ -82.525392663926382, 34.338957152639843 ], [ -82.525365, 34.338942 ], [ -82.525143, 34.338729 ], [ -82.525123169852378, 34.338720061044228 ], [ -82.525123169790888, 34.338639886839466 ] ] ], [ [ [ -82.527300903311669, 34.338988325246817 ], [ -82.527306, 34.339027 ], [ -82.527264, 34.339102 ], [ -82.527139, 34.339166 ], [ -82.526949460986941, 34.339164045993009 ], [ -82.527300903311669, 34.338988325246817 ] ] ], [ [ [ -82.529524914238863, 34.339807697307336 ], [ -82.529421136066432, 34.339911475832615 ], [ -82.529445, 34.339838 ], [ -82.529524914280444, 34.339767745699056 ], [ -82.529524914238863, 34.339807697307336 ] ] ] ] } },
{ "type": "Feature", "properties": { "field_id": "451623001001196", "mukey": "1154985", "musym": "ApB", "muname": "Appling sandy loam, 2 to 6 percent slopes", "aws025wta": 3.5, "selected_soil_attribute": 3.5, "intersection_area_m2": 62506.055407092943, "intersection_area_acres": 15.445582636176812, "field_area_m2": 70855.94859810546, "percent_of_field": 88.215677926530816 }, "geometry": { "type": "Polygon", "coordinates": [ [ [ -82.52449434885709, 34.34007719281756 ], [ -82.524224854069999, 34.340077191562834 ], [ -82.524224854647727, 34.339807697622113 ], [ -82.523955359402606, 34.339807697387847 ], [ -82.523955359732909, 34.339178877184793 ], [ -82.524224854765876, 34.338909381547879 ], [ -82.524494348905193, 34.338909382296421 ], [ -82.524494349108608, 34.339178877408571 ], [ -82.52512317007313, 34.339178877529442 ], [ -82.525123170009365, 34.338909381784624 ], [ -82.525123169852378, 34.338720061044228 ], [ -82.525143, 34.338729 ], [ -82.525365, 34.338942 ], [ -82.525392663926382, 34.338957152639843 ], [ -82.525392664063986, 34.339178876071401 ], [ -82.525751990316593, 34.339538201947974 ], [ -82.526021483851821, 34.339538202449205 ], [ -82.526021486423232, 34.339178876018586 ], [ -82.526290978710591, 34.339178875895847 ], [ -82.526919800141172, 34.339178876302029 ], [ -82.526949460986941, 34.339164045993009 ], [ -82.527139, 34.339166 ], [ -82.527264, 34.339102 ], [ -82.527306, 34.339027 ], [ -82.527300903311669, 34.338988325246817 ], [ -82.527458789863687, 34.338909381597666 ], [ -82.527458789279166, 34.338639886651741 ], [ -82.527458789377846, 34.33828056123069 ], [ -82.527818115291041, 34.338280560622046 ], [ -82.528087609596241, 34.338639887451833 ], [ -82.528626598941543, 34.338909381445987 ], [ -82.52898592590833, 34.338909381532552 ], [ -82.529524914979291, 34.339178876087821 ], [ -82.529524914280444, 34.339767745699056 ], [ -82.529445, 34.339838 ], [ -82.529421136066432, 34.339911475832615 ], [ -82.529255420239195, 34.34007719152445 ], [ -82.528985924985847, 34.34007719130166 ], [ -82.528985925758747, 34.33980769660031 ], [ -82.52862659896978, 34.339807697019211 ], [ -82.528357104342831, 34.339807697111212 ], [ -82.528357104793983, 34.3400771913062 ], [ -82.527891512595829, 34.340309987444385 ], [ -82.527861, 34.340297 ], [ -82.52768, 34.340285 ], [ -82.527464, 34.340326 ], [ -82.527035, 34.340475 ], [ -82.52677, 34.340473 ], [ -82.526629, 34.340432 ], [ -82.526483, 34.34041 ], [ -82.526195, 34.34044 ], [ -82.526043, 34.34051 ], [ -82.525939, 34.340647 ], [ -82.525947, 34.340884 ], [ -82.525963248730662, 34.340917271253332 ], [ -82.525751990296413, 34.340706012109273 ], [ -82.525751990862645, 34.34034668579514 ], [ -82.525392664212845, 34.340346686474909 ], [ -82.525123169665278, 34.340077191168206 ], [ -82.525123169574215, 34.340346687426688 ], [ -82.524853675090341, 34.340346686868941 ], [ -82.524853675440781, 34.339807697681621 ], [ -82.524494348653704, 34.339807697991411 ], [ -82.52449434885709, 34.34007719281756 ] ], [ [ -82.528357105130794, 34.339538202071317 ], [ -82.527818116028826, 34.339178876229028 ], [ -82.527458789363834, 34.339178876331395 ], [ -82.527458788610545, 34.339807696790054 ], [ -82.528357104342831, 34.339807697111212 ], [ -82.528357105130794, 34.339538202071317 ] ], [ [ -82.525123169446729, 34.339807696594853 ], [ -82.525123170312597, 34.339538202062073 ], [ -82.524853675073842, 34.33953820289608 ], [ -82.524853675440781, 34.339807697681621 ], [ -82.525123169446729, 34.339807696594853 ] ] ] } },
{ "type": "Feature", "properties": { "field_id": "451623001001196", "mukey": "1154986", "musym": "ApC", "muname": "Appling sandy loam, 6 to 10 percent slopes", "aws025wta": 3.47, "selected_soil_attribute": 3.47, "intersection_area_m2": 5209.9269864150756, "intersection_area_acres": 1.2874009929602792, "field_area_m2": 70855.94859810546, "percent_of_field": 7.3528434655017492 }, "geometry": { "type": "Polygon", "coordinates": [ [ [ -82.527818115191181, 34.3403466858773 ], [ -82.526919800540085, 34.340706012516378 ], [ -82.526560474084675, 34.340706012500831 ], [ -82.526290979838365, 34.340975506523186 ], [ -82.526021484564609, 34.340975507025099 ], [ -82.525963248730662, 34.340917271253332 ], [ -82.525947, 34.340884 ], [ -82.525939, 34.340647 ], [ -82.526043, 34.34051 ], [ -82.526195, 34.34044 ], [ -82.526483, 34.34041 ], [ -82.526629, 34.340432 ], [ -82.52677, 34.340473 ], [ -82.527035, 34.340475 ], [ -82.527464, 34.340326 ], [ -82.52768, 34.340285 ], [ -82.527861, 34.340297 ], [ -82.527891512595829, 34.340309987444385 ], [ -82.527818115191181, 34.3403466858773 ] ] ] } },
{ "type": "Feature", "properties": { "field_id": "451623001001204", "mukey": "1154986", "musym": "ApC", "muname": "Appling sandy loam, 6 to 10 percent slopes", "aws025wta": 3.47, "selected_soil_attribute": 3.47, "intersection_area_m2": 916.70481437213243, "intersection_area_acres": 0.22652269241996006, "field_area_m2": 13380.970179311144, "percent_of_field": 6.8508097849996448 }, "geometry": { "type": "MultiPolygon", "coordinates": [ [ [ [ -82.526021485339214, 34.337382245373071 ], [ -82.526092324362537, 34.337476697783572 ], [ -82.525982555480041, 34.337382245447081 ], [ -82.526021485339214, 34.337382245373071 ] ] ], [ [ [ -82.526290980132416, 34.337741571810334 ], [ -82.52629098006912, 34.338011066536033 ], [ -82.526048451147091, 34.338011066773852 ], [ -82.526058, 34.338005 ], [ -82.52615, 34.337872 ], [ -82.526171, 34.337761 ], [ -82.526141546049274, 34.337542326808624 ], [ -82.526290980132416, 34.337741571810334 ] ] ], [ [ [ -82.525751990517435, 34.338280561304373 ], [ -82.525392664759934, 34.338280560972976 ], [ -82.525392664691694, 34.338175158248838 ], [ -82.525403, 34.33818 ], [ -82.525556, 34.338201 ], [ -82.525751990425078, 34.338178577399738 ], [ -82.525751990517435, 34.338280561304373 ] ] ] ] } },
{ "type": "Feature", "properties": { "field_id": "451623001001204", "mukey": "1154985", "musym": "ApB", "muname": "Appling sandy loam, 2 to 6 percent slopes", "aws025wta": 3.5, "selected_soil_attribute": 3.5, "intersection_area_m2": 12464.265364940326, "intersection_area_acres": 3.0799870418886832, "field_area_m2": 13380.970179311144, "percent_of_field": 93.149190215010179 }, "geometry": { "type": "Polygon", "coordinates": [ [ [ -82.525123170198711, 34.337741571675174 ], [ -82.524853674693261, 34.337741571750755 ], [ -82.524494348643671, 34.337741571934806 ], [ -82.524494349001884, 34.338011066533383 ], [ -82.52422485457447, 34.338011066291109 ], [ -82.523955360421439, 34.337741571585255 ], [ -82.523955359357785, 34.337112751491539 ], [ -82.52422485422818, 34.33711275096622 ], [ -82.524224854734811, 34.337382245891476 ], [ -82.525751990306887, 34.337382245631552 ], [ -82.525982555480041, 34.337382245447081 ], [ -82.526092324362537, 34.337476697783572 ], [ -82.526141546049274, 34.337542326808624 ], [ -82.526171, 34.337761 ], [ -82.52615, 34.337872 ], [ -82.526058, 34.338005 ], [ -82.526048451147091, 34.338011066773852 ], [ -82.525751990283851, 34.338011066411752 ], [ -82.525751990425078, 34.338178577399738 ], [ -82.525556, 34.338201 ], [ -82.525403, 34.33818 ], [ -82.525392664691694, 34.338175158248838 ], [ -82.525392664465016, 34.337741571734583 ], [ -82.525123170198711, 34.337741571675174 ] ] ] } },
{ "type": "Feature", "properties": { "field_id": "451623001001218", "mukey": "1154991", "musym": "CcB", "muname": "Cecil sandy loam, 2 to 6 percent slopes", "aws025wta": 2.95, "selected_soil_attribute": 2.95, "intersection_area_m2": 25033.527709895701, "intersection_area_acres": 6.1859194025278352, "field_area_m2": 25033.527709895701, "percent_of_field": 100.0 }, "geometry": { "type": "Polygon", "coordinates": [ [ [ -82.53248935604195, 34.335316120689434 ], [ -82.532489355491606, 34.335046625735082 ], [ -82.53338767017874, 34.335046626051522 ], [ -82.533746995527324, 34.335046625982137 ], [ -82.534016492365936, 34.335046626434917 ], [ -82.534914806616982, 34.335675446849663 ], [ -82.534914806760924, 34.335944941478502 ], [ -82.53491480582052, 34.336214435895201 ], [ -82.532848679647373, 34.336214435831899 ], [ -82.532489355071675, 34.335675446360746 ], [ -82.53248935604195, 34.335316120689434 ] ] ] } },
{ "type": "Feature", "properties": { "field_id": "451623001001219", "mukey": "1154991", "musym": "CcB", "muname": "Cecil sandy loam, 2 to 6 percent slopes", "aws025wta": 2.95, "selected_soil_attribute": 2.95, "intersection_area_m2": 18278.977744237909, "intersection_area_acres": 4.5168337597804289, "field_area_m2": 18390.54168646146, "percent_of_field": 99.393362391790333 }, "geometry": { "type": "Polygon", "coordinates": [ [ [ -82.52602148462735, 34.335944941019186 ], [ -82.5253926641535, 34.335944940947684 ], [ -82.525123169465687, 34.335944941015391 ], [ -82.524853674623103, 34.335944941344444 ], [ -82.524494349147432, 34.335944941529092 ], [ -82.524224854150049, 34.335944941287451 ], [ -82.524255317393013, 34.335703387840411 ], [ -82.524434695064656, 34.335346298148721 ], [ -82.524449200403964, 34.335338960286094 ], [ -82.524609, 34.33534 ], [ -82.52463058931211, 34.335316120929846 ], [ -82.52485367495494, 34.335316120926457 ], [ -82.525392664230296, 34.335046625957318 ], [ -82.526021485170162, 34.33504662602811 ], [ -82.526021485410084, 34.335316120853236 ], [ -82.52629097977325, 34.33531612072904 ], [ -82.526560473981647, 34.335316120866175 ], [ -82.526560474370328, 34.335675446280916 ], [ -82.526560474137554, 34.336123550246384 ], [ -82.526396356624886, 34.336214436042553 ], [ -82.526290980026616, 34.33621443606652 ], [ -82.526021484867272, 34.336214435558077 ], [ -82.52602148462735, 34.335944941019186 ] ] ] } },
{ "type": "Feature", "properties": { "field_id": "451623001001219", "mukey": "1154986", "musym": "ApC", "muname": "Appling sandy loam, 6 to 10 percent slopes", "aws025wta": 3.47, "selected_soil_attribute": 3.47, "intersection_area_m2": 76.103571725593355, "intersection_area_acres": 0.018805602086713575, "field_area_m2": 18390.54168646146, "percent_of_field": 0.4138190871322644 }, "geometry": { "type": "Polygon", "coordinates": [ [ [ -82.526560474101672, 34.336214435824537 ], [ -82.526396356624886, 34.336214436042553 ], [ -82.526560474137554, 34.336123550246384 ], [ -82.526560474101672, 34.336214435824537 ] ] ] } },
{ "type": "Feature", "properties": { "field_id": "451623001001219", "mukey": "1154985", "musym": "ApB", "muname": "Appling sandy loam, 2 to 6 percent slopes", "aws025wta": 3.5, "selected_soil_attribute": 3.5, "intersection_area_m2": 35.460370496875122, "intersection_area_acres": 0.0087624483620314872, "field_area_m2": 18390.54168646146, "percent_of_field": 0.19281852107151326 }, "geometry": { "type": "Polygon", "coordinates": [ [ [ -82.524494349137953, 34.335316120731918 ], [ -82.52463058931211, 34.335316120929846 ], [ -82.524609, 34.33534 ], [ -82.524449200403964, 34.335338960286094 ], [ -82.524494349137953, 34.335316120731918 ] ] ] } },
{ "type": "Feature", "properties": { "field_id": "451623001001224", "mukey": "1154991", "musym": "CcB", "muname": "Cecil sandy loam, 2 to 6 percent slopes", "aws025wta": 2.95, "selected_soil_attribute": 2.95, "intersection_area_m2": 17992.908887819052, "intersection_area_acres": 4.4461446060228136, "field_area_m2": 17992.908887819056, "percent_of_field": 99.999999999999972 }, "geometry": { "type": "Polygon", "coordinates": [ [ [ -82.531321544774599, 34.33567544783854 ], [ -82.531321544800932, 34.335316120523785 ], [ -82.530782556490806, 34.335046626230962 ], [ -82.530782556291342, 34.334777131444582 ], [ -82.530782556091864, 34.334507636572226 ], [ -82.531052051212043, 34.334507636679852 ], [ -82.53159103981281, 34.334777131160777 ], [ -82.53195036592605, 34.33477713145232 ], [ -82.532219860433685, 34.334777131385621 ], [ -82.532489354786577, 34.334777131580324 ], [ -82.533387670691411, 34.334777132402053 ], [ -82.53338767017874, 34.335046626051522 ], [ -82.532489355491606, 34.335046625735082 ], [ -82.53248935604195, 34.335316120689434 ], [ -82.532219860746963, 34.335316121506494 ], [ -82.532219860697495, 34.335675447430468 ], [ -82.532219860311997, 34.335944942184383 ], [ -82.531591040141947, 34.335944942211071 ], [ -82.531321544774599, 34.33567544783854 ] ] ] } },
{ "type": "Feature", "properties": { "field_id": "451623001001231", "mukey": "1154991", "musym": "CcB", "muname": "Cecil sandy loam, 2 to 6 percent slopes", "aws025wta": 2.95, "selected_soil_attribute": 2.95, "intersection_area_m2": 2224.8485647378138, "intersection_area_acres": 0.54977205225684067, "field_area_m2": 16194.721897910846, "percent_of_field": 13.73810911211031 }, "geometry": { "type": "MultiPolygon", "coordinates": [ [ [ [ -82.536980931841072, 34.334612523099665 ], [ -82.537054, 34.334578 ], [ -82.537367, 34.334503 ], [ -82.53757, 34.334392 ], [ -82.537819, 34.33413 ], [ -82.537879246242383, 34.334004487071596 ], [ -82.537879247105408, 34.334148310745014 ], [ -82.537879246545998, 34.334417805483092 ], [ -82.53725042651385, 34.334777131157914 ], [ -82.536980931848376, 34.334777131110457 ], [ -82.536980931841072, 34.334612523099665 ] ] ], [ [ [ -82.53725042450337, 34.33324999509027 ], [ -82.537519921455768, 34.333249995397665 ], [ -82.537519921479131, 34.333278090341068 ], [ -82.537469, 34.33327 ], [ -82.537249, 34.333266 ], [ -82.537214561609645, 34.333273903916783 ], [ -82.53725042450337, 34.33324999509027 ] ] ] ] } },
{ "type": "Feature", "properties": { "field_id": "451623001001231", "mukey": "1154992", "musym": "CcC", "muname": "Cecil sandy loam, 6 to 10 percent slopes", "aws025wta": 2.99, "selected_soil_attribute": 2.99, "intersection_area_m2": 13969.87333317103, "intersection_area_acres": 3.4520308725149675, "field_area_m2": 16194.721897910846, "percent_of_field": 86.261890887877328 }, "geometry": { "type": "Polygon", "coordinates": [ [ [ -82.536980931848731, 34.334417805560037 ], [ -82.536711437192125, 34.334417805647639 ], [ -82.536352110880216, 34.334417805384021 ], [ -82.536292457182327, 34.333758806497507 ], [ -82.536711436631123, 34.333609321304991 ], [ -82.537214561609645, 34.333273903916783 ], [ -82.537249, 34.333266 ], [ -82.537469, 34.33327 ], [ -82.537519921479131, 34.333278090341068 ], [ -82.537519921782405, 34.333609321191851 ], [ -82.537879245496185, 34.333878815668513 ], [ -82.537879246242383, 34.334004487071596 ], [ -82.537819, 34.33413 ], [ -82.53757, 34.334392 ], [ -82.537367, 34.334503 ], [ -82.537054, 34.334578 ], [ -82.536980931841072, 34.334612523099665 ], [ -82.536980931848731, 34.334417805560037 ] ] ] } },
{ "type": "Feature", "properties": { "field_id": "451623001001238", "mukey": "1154991", "musym": "CcB", "muname": "Cecil sandy loam, 2 to 6 percent slopes", "aws025wta": 2.95, "selected_soil_attribute": 2.95, "intersection_area_m2": 4479.154953088133, "intersection_area_acres": 1.1068232912408802, "field_area_m2": 10664.248092584985, "percent_of_field": 42.001601183702377 }, "geometry": { "type": "MultiPolygon", "coordinates": [ [ [ [ -82.530153735763975, 34.333249995756063 ], [ -82.530153735715416, 34.333212991252019 ], [ -82.530236, 34.333246 ], [ -82.531052050241058, 34.333388944473462 ], [ -82.531052049751395, 34.333609321293871 ], [ -82.53015373513189, 34.33360932179788 ], [ -82.530153735763975, 34.333249995756063 ] ] ], [ [ [ -82.530423229082217, 34.33235168021848 ], [ -82.530647553779986, 34.332351680247342 ], [ -82.530703, 34.332483 ], [ -82.530655, 34.332655 ], [ -82.530508, 34.332823 ], [ -82.530286, 34.33291 ], [ -82.530172838840102, 34.332935926547648 ], [ -82.530423229082217, 34.33235168021848 ] ] ] ] } },
{ "type": "Feature", "properties": { "field_id": "451623001001238", "mukey": "1155004", "musym": "HeB", "muname": "Helena sandy loam, 2 to 6 percent slopes", "aws025wta": 3.05, "selected_soil_attribute": 3.05, "intersection_area_m2": 6185.0931394948475, "intersection_area_acres": 1.5283697967553604, "field_area_m2": 10664.248092584985, "percent_of_field": 57.998398816278829 }, "geometry": { "type": "Polygon", "coordinates": [ [ [ -82.530153735424861, 34.332980501029752 ], [ -82.530172838840102, 34.332935926547648 ], [ -82.530286, 34.33291 ], [ -82.530508, 34.332823 ], [ -82.530655, 34.332655 ], [ -82.530703, 34.332483 ], [ -82.530647553779986, 34.332351680247342 ], [ -82.530782555736494, 34.332351680066566 ], [ -82.531052051114642, 34.332351680173133 ], [ -82.531052051388926, 34.332711006217799 ], [ -82.531052050561385, 34.333249995757434 ], [ -82.531052050241058, 34.333388944473462 ], [ -82.530236, 34.333246 ], [ -82.530153735715416, 34.333212991252019 ], [ -82.530153735424861, 34.332980501029752 ] ] ] } },
{ "type": "Feature", "properties": { "field_id": "451623001001243", "mukey": "1154991", "musym": "CcB", "muname": "Cecil sandy loam, 2 to 6 percent slopes", "aws025wta": 2.95, "selected_soil_attribute": 2.95, "intersection_area_m2": 1093.0710195700381, "intersection_area_acres": 0.27010373075091271, "field_area_m2": 23181.746216805026, "percent_of_field": 4.7152229575252775 }, "geometry": { "type": "Polygon", "coordinates": [ [ [ -82.536980931542672, 34.331183870504191 ], [ -82.536980931696974, 34.331543196543848 ], [ -82.536980931409815, 34.331922452309449 ], [ -82.53697, 34.331923 ], [ -82.536828, 34.331904 ], [ -82.536763, 34.33182 ], [ -82.536756, 34.331688 ], [ -82.536898, 34.33141 ], [ -82.536905017814604, 34.331183870482569 ], [ -82.536980931542672, 34.331183870504191 ] ] ] } },
{ "type": "Feature", "properties": { "field_id": "451623001001243", "mukey": "1154992", "musym": "CcC", "muname": "Cecil sandy loam, 6 to 10 percent slopes", "aws025wta": 2.99, "selected_soil_attribute": 2.99, "intersection_area_m2": 1528.4367481492754, "intersection_area_acres": 0.37768494498582778, "field_area_m2": 23181.746216805026, "percent_of_field": 6.5932770286358906 }, "geometry": { "type": "Polygon", "coordinates": [ [ [ -82.534555480358364, 34.330914376098136 ], [ -82.534555480223275, 34.330644880624689 ], [ -82.534914806567826, 34.330644881246656 ], [ -82.535138529080427, 34.330868603736548 ], [ -82.535079, 34.330906 ], [ -82.534995, 34.330935 ], [ -82.534647609897121, 34.330983473353307 ], [ -82.534555480358364, 34.330914376098136 ] ] ] } },
{ "type": "Feature", "properties": { "field_id": "451623001001243", "mukey": "1154985", "musym": "ApB", "muname": "Appling sandy loam, 2 to 6 percent slopes", "aws025wta": 3.5, "selected_soil_attribute": 3.5, "intersection_area_m2": 16389.269028417672, "intersection_area_acres": 4.0498765675786483, "field_area_m2": 23181.746216805026, "percent_of_field": 70.699027049725359 }, "geometry": { "type": "MultiPolygon", "coordinates": [ [ [ [ -82.534914806390077, 34.331183869957719 ], [ -82.534647609897121, 34.330983473353307 ], [ -82.534995, 34.330935 ], [ -82.535079, 34.330906 ], [ -82.535138529080427, 34.330868603736548 ], [ -82.535184301282627, 34.330914375731474 ], [ -82.535184300618212, 34.331143352216131 ], [ -82.535121, 34.331217 ], [ -82.535032121678682, 34.331457606706252 ], [ -82.534914806390077, 34.331183869957719 ] ] ], [ [ [ -82.53581312115773, 34.3318126907322 ], [ -82.536082615889413, 34.331543196523384 ], [ -82.536082616641522, 34.331183870104809 ], [ -82.536711437118512, 34.33118387021436 ], [ -82.536905017814604, 34.331183870482569 ], [ -82.536898, 34.33141 ], [ -82.536756, 34.331688 ], [ -82.536763, 34.33182 ], [ -82.536828, 34.331904 ], [ -82.53697, 34.331923 ], [ -82.536980931409815, 34.331922452309449 ], [ -82.536980931308946, 34.332082185696542 ], [ -82.536711437049959, 34.332351679916542 ], [ -82.53608261627177, 34.332711005980151 ], [ -82.53555642705345, 34.332711006853856 ], [ -82.535498, 34.332499 ], [ -82.535503, 34.332179 ], [ -82.535559, 34.331993 ], [ -82.535683290781904, 34.331812690899795 ], [ -82.53581312115773, 34.3318126907322 ] ], [ [ -82.53635211065459, 34.3318126908013 ], [ -82.536082615906139, 34.331812691078824 ], [ -82.536082615922865, 34.332082185548288 ], [ -82.536352110522856, 34.332082185144493 ], [ -82.53635211065459, 34.3318126908013 ] ] ] ] } },
{ "type": "Feature", "properties": { "field_id": "451623001001243", "mukey": "1154993", "musym": "CcD", "muname": "Cecil-Cataula complex, 10 to 15 percent slopes, moderately eroded", "aws025wta": 3.35, "selected_soil_attribute": 3.35, "intersection_area_m2": 4170.9694206723161, "intersection_area_acres": 1.0306689878345821, "field_area_m2": 23181.746216805026, "percent_of_field": 17.99247296413191 }, "geometry": { "type": "Polygon", "coordinates": [ [ [ -82.535032121678682, 34.331457606706252 ], [ -82.535121, 34.331217 ], [ -82.535184300618212, 34.331143352216131 ], [ -82.535184300503175, 34.33118386985462 ], [ -82.535184301167874, 34.33154319601924 ], [ -82.535453795291502, 34.331812690859188 ], [ -82.535683290781904, 34.331812690899795 ], [ -82.535559, 34.331993 ], [ -82.535503, 34.332179 ], [ -82.535498, 34.332499 ], [ -82.53555642705345, 34.332711006853856 ], [ -82.535184301198754, 34.332711006106159 ], [ -82.535184300534013, 34.332351680438094 ], [ -82.535184301318012, 34.331812690953562 ], [ -82.535032121678682, 34.331457606706252 ] ] ] } },
{ "type": "Feature", "properties": { "field_id": "451623001001248", "mukey": "1154991", "musym": "CcB", "muname": "Cecil sandy loam, 2 to 6 percent slopes", "aws025wta": 2.95, "selected_soil_attribute": 2.95, "intersection_area_m2": 15598.663803926254, "intersection_area_acres": 3.8545137623601065, "field_area_m2": 15976.271924619761, "percent_of_field": 97.636444081102525 }, "geometry": { "type": "Polygon", "coordinates": [ [ [ -82.530782555559256, 34.330644881419104 ], [ -82.530542911170301, 34.330644881047697 ], [ -82.530526, 34.330626 ], [ -82.530423229346141, 34.33054641073231 ], [ -82.530423230115659, 34.330016060747958 ], [ -82.530782554939563, 34.330016059835906 ], [ -82.531052050091972, 34.329387240040099 ], [ -82.531321545089142, 34.329387239774185 ], [ -82.531321545681621, 34.32974656606774 ], [ -82.531591039575744, 34.330285555091066 ], [ -82.531950364873907, 34.330285555000302 ], [ -82.531950365125013, 34.330644880532709 ], [ -82.531591040240585, 34.330914375715629 ], [ -82.531321545728417, 34.331183870346266 ], [ -82.530999203824408, 34.331183870423942 ], [ -82.530878, 34.331019 ], [ -82.530782556064352, 34.33091243949206 ], [ -82.530782555559256, 34.330644881419104 ] ] ] } },
{ "type": "Feature", "properties": { "field_id": "451623001001248", "mukey": "1154993", "musym": "CcD", "muname": "Cecil-Cataula complex, 10 to 15 percent slopes, moderately eroded", "aws025wta": 3.35, "selected_soil_attribute": 3.35, "intersection_area_m2": 377.608120692032, "intersection_area_acres": 0.093308998532298557, "field_area_m2": 15976.271924619761, "percent_of_field": 2.3635559188882493 }, "geometry": { "type": "MultiPolygon", "coordinates": [ [ [ [ -82.530782556064352, 34.33091243949206 ], [ -82.530878, 34.331019 ], [ -82.530999203824408, 34.331183870423942 ], [ -82.530782556576995, 34.331183869999151 ], [ -82.530782556068118, 34.330914375752101 ], [ -82.530782556064352, 34.33091243949206 ] ] ], [ [ [ -82.530423229217632, 34.330644880686535 ], [ -82.530423229346141, 34.33054641073231 ], [ -82.530526, 34.330626 ], [ -82.530542911170301, 34.330644881047697 ], [ -82.530423229217632, 34.330644880686535 ] ] ] ] } },
{ "type": "Feature", "properties": { "field_id": "451623001001250", "mukey": "1154991", "musym": "CcB", "muname": "Cecil sandy loam, 2 to 6 percent slopes", "aws025wta": 2.95, "selected_soil_attribute": 2.95, "intersection_area_m2": 45674.108928127731, "intersection_area_acres": 11.286318088520504, "field_area_m2": 51140.490018001277, "percent_of_field": 89.311050621631892 }, "geometry": { "type": "Polygon", "coordinates": [ [ [ -82.546772567945908, 34.332711007716988 ], [ -82.54614374733022, 34.332351682279999 ], [ -82.546143746761857, 34.332082187382767 ], [ -82.546143746964958, 34.331999092022286 ], [ -82.546229, 34.332051 ], [ -82.546334, 34.332078 ], [ -82.546634, 34.332053 ], [ -82.546792, 34.331955 ], [ -82.546862, 34.331808 ], [ -82.546912535114558, 34.331598708883732 ], [ -82.547042062388172, 34.331543196590758 ], [ -82.547940377212555, 34.330914377713057 ], [ -82.548479367455357, 34.330644882288304 ], [ -82.548677211869062, 34.330531828726293 ], [ -82.548725, 34.330511 ], [ -82.549645327590028, 34.330285557164324 ], [ -82.550006503075252, 34.330285557051972 ], [ -82.550275998108049, 34.33028555589722 ], [ -82.550635323116225, 34.33028555680238 ], [ -82.55090481768552, 34.330285556847727 ], [ -82.55090481818236, 34.330644883032384 ], [ -82.550635323196062, 34.330914377461546 ], [ -82.550275997290584, 34.330914377694135 ], [ -82.549737008622756, 34.331183871994881 ], [ -82.54961900300242, 34.331301877886354 ], [ -82.549104, 34.331423 ], [ -82.548622, 34.331615 ], [ -82.548073012304357, 34.331812693141735 ], [ -82.547940377752909, 34.331812692968569 ], [ -82.547865737951184, 34.331887332772929 ], [ -82.54785, 34.331893 ], [ -82.547676, 34.332015 ], [ -82.547644, 34.332146 ], [ -82.54765, 34.332193 ], [ -82.547670882702207, 34.332214550986144 ], [ -82.547670882894437, 34.332711007566317 ], [ -82.547670883498881, 34.332980500746551 ], [ -82.547311557170602, 34.332980502827738 ], [ -82.54704206284994, 34.332980502806542 ], [ -82.546772567945908, 34.332711007716988 ] ] ] } },
{ "type": "Feature", "properties": { "field_id": "451623001001250", "mukey": "1155019", "musym": "PaF", "muname": "Pacolet sandy loam, 15 to 40 percent slopes", "aws025wta": 2.99, "selected_soil_attribute": 2.99, "intersection_area_m2": 2707.0748345356869, "intersection_area_acres": 0.6689327583834529, "field_area_m2": 51140.490018001277, "percent_of_field": 5.2934080873742237 }, "geometry": { "type": "MultiPolygon", "coordinates": [ [ [ [ -82.546143747432325, 34.331812691640359 ], [ -82.546413241259629, 34.33181269234953 ], [ -82.546912535114558, 34.331598708883732 ], [ -82.546862, 34.331808 ], [ -82.546792, 34.331955 ], [ -82.546634, 34.332053 ], [ -82.546334, 34.332078 ], [ -82.546229, 34.332051 ], [ -82.546143746964958, 34.331999092022286 ], [ -82.546143747432325, 34.331812691640359 ] ] ], [ [ [ -82.549108187538067, 34.330285555634525 ], [ -82.549377682570849, 34.330285556560106 ], [ -82.549645327590028, 34.330285557164324 ], [ -82.548725, 34.330511 ], [ -82.548677211869062, 34.330531828726293 ], [ -82.549108187538067, 34.330285555634525 ] ] ] ] } },
{ "type": "Feature", "properties": { "field_id": "451623001001250", "mukey": "1154992", "musym": "CcC", "muname": "Cecil sandy loam, 6 to 10 percent slopes", "aws025wta": 2.99, "selected_soil_attribute": 2.99, "intersection_area_m2": 2759.3062553192976, "intersection_area_acres": 0.68183942351635829, "field_area_m2": 51140.490018001277, "percent_of_field": 5.3955412909575786 }, "geometry": { "type": "MultiPolygon", "coordinates": [ [ [ [ -82.549377682176797, 34.331543197910371 ], [ -82.54883869299448, 34.331812692275022 ], [ -82.548479366340018, 34.331812692777582 ], [ -82.548073012304357, 34.331812693141735 ], [ -82.548622, 34.331615 ], [ -82.549104, 34.331423 ], [ -82.54961900300242, 34.331301877886354 ], [ -82.549377682176797, 34.331543197910371 ] ] ], [ [ [ -82.547670882670474, 34.332082187239337 ], [ -82.547670882702207, 34.332214550986144 ], [ -82.54765, 34.332193 ], [ -82.547644, 34.332146 ], [ -82.547676, 34.332015 ], [ -82.54785, 34.331893 ], [ -82.547865737951184, 34.331887332772929 ], [ -82.547670882670474, 34.332082187239337 ] ] ] ] } },
{ "type": "Feature", "properties": { "field_id": "451623001001251", "mukey": "1154991", "musym": "CcB", "muname": "Cecil sandy loam, 2 to 6 percent slopes", "aws025wta": 2.95, "selected_soil_attribute": 2.95, "intersection_area_m2": 1238.1676311755725, "intersection_area_acres": 0.30595788424350734, "field_area_m2": 17952.831332152906, "percent_of_field": 6.8967819519256368 }, "geometry": { "type": "Polygon", "coordinates": [ [ [ -82.535453795277988, 34.329387240816864 ], [ -82.53545379512164, 34.329117746120623 ], [ -82.535813121985441, 34.329117744852795 ], [ -82.535813121408324, 34.329320095269516 ], [ -82.535764, 34.329379 ], [ -82.535635, 34.329477 ], [ -82.535568, 34.329506 ], [ -82.535453795242745, 34.329515375026787 ], [ -82.535453795277988, 34.329387240816864 ] ] ] } },
{ "type": "Feature", "properties": { "field_id": "451623001001251", "mukey": "1154992", "musym": "CcC", "muname": "Cecil sandy loam, 6 to 10 percent slopes", "aws025wta": 2.99, "selected_soil_attribute": 2.99, "intersection_area_m2": 14006.646433922217, "intersection_area_acres": 3.4611177035866407, "field_area_m2": 17952.831332152906, "percent_of_field": 78.019150153974849 }, "geometry": { "type": "Polygon", "coordinates": [ [ [ -82.534914806567826, 34.330644881246656 ], [ -82.53491480606661, 34.330285554573678 ], [ -82.534914806542972, 34.330016060923136 ], [ -82.535184300937942, 34.33001606132526 ], [ -82.535453795178285, 34.33001606198868 ], [ -82.535453795242745, 34.329515375026787 ], [ -82.535568, 34.329506 ], [ -82.535635, 34.329477 ], [ -82.535764, 34.329379 ], [ -82.535813121408324, 34.329320095269516 ], [ -82.53581312122104, 34.329387239296487 ], [ -82.536082616221293, 34.329387240653482 ], [ -82.5363521104466, 34.329387239489087 ], [ -82.536352110942204, 34.329746566671879 ], [ -82.536352110678763, 34.330285556590312 ], [ -82.536232391525431, 34.330445182500789 ], [ -82.536211, 34.33044 ], [ -82.535933, 34.330463 ], [ -82.535814, 34.330495 ], [ -82.535547, 34.330612 ], [ -82.535138529080427, 34.330868603736548 ], [ -82.534914806567826, 34.330644881246656 ] ] ] } },
{ "type": "Feature", "properties": { "field_id": "451623001001251", "mukey": "1154985", "musym": "ApB", "muname": "Appling sandy loam, 2 to 6 percent slopes", "aws025wta": 3.5, "selected_soil_attribute": 3.5, "intersection_area_m2": 2708.01726705696, "intersection_area_acres": 0.66916563853068889, "field_area_m2": 17952.831332152906, "percent_of_field": 15.084067894109795 }, "geometry": { "type": "Polygon", "coordinates": [ [ [ -82.535138529080427, 34.330868603736548 ], [ -82.535547, 34.330612 ], [ -82.535814, 34.330495 ], [ -82.535933, 34.330463 ], [ -82.536211, 34.33044 ], [ -82.536232391525431, 34.330445182500789 ], [ -82.536082616298771, 34.330644882277817 ], [ -82.53581312143362, 34.33091437639424 ], [ -82.535184301282627, 34.330914375731474 ], [ -82.535138529080427, 34.330868603736548 ] ] ] } },
{ "type": "Feature", "properties": { "field_id": "451623001001257", "mukey": "1154991", "musym": "CcB", "muname": "Cecil sandy loam, 2 to 6 percent slopes", "aws025wta": 2.95, "selected_soil_attribute": 2.95, "intersection_area_m2": 50245.846749059339, "intersection_area_acres": 12.41601910459392, "field_area_m2": 77438.562084611025, "percent_of_field": 64.884787884051434 }, "geometry": { "type": "Polygon", "coordinates": [ [ [ -82.544975937289436, 34.331812693288882 ], [ -82.54470644277491, 34.331543198104704 ], [ -82.544706442321456, 34.331183871677709 ], [ -82.544347116569469, 34.331183870932001 ], [ -82.543718295459726, 34.331183871352984 ], [ -82.543568810286416, 34.331153693313944 ], [ -82.543448801636856, 34.331094038686544 ], [ -82.543269138043811, 34.330914377269522 ], [ -82.542730149333096, 34.330644883022472 ], [ -82.542909812242129, 34.330285555744553 ], [ -82.542909812036257, 34.329746567460973 ], [ -82.542640317177742, 34.329746567621321 ], [ -82.542640317307018, 34.329387241191306 ], [ -82.542730316335948, 34.329297242674755 ], [ -82.542904, 34.329268 ], [ -82.543178, 34.329264 ], [ -82.543179306806124, 34.329264425472978 ], [ -82.543179306542527, 34.329387241384367 ], [ -82.543808127963644, 34.329387241089464 ], [ -82.543808127909941, 34.329348283010233 ], [ -82.544106, 34.329322 ], [ -82.544233, 34.329352 ], [ -82.544378, 34.329454 ], [ -82.544386, 34.329612 ], [ -82.544348, 34.329858 ], [ -82.544322, 34.3299 ], [ -82.54438, 34.330065 ], [ -82.544473, 34.330239 ], [ -82.54463, 34.330312 ], [ -82.544808, 34.330342 ], [ -82.545515, 34.33033 ], [ -82.546143747099492, 34.330371197189777 ], [ -82.54614374712034, 34.330975081344683 ], [ -82.546096, 34.331009 ], [ -82.545757, 34.331162 ], [ -82.545654, 34.331276 ], [ -82.545636, 34.331499 ], [ -82.54565, 34.331556 ], [ -82.545757, 34.331688 ], [ -82.545981, 34.3319 ], [ -82.54602788981596, 34.33192854992933 ], [ -82.545874252928428, 34.332082187061253 ], [ -82.545514926733816, 34.332082187643707 ], [ -82.544975937289436, 34.331812693288882 ] ] ] } },
{ "type": "Feature", "properties": { "field_id": "451623001001257", "mukey": "1155019", "musym": "PaF", "muname": "Pacolet sandy loam, 15 to 40 percent slopes", "aws025wta": 2.99, "selected_soil_attribute": 2.99, "intersection_area_m2": 3904.3049136570253, "intersection_area_acres": 0.96477475322939132, "field_area_m2": 77438.562084611025, "percent_of_field": 5.0418096727972541 }, "geometry": { "type": "MultiPolygon", "coordinates": [ [ [ [ -82.545245431764215, 34.328848251155037 ], [ -82.545514926758543, 34.328848251664731 ], [ -82.545874252230405, 34.328848251837456 ], [ -82.545962876856379, 34.328936876850932 ], [ -82.545245431720872, 34.328896542288035 ], [ -82.545245431764215, 34.328848251155037 ] ] ], [ [ [ -82.546143747432325, 34.331812691640359 ], [ -82.54602788981596, 34.33192854992933 ], [ -82.545981, 34.3319 ], [ -82.545757, 34.331688 ], [ -82.54565, 34.331556 ], [ -82.545636, 34.331499 ], [ -82.545654, 34.331276 ], [ -82.545757, 34.331162 ], [ -82.546096, 34.331009 ], [ -82.54614374712034, 34.330975081344683 ], [ -82.546143747432325, 34.331812691640359 ] ] ] ] } },
{ "type": "Feature", "properties": { "field_id": "451623001001257", "mukey": "1154992", "musym": "CcC", "muname": "Cecil sandy loam, 6 to 10 percent slopes", "aws025wta": 2.99, "selected_soil_attribute": 2.99, "intersection_area_m2": 23288.410421894197, "intersection_area_acres": 5.7546915301865367, "field_area_m2": 77438.562084611025, "percent_of_field": 30.073402443150719 }, "geometry": { "type": "MultiPolygon", "coordinates": [ [ [ [ -82.542909812441252, 34.329117746834854 ], [ -82.543179307130174, 34.329117747188313 ], [ -82.543179306806124, 34.329264425472978 ], [ -82.543178, 34.329264 ], [ -82.542904, 34.329268 ], [ -82.542730316335948, 34.329297242674755 ], [ -82.542909812441252, 34.329117746834854 ] ] ], [ [ [ -82.543808127606582, 34.329117746134109 ], [ -82.544077622140975, 34.329117745292642 ], [ -82.544347116211682, 34.329117746483448 ], [ -82.54434711658088, 34.329387239415411 ], [ -82.544706442688749, 34.32938724117087 ], [ -82.54497593784977, 34.329387240019884 ], [ -82.54524543153633, 34.329117746450763 ], [ -82.545245431720872, 34.328896542288035 ], [ -82.545962876856379, 34.328936876850932 ], [ -82.54614374670885, 34.329117746693427 ], [ -82.546143747431742, 34.3293872416507 ], [ -82.546143747099492, 34.330371197189777 ], [ -82.545515, 34.33033 ], [ -82.544808, 34.330342 ], [ -82.54463, 34.330312 ], [ -82.544473, 34.330239 ], [ -82.54438, 34.330065 ], [ -82.544322, 34.3299 ], [ -82.544348, 34.329858 ], [ -82.544386, 34.329612 ], [ -82.544378, 34.329454 ], [ -82.544233, 34.329352 ], [ -82.544106, 34.329322 ], [ -82.543808127909941, 34.329348283010233 ], [ -82.543808127606582, 34.329117746134109 ] ] ] ] } },
{ "type": "Feature", "properties": { "field_id": "451623001001258", "mukey": "1154985", "musym": "ApB", "muname": "Appling sandy loam, 2 to 6 percent slopes", "aws025wta": 3.5, "selected_soil_attribute": 3.5, "intersection_area_m2": 8020.5012667264355, "intersection_area_acres": 1.9819090213254185, "field_area_m2": 35947.29729539933, "percent_of_field": 22.31183390733781 }, "geometry": { "type": "Polygon", "coordinates": [ [ [ -82.53841823612764, 34.327949935356436 ], [ -82.538418235580636, 34.328219430047987 ], [ -82.538418236038581, 34.328578755705621 ], [ -82.539047056342113, 34.329117744988601 ], [ -82.539316550812202, 34.329387239246962 ], [ -82.539316550783028, 34.329746565673545 ], [ -82.538777562465725, 34.329746566055874 ], [ -82.538777562477506, 34.329808535042964 ], [ -82.538592, 34.329727 ], [ -82.538771, 34.329564 ], [ -82.538824, 34.329386 ], [ -82.538786, 34.329241 ], [ -82.538689, 34.329082 ], [ -82.538469, 34.328899 ], [ -82.538286, 34.32878 ], [ -82.53807, 34.328689 ], [ -82.537814, 34.328666 ], [ -82.538038, 34.328304 ], [ -82.538107, 34.328074 ], [ -82.538106153137818, 34.327949935656719 ], [ -82.53841823612764, 34.327949935356436 ] ] ] } },
{ "type": "Feature", "properties": { "field_id": "451623001001258", "mukey": "1154991", "musym": "CcB", "muname": "Cecil sandy loam, 2 to 6 percent slopes", "aws025wta": 2.95, "selected_soil_attribute": 2.95, "intersection_area_m2": 3301.4485802684549, "intersection_area_acres": 0.81580570927914564, "field_area_m2": 35947.29729539933, "percent_of_field": 9.1841357450007415 }, "geometry": { "type": "Polygon", "coordinates": [ [ [ -82.538777562628241, 34.330285554965613 ], [ -82.538148741372382, 34.330285555144037 ], [ -82.537879246969467, 34.330285556294442 ], [ -82.537854523614072, 34.330285556279946 ], [ -82.537954, 34.330152 ], [ -82.538592, 34.329727 ], [ -82.538777562477506, 34.329808535042964 ], [ -82.538777562628241, 34.330285554965613 ] ] ] } },
{ "type": "Feature", "properties": { "field_id": "451623001001258", "mukey": "1154991", "musym": "CcB", "muname": "Cecil sandy loam, 2 to 6 percent slopes", "aws025wta": 2.95, "selected_soil_attribute": 2.95, "intersection_area_m2": 7352.0971665315774, "intersection_area_acres": 1.8167427714848059, "field_area_m2": 35947.29729539933, "percent_of_field": 20.452433756327284 }, "geometry": { "type": "Polygon", "coordinates": [ [ [ -82.536711437234871, 34.328219429616418 ], [ -82.537879247337642, 34.328219429560434 ], [ -82.537879246348908, 34.327949935375486 ], [ -82.538106153137818, 34.327949935656719 ], [ -82.538107, 34.328074 ], [ -82.538038, 34.328304 ], [ -82.537814, 34.328666 ], [ -82.537745, 34.32866 ], [ -82.537655, 34.328685 ], [ -82.537459, 34.328779 ], [ -82.537173, 34.328822 ], [ -82.536711436577633, 34.328759371658556 ], [ -82.536711437234871, 34.328219429616418 ] ] ] } },
{ "type": "Feature", "properties": { "field_id": "451623001001258", "mukey": "1154992", "musym": "CcC", "muname": "Cecil sandy loam, 6 to 10 percent slopes", "aws025wta": 2.99, "selected_soil_attribute": 2.99, "intersection_area_m2": 17273.250281874873, "intersection_area_acres": 4.2683130920110477, "field_area_m2": 35947.29729539933, "percent_of_field": 48.051596591339752 }, "geometry": { "type": "Polygon", "coordinates": [ [ [ -82.537250425683254, 34.328848250473619 ], [ -82.536711436482477, 34.328848250394778 ], [ -82.536711436577633, 34.328759371658556 ], [ -82.537173, 34.328822 ], [ -82.537459, 34.328779 ], [ -82.537655, 34.328685 ], [ -82.537745, 34.32866 ], [ -82.537814, 34.328666 ], [ -82.53807, 34.328689 ], [ -82.538286, 34.32878 ], [ -82.538469, 34.328899 ], [ -82.538689, 34.329082 ], [ -82.538786, 34.329241 ], [ -82.538824, 34.329386 ], [ -82.538771, 34.329564 ], [ -82.538592, 34.329727 ], [ -82.537954, 34.330152 ], [ -82.537854523614072, 34.330285556279946 ], [ -82.537519920582227, 34.330285555592674 ], [ -82.537519920325195, 34.329746566558164 ], [ -82.537250425683254, 34.328848250473619 ] ] ] } },
{ "type": "Feature", "properties": { "field_id": "451623001001259", "mukey": "1154991", "musym": "CcB", "muname": "Cecil sandy loam, 2 to 6 percent slopes", "aws025wta": 2.95, "selected_soil_attribute": 2.95, "intersection_area_m2": 1595.7712343002436, "intersection_area_acres": 0.394323658840602, "field_area_m2": 14906.000763411212, "percent_of_field": 10.705562542417677 }, "geometry": { "type": "Polygon", "coordinates": [ [ [ -82.530423229172555, 34.327949937182133 ], [ -82.530423229827306, 34.328219430730456 ], [ -82.530153735000425, 34.32857875671818 ], [ -82.52988424097498, 34.328848251168971 ], [ -82.529688273785951, 34.328932237366608 ], [ -82.529792, 34.328838 ], [ -82.529933, 34.328684 ], [ -82.530312, 34.327972 ], [ -82.530318865858732, 34.327949936745952 ], [ -82.530423229172555, 34.327949937182133 ] ] ] } },
{ "type": "Feature", "properties": { "field_id": "451623001001259", "mukey": "1154985", "musym": "ApB", "muname": "Appling sandy loam, 2 to 6 percent slopes", "aws025wta": 3.5, "selected_soil_attribute": 3.5, "intersection_area_m2": 13310.2295291152, "intersection_area_acres": 3.2890293389894625, "field_area_m2": 14906.000763411212, "percent_of_field": 89.294437457610726 }, "geometry": { "type": "Polygon", "coordinates": [ [ [ -82.529255419897297, 34.328219430969 ], [ -82.528985924928904, 34.328219430498095 ], [ -82.528985925082793, 34.327949935558912 ], [ -82.529524914386911, 34.327949935117353 ], [ -82.530153735758816, 34.32794993587401 ], [ -82.530318865858732, 34.327949936745952 ], [ -82.530312, 34.327972 ], [ -82.529933, 34.328684 ], [ -82.529792, 34.328838 ], [ -82.529688273785951, 34.328932237366608 ], [ -82.529255419457286, 34.329117745252155 ], [ -82.529255419000236, 34.329387240577759 ], [ -82.528626598374828, 34.329387240024921 ], [ -82.528626599776402, 34.329117745458404 ], [ -82.528985926014272, 34.328578755895698 ], [ -82.529255419907187, 34.328578756999278 ], [ -82.529255419897297, 34.328219430969 ] ] ] } },
{ "type": "Feature", "properties": { "field_id": "451623001001261", "mukey": "1154991", "musym": "CcB", "muname": "Cecil sandy loam, 2 to 6 percent slopes", "aws025wta": 2.95, "selected_soil_attribute": 2.95, "intersection_area_m2": 14130.048518614607, "intersection_area_acres": 3.4916110227407482, "field_area_m2": 17706.088291870219, "percent_of_field": 79.803332535636585 }, "geometry": { "type": "Polygon", "coordinates": [ [ [ -82.535813121985441, 34.329117744852795 ], [ -82.53545379512164, 34.329117746120623 ], [ -82.535453795119992, 34.328848250452872 ], [ -82.535225266716139, 34.328848250358035 ], [ -82.535213, 34.328608 ], [ -82.535184301132318, 34.328483447066411 ], [ -82.535184301332791, 34.328219429772972 ], [ -82.535453795994599, 34.328219430308756 ], [ -82.535813121952074, 34.328219429419853 ], [ -82.535813121477631, 34.327949935362646 ], [ -82.535813121157801, 34.327680440333936 ], [ -82.536082615961845, 34.327680440551525 ], [ -82.536352110611261, 34.327680441030381 ], [ -82.536352110788826, 34.327949934921001 ], [ -82.536352110811748, 34.328219429611096 ], [ -82.536711437234871, 34.328219429616418 ], [ -82.536711436577633, 34.328759371658556 ], [ -82.536635, 34.328749 ], [ -82.536298, 34.328773 ], [ -82.536132, 34.32889 ], [ -82.536005, 34.32909 ], [ -82.535813121408324, 34.329320095269516 ], [ -82.535813121985441, 34.329117744852795 ] ] ] } },
{ "type": "Feature", "properties": { "field_id": "451623001001261", "mukey": "1154992", "musym": "CcC", "muname": "Cecil sandy loam, 6 to 10 percent slopes", "aws025wta": 2.99, "selected_soil_attribute": 2.99, "intersection_area_m2": 3576.039773254297, "intersection_area_acres": 0.88365867064115666, "field_area_m2": 17706.088291870219, "percent_of_field": 20.196667464355983 }, "geometry": { "type": "MultiPolygon", "coordinates": [ [ [ [ -82.535813121408324, 34.329320095269516 ], [ -82.536005, 34.32909 ], [ -82.536132, 34.32889 ], [ -82.536298, 34.328773 ], [ -82.536635, 34.328749 ], [ -82.536711436577633, 34.328759371658556 ], [ -82.536711436482477, 34.328848250394778 ], [ -82.536711435584621, 34.329117744545577 ], [ -82.536352109339418, 34.329117745045437 ], [ -82.5363521104466, 34.329387239489087 ], [ -82.536082616221293, 34.329387240653482 ], [ -82.53581312122104, 34.329387239296487 ], [ -82.535813121408324, 34.329320095269516 ] ] ], [ [ [ -82.535184301527352, 34.328848250295941 ], [ -82.535184301067915, 34.328578756186857 ], [ -82.535184301132318, 34.328483447066411 ], [ -82.535213, 34.328608 ], [ -82.535225266716139, 34.328848250358035 ], [ -82.535184301527352, 34.328848250295941 ] ] ] ] } },
{ "type": "Feature", "properties": { "field_id": "451623001001262", "mukey": "1154985", "musym": "ApB", "muname": "Appling sandy loam, 2 to 6 percent slopes", "aws025wta": 3.5, "selected_soil_attribute": 3.5, "intersection_area_m2": 21638.789268207918, "intersection_area_acres": 5.347061266499229, "field_area_m2": 63535.71061062481, "percent_of_field": 34.057680413492307 }, "geometry": { "type": "Polygon", "coordinates": [ [ [ -82.538777562465725, 34.329746566055874 ], [ -82.539316550783028, 34.329746565673545 ], [ -82.539316550812202, 34.329387239246962 ], [ -82.539047056342113, 34.329117744988601 ], [ -82.538418236038581, 34.328578755705621 ], [ -82.538418235580636, 34.328219430047987 ], [ -82.53841823612764, 34.327949935356436 ], [ -82.538106153137818, 34.327949935656719 ], [ -82.538105, 34.327781 ], [ -82.537845, 34.327331 ], [ -82.537699, 34.32715 ], [ -82.537692346269182, 34.327051620001946 ], [ -82.53787924656352, 34.327051619707518 ], [ -82.538148741419647, 34.327321114165237 ], [ -82.538777562389086, 34.327949935432592 ], [ -82.539047056476491, 34.328578755586172 ], [ -82.539316551243488, 34.32884825026909 ], [ -82.539675877792831, 34.328848250734367 ], [ -82.539945372117202, 34.329117745267084 ], [ -82.540214865835409, 34.329387240608213 ], [ -82.540484361414357, 34.329746566673613 ], [ -82.540484361449373, 34.329832132086139 ], [ -82.540213, 34.329957 ], [ -82.539642, 34.330102 ], [ -82.539443, 34.330106 ], [ -82.539154, 34.330014 ], [ -82.53879, 34.329814 ], [ -82.538777562477506, 34.329808535042964 ], [ -82.538777562465725, 34.329746566055874 ] ] ] } },
{ "type": "Feature", "properties": { "field_id": "451623001001262", "mukey": "1154991", "musym": "CcB", "muname": "Cecil sandy loam, 2 to 6 percent slopes", "aws025wta": 2.95, "selected_soil_attribute": 2.95, "intersection_area_m2": 20063.623812589449, "intersection_area_acres": 4.9578294064505881, "field_area_m2": 63535.71061062481, "percent_of_field": 31.578499114534644 }, "geometry": { "type": "Polygon", "coordinates": [ [ [ -82.537879247100491, 34.33064488132559 ], [ -82.538148741512245, 34.330644880934322 ], [ -82.538148741372382, 34.330285555144037 ], [ -82.538777562628241, 34.330285554965613 ], [ -82.538777562477506, 34.329808535042964 ], [ -82.53879, 34.329814 ], [ -82.539154, 34.330014 ], [ -82.539443, 34.330106 ], [ -82.539642, 34.330102 ], [ -82.540213, 34.329957 ], [ -82.540484361449373, 34.329832132086139 ], [ -82.54048436153623, 34.330016060034325 ], [ -82.540214866582346, 34.330644881739637 ], [ -82.539945372123611, 34.330914376574242 ], [ -82.539675877549115, 34.330914376698836 ], [ -82.539675877136474, 34.330644882360481 ], [ -82.539675876740887, 34.330285555556856 ], [ -82.539316551281388, 34.330285555089944 ], [ -82.538777562272131, 34.330644881262558 ], [ -82.538418235769385, 34.33064488080452 ], [ -82.538148741629939, 34.331543196069816 ], [ -82.538148741076739, 34.33181269062672 ], [ -82.537519921233567, 34.331812690819753 ], [ -82.537519920562872, 34.331543196769417 ], [ -82.537250426284572, 34.331543196083238 ], [ -82.536980931696974, 34.331543196543848 ], [ -82.536980931542672, 34.331183870504191 ], [ -82.537038134353708, 34.331126667905203 ], [ -82.537143, 34.331132 ], [ -82.537250425969262, 34.331181183135158 ], [ -82.537250425966789, 34.331183870169824 ], [ -82.537256295044273, 34.331183870185924 ], [ -82.537475, 34.331284 ], [ -82.537594, 34.331316 ], [ -82.537802, 34.331324 ], [ -82.537855, 34.331253 ], [ -82.537860730963089, 34.331183870336034 ], [ -82.537879246445584, 34.331183870293515 ], [ -82.537879246850352, 34.330914375409769 ], [ -82.53781888681462, 34.330914375598823 ], [ -82.537764, 34.330761 ], [ -82.537762758087439, 34.330644881452884 ], [ -82.537879247100491, 34.33064488132559 ] ] ] } },
{ "type": "Feature", "properties": { "field_id": "451623001001262", "mukey": "1154991", "musym": "CcB", "muname": "Cecil sandy loam, 2 to 6 percent slopes", "aws025wta": 2.95, "selected_soil_attribute": 2.95, "intersection_area_m2": 19512.692990688462, "intersection_area_acres": 4.8216914358001022, "field_area_m2": 63535.71061062481, "percent_of_field": 30.711379164814815 }, "geometry": { "type": "Polygon", "coordinates": [ [ [ -82.537879246348908, 34.327949935375486 ], [ -82.537879247337642, 34.328219429560434 ], [ -82.536711437234871, 34.328219429616418 ], [ -82.536352110811748, 34.328219429611096 ], [ -82.536352110788826, 34.327949934921001 ], [ -82.536352110611261, 34.327680441030381 ], [ -82.536082615961845, 34.327680440551525 ], [ -82.536082616404613, 34.327321114260492 ], [ -82.536711437459815, 34.327051619640173 ], [ -82.53698093193961, 34.327051619800756 ], [ -82.53725042626472, 34.32705162022269 ], [ -82.537519920589872, 34.327051620020498 ], [ -82.537692346269182, 34.327051620001946 ], [ -82.537699, 34.32715 ], [ -82.537845, 34.327331 ], [ -82.538105, 34.327781 ], [ -82.538106153137818, 34.327949935656719 ], [ -82.537879246348908, 34.327949935375486 ] ] ] } },
{ "type": "Feature", "properties": { "field_id": "451623001001262", "mukey": "1154992", "musym": "CcC", "muname": "Cecil sandy loam, 6 to 10 percent slopes", "aws025wta": 2.99, "selected_soil_attribute": 2.99, "intersection_area_m2": 2320.604539151409, "intersection_area_acres": 0.57343386879733838, "field_area_m2": 63535.71061062481, "percent_of_field": 3.6524413071777997 }, "geometry": { "type": "MultiPolygon", "coordinates": [ [ [ [ -82.537762758087439, 34.330644881452884 ], [ -82.537764, 34.330761 ], [ -82.53781888681462, 34.330914375598823 ], [ -82.53725042623195, 34.330914375919043 ], [ -82.537250426651696, 34.330644880696738 ], [ -82.537762758087439, 34.330644881452884 ] ] ], [ [ [ -82.53725042623195, 34.330914375919043 ], [ -82.537250425969262, 34.331181183135158 ], [ -82.537143, 34.331132 ], [ -82.537038134353708, 34.331126667905203 ], [ -82.53725042623195, 34.330914375919043 ] ] ], [ [ [ -82.537860730963089, 34.331183870336034 ], [ -82.537855, 34.331253 ], [ -82.537802, 34.331324 ], [ -82.537594, 34.331316 ], [ -82.537475, 34.331284 ], [ -82.537256295044273, 34.331183870185924 ], [ -82.537860730963089, 34.331183870336034 ] ] ] ] } },
{ "type": "Feature", "properties": { "field_id": "451623001001264", "mukey": "1154991", "musym": "CcB", "muname": "Cecil sandy loam, 2 to 6 percent slopes", "aws025wta": 2.95, "selected_soil_attribute": 2.95, "intersection_area_m2": 23703.744015152697, "intersection_area_acres": 5.8573226959907769, "field_area_m2": 23965.392214400941, "percent_of_field": 98.908224839771165 }, "geometry": { "type": "Polygon", "coordinates": [ [ [ -82.536441943128906, 34.326422800028212 ], [ -82.53671143681872, 34.326422799168341 ], [ -82.536980930044649, 34.326422800340673 ], [ -82.537519920953159, 34.326512631704496 ], [ -82.537519920589872, 34.327051620020498 ], [ -82.53725042626472, 34.32705162022269 ], [ -82.53698093193961, 34.327051619800756 ], [ -82.536711437459815, 34.327051619640173 ], [ -82.536082616404613, 34.327321114260492 ], [ -82.536082615961845, 34.327680440551525 ], [ -82.535813121157801, 34.327680440333936 ], [ -82.535813121477631, 34.327949935362646 ], [ -82.535813121952074, 34.328219429419853 ], [ -82.535453795994599, 34.328219430308756 ], [ -82.535184301332791, 34.328219429772972 ], [ -82.535088983759067, 34.328178579799356 ], [ -82.53504, 34.328038 ], [ -82.534941, 34.328005 ], [ -82.534878, 34.328005 ], [ -82.534751796342505, 34.328034071446588 ], [ -82.534555480734682, 34.327949935833743 ], [ -82.534555479206063, 34.327680441059009 ], [ -82.5351842993297, 34.327680440940995 ], [ -82.535453794288401, 34.327680441729434 ], [ -82.535453793714609, 34.326422799866229 ], [ -82.535813118943693, 34.326422799861461 ], [ -82.536441943128906, 34.326422800028212 ] ] ] } },
{ "type": "Feature", "properties": { "field_id": "451623001001264", "mukey": "1154992", "musym": "CcC", "muname": "Cecil sandy loam, 6 to 10 percent slopes", "aws025wta": 2.99, "selected_soil_attribute": 2.99, "intersection_area_m2": 261.64819924858551, "intersection_area_acres": 0.064654677963285639, "field_area_m2": 23965.392214400941, "percent_of_field": 1.0917751602302574 }, "geometry": { "type": "Polygon", "coordinates": [ [ [ -82.534751796342505, 34.328034071446588 ], [ -82.534878, 34.328005 ], [ -82.534941, 34.328005 ], [ -82.53504, 34.328038 ], [ -82.535088983759067, 34.328178579799356 ], [ -82.534751796342505, 34.328034071446588 ] ] ] } },
{ "type": "Feature", "properties": { "field_id": "451623001001266", "mukey": "1154986", "musym": "ApC", "muname": "Appling sandy loam, 6 to 10 percent slopes", "aws025wta": 3.47, "selected_soil_attribute": 3.47, "intersection_area_m2": 13808.224994621418, "intersection_area_acres": 3.4120866982296487, "field_area_m2": 57222.736150476856, "percent_of_field": 24.130661907376044 }, "geometry": { "type": "Polygon", "coordinates": [ [ [ -82.533746996965533, 34.327680440825375 ], [ -82.533118175367875, 34.327321114097877 ], [ -82.533118175422686, 34.327051619628946 ], [ -82.533118175477526, 34.326782125073883 ], [ -82.532848681243252, 34.326422799162927 ], [ -82.532489355551775, 34.3264227989945 ], [ -82.532489355045669, 34.326782125791603 ], [ -82.532411555367929, 34.326782125902604 ], [ -82.532411, 34.326653 ], [ -82.532476, 34.32641 ], [ -82.532447, 34.326209 ], [ -82.532422793213655, 34.326153304879774 ], [ -82.532489355466936, 34.326153304871553 ], [ -82.532489355536811, 34.325883809777061 ], [ -82.532302717511911, 34.325697172055264 ], [ -82.532344, 34.325592 ], [ -82.532358, 34.32541 ], [ -82.532489354785966, 34.325288965963004 ], [ -82.532489355451986, 34.325614315481999 ], [ -82.533151857700091, 34.325614316434368 ], [ -82.533159, 34.32563 ], [ -82.533161, 34.326098 ], [ -82.533278, 34.326573 ], [ -82.533652, 34.327127 ], [ -82.53381, 34.327249 ], [ -82.534034, 34.32733 ], [ -82.534192217918516, 34.327949935642842 ], [ -82.534016491270435, 34.327949935163595 ], [ -82.533746996965533, 34.327680440825375 ] ] ] } },
{ "type": "Feature", "properties": { "field_id": "451623001001266", "mukey": "1154985", "musym": "ApB", "muname": "Appling sandy loam, 2 to 6 percent slopes", "aws025wta": 3.5, "selected_soil_attribute": 3.5, "intersection_area_m2": 22950.060326076284, "intersection_area_acres": 5.6710834008480644, "field_area_m2": 57222.736150476856, "percent_of_field": 40.106541333020537 }, "geometry": { "type": "MultiPolygon", "coordinates": [ [ [ [ -82.531950366414236, 34.326782125545222 ], [ -82.531950366008388, 34.326422799254608 ], [ -82.532219860082094, 34.326153304681434 ], [ -82.532422793213655, 34.326153304879774 ], [ -82.532447, 34.326209 ], [ -82.532476, 34.32641 ], [ -82.532411, 34.326653 ], [ -82.532411555367929, 34.326782125902604 ], [ -82.531950366414236, 34.326782125545222 ] ] ], [ [ [ -82.532219860854426, 34.325614315165588 ], [ -82.53195036610218, 34.325614315110457 ], [ -82.531950365541661, 34.325254989208112 ], [ -82.532489354719246, 34.325254988946838 ], [ -82.532489354785966, 34.325288965963004 ], [ -82.532358, 34.32541 ], [ -82.532344, 34.325592 ], [ -82.532302717511911, 34.325697172055264 ], [ -82.532219860854426, 34.325614315165588 ] ] ], [ [ [ -82.533387670468329, 34.325614315908084 ], [ -82.533387670068137, 34.325254988992754 ], [ -82.533567333850627, 34.325254989156271 ], [ -82.533716818174142, 34.32528516747572 ], [ -82.534016491013162, 34.325434652271475 ], [ -82.534285985486193, 34.325614315723712 ], [ -82.5345554799095, 34.325883810104862 ], [ -82.534647448698252, 34.325962641035105 ], [ -82.534564, 34.32604 ], [ -82.534199, 34.326622 ], [ -82.534043, 34.326999 ], [ -82.534018, 34.327227 ], [ -82.534034, 34.32733 ], [ -82.53381, 34.327249 ], [ -82.533652, 34.327127 ], [ -82.533278, 34.326573 ], [ -82.533161, 34.326098 ], [ -82.533159, 34.32563 ], [ -82.533151857700091, 34.325614316434368 ], [ -82.533387670468329, 34.325614315908084 ] ] ] ] } },
{ "type": "Feature", "properties": { "field_id": "451623001001266", "mukey": "1154991", "musym": "CcB", "muname": "Cecil sandy loam, 2 to 6 percent slopes", "aws025wta": 2.95, "selected_soil_attribute": 2.95, "intersection_area_m2": 20464.450829775651, "intersection_area_acres": 5.0568759192474788, "field_area_m2": 57222.736150476856, "percent_of_field": 35.7627967595973 }, "geometry": { "type": "Polygon", "coordinates": [ [ [ -82.535184300954356, 34.326422798825213 ], [ -82.535453793714609, 34.326422799866229 ], [ -82.535453794288401, 34.327680441729434 ], [ -82.5351842993297, 34.327680440940995 ], [ -82.534555479206063, 34.327680441059009 ], [ -82.534555480734682, 34.327949935833743 ], [ -82.534192217918516, 34.327949935642842 ], [ -82.534034, 34.32733 ], [ -82.534018, 34.327227 ], [ -82.534043, 34.326999 ], [ -82.534199, 34.326622 ], [ -82.534564, 34.32604 ], [ -82.534647448698252, 34.325962641035105 ], [ -82.535184300954356, 34.326422798825213 ] ] ] } },
{ "type": "Feature", "properties": { "field_id": "451623001001267", "mukey": "1154985", "musym": "ApB", "muname": "Appling sandy loam, 2 to 6 percent slopes", "aws025wta": 3.5, "selected_soil_attribute": 3.5, "intersection_area_m2": 19230.025107075748, "intersection_area_acres": 4.7518426807235183, "field_area_m2": 19230.025107075744, "percent_of_field": 100.00000000000001 }, "geometry": { "type": "Polygon", "coordinates": [ [ [ -82.530782555606351, 34.325883810175263 ], [ -82.531052050674205, 34.325883810152362 ], [ -82.531052050105131, 34.326153304866722 ], [ -82.530782556578828, 34.326782125048375 ], [ -82.530423229725201, 34.327051619630893 ], [ -82.530153735868637, 34.32705161971468 ], [ -82.530153735065426, 34.326782125667194 ], [ -82.5295249141721, 34.326782125670647 ], [ -82.529255419710111, 34.327051619618643 ], [ -82.529255420491978, 34.327321114844594 ], [ -82.528626598949685, 34.327321114040856 ], [ -82.528626599274943, 34.326782125021097 ], [ -82.529255419693044, 34.326422799408974 ], [ -82.529884240440197, 34.32615330420996 ], [ -82.529884240572741, 34.325883809875705 ], [ -82.530153734865877, 34.32588381003599 ], [ -82.530782555606351, 34.325883810175263 ] ] ] } },
{ "type": "Feature", "properties": { "field_id": "451623001001281", "mukey": "1154986", "musym": "ApC", "muname": "Appling sandy loam, 6 to 10 percent slopes", "aws025wta": 3.47, "selected_soil_attribute": 3.47, "intersection_area_m2": 3388.8047688608826, "intersection_area_acres": 0.83739189354398536, "field_area_m2": 16719.394419509877, "percent_of_field": 20.2687052164191 }, "geometry": { "type": "Polygon", "coordinates": [ [ [ -82.538418235880059, 34.320853244067685 ], [ -82.538418235887832, 34.320493918787996 ], [ -82.539047056028267, 34.320493919034767 ], [ -82.539047056096393, 34.320224424784286 ], [ -82.540214866872205, 34.320224424410931 ], [ -82.540484360571241, 34.320224424548137 ], [ -82.540484360590369, 34.320236855659068 ], [ -82.539399, 34.320328 ], [ -82.539223, 34.320368 ], [ -82.538952, 34.320622 ], [ -82.538720575155978, 34.320982818844683 ], [ -82.538418235880059, 34.320853244067685 ] ] ] } },
{ "type": "Feature", "properties": { "field_id": "451623001001281", "mukey": "1154991", "musym": "CcB", "muname": "Cecil sandy loam, 2 to 6 percent slopes", "aws025wta": 2.95, "selected_soil_attribute": 2.95, "intersection_area_m2": 13330.589650652653, "intersection_area_acres": 3.2940604345791811, "field_area_m2": 16719.394419509877, "percent_of_field": 79.731294783602777 }, "geometry": { "type": "Polygon", "coordinates": [ [ [ -82.53904705654044, 34.321122738996785 ], [ -82.538720575155978, 34.320982818844683 ], [ -82.538952, 34.320622 ], [ -82.539223, 34.320368 ], [ -82.539399, 34.320328 ], [ -82.540484360590369, 34.320236855659068 ], [ -82.540484361002257, 34.320493919179022 ], [ -82.540214866367549, 34.320493919041851 ], [ -82.540214866778825, 34.320853245208625 ], [ -82.540214866428741, 34.321122738752983 ], [ -82.539675876612435, 34.321392233478228 ], [ -82.539316551282695, 34.321392233652396 ], [ -82.53904705654044, 34.321122738996785 ] ] ] } },
{ "type": "Feature", "properties": { "field_id": "451623001001285", "mukey": "1154986", "musym": "ApC", "muname": "Appling sandy loam, 6 to 10 percent slopes", "aws025wta": 3.47, "selected_soil_attribute": 3.47, "intersection_area_m2": 135.03302338846623, "intersection_area_acres": 0.033367386691988861, "field_area_m2": 18778.491903040795, "percent_of_field": 0.71908342845465867 }, "geometry": { "type": "Polygon", "coordinates": [ [ [ -82.54201149731449, 34.319954928892606 ], [ -82.54228099147322, 34.319954929548366 ], [ -82.542320068073934, 34.319984237111939 ], [ -82.542128, 34.319991 ], [ -82.541940408486454, 34.320026017805517 ], [ -82.54201149731449, 34.319954928892606 ] ] ] } },
{ "type": "Feature", "properties": { "field_id": "451623001001285", "mukey": "1154991", "musym": "CcB", "muname": "Cecil sandy loam, 2 to 6 percent slopes", "aws025wta": 2.95, "selected_soil_attribute": 2.95, "intersection_area_m2": 18643.458879651353, "intersection_area_acres": 4.6068990096140805, "field_area_m2": 18778.491903040795, "percent_of_field": 99.280916571540146 }, "geometry": { "type": "Polygon", "coordinates": [ [ [ -82.541113181689155, 34.320853244799508 ], [ -82.540843687200166, 34.320853244474122 ], [ -82.540484360647397, 34.320853244207761 ], [ -82.540214866778825, 34.320853245208625 ], [ -82.540214866367549, 34.320493919041851 ], [ -82.540484361002257, 34.320493919179022 ], [ -82.541113181610442, 34.320493918252289 ], [ -82.541742002223444, 34.320224423469469 ], [ -82.541940408486454, 34.320026017805517 ], [ -82.542128, 34.319991 ], [ -82.542320068073934, 34.319984237111939 ], [ -82.542640317604111, 34.320224423917395 ], [ -82.542640317777071, 34.320493918550056 ], [ -82.542640317336421, 34.320853244213573 ], [ -82.542280991711053, 34.320853244182757 ], [ -82.542011496605056, 34.321122739349114 ], [ -82.541742003034642, 34.321392233298312 ], [ -82.541113181342453, 34.321392233827346 ], [ -82.541113181689155, 34.320853244799508 ] ] ] } },
{ "type": "Feature", "properties": { "field_id": "451623001001295", "mukey": "1154985", "musym": "ApB", "muname": "Appling sandy loam, 2 to 6 percent slopes", "aws025wta": 3.5, "selected_soil_attribute": 3.5, "intersection_area_m2": 1.6624266512125399, "intersection_area_acres": 0.00041079457103242878, "field_area_m2": 13384.081312449362, "percent_of_field": 0.012420924622343815 }, "geometry": { "type": "Polygon", "coordinates": [ [ [ -82.550433559696941, 34.318970144347567 ], [ -82.550411, 34.318973 ], [ -82.550407549261678, 34.318958997053016 ], [ -82.550433559696941, 34.318970144347567 ] ] ] } },
{ "type": "Feature", "properties": { "field_id": "451623001001295", "mukey": "1154993", "musym": "CcD", "muname": "Cecil-Cataula complex, 10 to 15 percent slopes, moderately eroded", "aws025wta": 3.35, "selected_soil_attribute": 3.35, "intersection_area_m2": 9435.4979421723128, "intersection_area_acres": 2.3315623139252053, "field_area_m2": 13384.081312449362, "percent_of_field": 70.497912571674036 }, "geometry": { "type": "Polygon", "coordinates": [ [ [ -82.549377682186645, 34.319056614128769 ], [ -82.54937768293631, 34.318787119156511 ], [ -82.550006503210128, 34.318787119620744 ], [ -82.550407549261678, 34.318958997053016 ], [ -82.550411, 34.318973 ], [ -82.550205, 34.319159 ], [ -82.55016, 34.319338 ], [ -82.550167, 34.319644 ], [ -82.550207, 34.319758 ], [ -82.550329, 34.319872 ], [ -82.550567307244293, 34.319954929478115 ], [ -82.549108188000403, 34.319954929586054 ], [ -82.549108187517476, 34.319685434648726 ], [ -82.549377682675583, 34.319326108255495 ], [ -82.549737008364403, 34.319326108883445 ], [ -82.549737008950672, 34.319056614123554 ], [ -82.549377682186645, 34.319056614128769 ] ], [ [ -82.549737008718395, 34.319685434926953 ], [ -82.550006503342246, 34.319685435017803 ], [ -82.550006502979329, 34.319326108215058 ], [ -82.549737008364403, 34.319326108883445 ], [ -82.549737008718395, 34.319685434926953 ] ] ] } },
{ "type": "Feature", "properties": { "field_id": "451623001001295", "mukey": "1154991", "musym": "CcB", "muname": "Cecil sandy loam, 2 to 6 percent slopes", "aws025wta": 2.95, "selected_soil_attribute": 2.95, "intersection_area_m2": 3946.9209436304886, "intersection_area_acres": 0.97530540355269146, "field_area_m2": 13384.081312449362, "percent_of_field": 29.489666503738388 }, "geometry": { "type": "Polygon", "coordinates": [ [ [ -82.550635323384938, 34.319056613936716 ], [ -82.550635323770805, 34.319685434868568 ], [ -82.550635323051011, 34.319954929048841 ], [ -82.550567307244293, 34.319954929478115 ], [ -82.550329, 34.319872 ], [ -82.550207, 34.319758 ], [ -82.550167, 34.319644 ], [ -82.55016, 34.319338 ], [ -82.550205, 34.319159 ], [ -82.550411, 34.318973 ], [ -82.550433559696941, 34.318970144347567 ], [ -82.550635323384938, 34.319056613936716 ] ] ] } },
{ "type": "Feature", "properties": { "field_id": "451623001001299", "mukey": "1154985", "musym": "ApB", "muname": "Appling sandy loam, 2 to 6 percent slopes", "aws025wta": 3.5, "selected_soil_attribute": 3.5, "intersection_area_m2": 18163.281243194084, "intersection_area_acres": 4.4882445318096282, "field_area_m2": 20426.368955009992, "percent_of_field": 88.920753772731402 }, "geometry": { "type": "Polygon", "coordinates": [ [ [ -82.540214866520458, 34.318427793613779 ], [ -82.539675876886136, 34.31842779336732 ], [ -82.539675876939299, 34.318158298708688 ], [ -82.539945371719071, 34.31788880370307 ], [ -82.540214866291095, 34.317888803703589 ], [ -82.540484360708518, 34.31788880396531 ], [ -82.540843686856775, 34.317888803975727 ], [ -82.541113182203702, 34.317888803792691 ], [ -82.541742003080614, 34.317888803763481 ], [ -82.542011496725252, 34.31788880491537 ], [ -82.542280991927129, 34.318158298418666 ], [ -82.542280992091221, 34.318427792952789 ], [ -82.542280992114229, 34.318598651678322 ], [ -82.542169, 34.318609 ], [ -82.541753, 34.318686 ], [ -82.541716, 34.318705 ], [ -82.541651047971115, 34.318787123414296 ], [ -82.541138481379491, 34.318787124004281 ], [ -82.541101, 34.318749 ], [ -82.540899, 34.318648 ], [ -82.540769, 34.318614 ], [ -82.540215, 34.318606 ], [ -82.540214866255909, 34.318605982167647 ], [ -82.540214866520458, 34.318427793613779 ] ], [ [ -82.541113180481531, 34.318158298665523 ], [ -82.540843687605758, 34.318158298341821 ], [ -82.540843687116123, 34.318427793380941 ], [ -82.541113182166171, 34.318427792945378 ], [ -82.541113180481531, 34.318158298665523 ] ] ] } },
{ "type": "Feature", "properties": { "field_id": "451623001001299", "mukey": "1154986", "musym": "ApC", "muname": "Appling sandy loam, 6 to 10 percent slopes", "aws025wta": 3.47, "selected_soil_attribute": 3.47, "intersection_area_m2": 2263.087711819649, "intersection_area_acres": 0.55922115126561256, "field_area_m2": 20426.368955009992, "percent_of_field": 11.079246227286909 }, "geometry": { "type": "MultiPolygon", "coordinates": [ [ [ [ -82.540214866255909, 34.318605982167647 ], [ -82.540215, 34.318606 ], [ -82.540769, 34.318614 ], [ -82.540899, 34.318648 ], [ -82.541101, 34.318749 ], [ -82.541138481379491, 34.318787124004281 ], [ -82.540214866002174, 34.318787119649706 ], [ -82.540214866255909, 34.318605982167647 ] ] ], [ [ [ -82.54228099215544, 34.318787119749686 ], [ -82.541651047971115, 34.318787123414296 ], [ -82.541716, 34.318705 ], [ -82.541753, 34.318686 ], [ -82.542169, 34.318609 ], [ -82.542280992114229, 34.318598651678322 ], [ -82.54228099215544, 34.318787119749686 ] ] ] ] } }
]
}
