{
"type": "FeatureCollection",
"name": "selected_field",
"crs": { "type": "name", "properties": { "name": "urn:ogc:def:crs:OGC:1.3:CRS84" } },
"features": [
{ "type": "Feature", "properties": { "field_id": "451623001001257", "CSBID": "451623001001257", "STATEFIPS": "45", "CSBACRES": 19.141194053248981, "county": "001", "source_attribute": "", "CDL2020": 37, "CDL2021": 37, "CDL2022": 37, "CDL2023": 37 }, "geometry": { "type": "MultiPolygon", "coordinates": [ [ [ [ -82.545514926733816, 34.332082187643699 ], [ -82.544975937289436, 34.331812693288882 ], [ -82.54470644277491, 34.331543198104704 ], [ -82.544706442321456, 34.331183871677709 ], [ -82.544347116569469, 34.331183870932001 ], [ -82.543718295459726, 34.331183871352984 ], [ -82.543568810286416, 34.331153693313944 ], [ -82.543448801636856, 34.331094038686544 ], [ -82.543269138043811, 34.330914377269522 ], [ -82.542730149333096, 34.330644883022465 ], [ -82.542909812242129, 34.33028555574456 ], [ -82.542909812036257, 34.329746567460965 ], [ -82.542640317177742, 34.329746567621321 ], [ -82.542640317307018, 34.329387241191306 ], [ -82.542909812441252, 34.329117746834847 ], [ -82.543179307130174, 34.329117747188306 ], [ -82.543179306542527, 34.329387241384381 ], [ -82.543808127963644, 34.329387241089464 ], [ -82.543808127606582, 34.329117746134116 ], [ -82.544077622140975, 34.329117745292635 ], [ -82.544347116211682, 34.329117746483455 ], [ -82.54434711658088, 34.329387239415411 ], [ -82.544706442688749, 34.329387241170878 ], [ -82.54497593784977, 34.329387240019891 ], [ -82.54524543153633, 34.32911774645077 ], [ -82.545245431764215, 34.328848251155037 ], [ -82.545514926758543, 34.328848251664738 ], [ -82.545874252230405, 34.328848251837464 ], [ -82.546143746708836, 34.329117746693427 ], [ -82.546143747431742, 34.3293872416507 ], [ -82.546143747432311, 34.331812691640359 ], [ -82.545874252928428, 34.332082187061253 ], [ -82.545514926733816, 34.332082187643699 ] ] ] ] } }
]
}
