{
"type": "FeatureCollection",
"name": "field_buffer_500m",
"crs": { "type": "name", "properties": { "name": "urn:ogc:def:crs:OGC:1.3:CRS84" } },
"features": [
{ "type": "Feature", "properties": { "buffer_m": 500.0 }, "geometry": { "type": "Polygon", "coordinates": [ [ [ -82.556068711359657, 34.319685311443649 ], [ -82.55606872801593, 34.319954818224161 ], [ -82.55604259229105, 34.3203966861171 ], [ -82.555964381596169, 34.320834300816998 ], [ -82.555834848340311, 34.321263447833289 ], [ -82.555655239247073, 34.321679994160242 ], [ -82.555427283376432, 34.322079928084904 ], [ -82.555153175498248, 34.322459397829093 ], [ -82.55483555497652, 34.322814748653052 ], [ -82.55447748036697, 34.323142558063196 ], [ -82.554082399972017, 34.323439668784168 ], [ -82.553654118636373, 34.323703219177602 ], [ -82.55319676110264, 34.32393067081378 ], [ -82.552714732280208, 34.324119832930435 ], [ -82.552212674810136, 34.324268883542452 ], [ -82.551695424335378, 34.324376386998978 ], [ -82.551167962907726, 34.32444130781812 ], [ -82.550635370981283, 34.324463020666016 ], [ -82.549108154228989, 34.324463023430511 ], [ -82.548575561336122, 34.324441312451917 ], [ -82.548048098554816, 34.324376393337161 ], [ -82.547530846377356, 34.324268891362046 ], [ -82.547028786906722, 34.32411984195673 ], [ -82.546586055191, 34.323946102892961 ], [ -82.546482515809885, 34.324040889088337 ], [ -82.546087427305963, 34.324338001043841 ], [ -82.546070973323324, 34.324348126168537 ], [ -82.546403656228733, 34.324361603322892 ], [ -82.546928025189573, 34.324425739542974 ], [ -82.547442368690696, 34.324531954862096 ], [ -82.547941793351853, 34.324679238750775 ], [ -82.548421547666749, 34.324866189957824 ], [ -82.54887706719046, 34.325091029836507 ], [ -82.549304017950817, 34.325351619259713 ], [ -82.54969833767187, 34.325645478963509 ], [ -82.549844001584532, 34.325777468598858 ], [ -82.55000649041915, 34.325777468653371 ], [ -82.550275967608727, 34.325777467891733 ], [ -82.550635334779329, 34.325777469321018 ], [ -82.550904816355938, 34.325777469759551 ], [ -82.55143742048763, 34.325799176558085 ], [ -82.551964896044609, 34.325864087362511 ], [ -82.552482163941718, 34.325971577122324 ], [ -82.55298424334255, 34.326120610790873 ], [ -82.553466299599222, 34.326309753288136 ], [ -82.553923690787769, 34.326537183313739 ], [ -82.55435201239149, 34.326800710877741 ], [ -82.554747139703139, 34.327097798380386 ], [ -82.555105267537925, 34.327425585038526 ], [ -82.555422946875396, 34.327780914423741 ], [ -82.555697118077475, 34.328160364847584 ], [ -82.555925140362476, 34.32856028230168 ], [ -82.556104817251395, 34.328976815636011 ], [ -82.556234417740214, 34.329405953637156 ], [ -82.556312692994268, 34.329843563649519 ], [ -82.556338888402408, 34.330285431368246 ], [ -82.556338912078473, 34.330644756919291 ], [ -82.556312369675226, 34.33109002558988 ], [ -82.556232942729252, 34.331530942063246 ], [ -82.556101407195143, 34.331963194261519 ], [ -82.55591904868902, 34.332382554775855 ], [ -82.555687649945042, 34.332784922214351 ], [ -82.555409473406797, 34.333166361320181 ], [ -82.555087239123026, 34.33352314146665 ], [ -82.554817749039984, 34.333792644868431 ], [ -82.55445981042395, 34.334117004277196 ], [ -82.554065476526048, 34.33441088924716 ], [ -82.553638499611168, 34.334671503044198 ], [ -82.553182942707238, 34.334896365528209 ], [ -82.55277721970289, 34.335054469604323 ], [ -82.552685363329914, 34.335120015085288 ], [ -82.55229261436746, 34.335342155652626 ], [ -82.552189447477915, 34.335484956064683 ], [ -82.551871778062974, 34.335840307968773 ], [ -82.551513648007855, 34.336168118463469 ], [ -82.55111850616332, 34.336465230249686 ], [ -82.550690157981734, 34.33672878166675 ], [ -82.550232728866817, 34.336956234264406 ], [ -82.549750624435916, 34.33714539726185 ], [ -82.549248488077922, 34.337294448657858 ], [ -82.548731156216022, 34.337401952787971 ], [ -82.548203611707024, 34.337466874159475 ], [ -82.547670935826758, 34.33748858743057 ], [ -82.547311590265181, 34.337488590034944 ], [ -82.547042059889534, 34.337488590406075 ], [ -82.546512561621924, 34.337467140796001 ], [ -82.545988102554219, 34.337402995797753 ], [ -82.545473674017245, 34.337296765864743 ], [ -82.544974171840153, 34.337149461975656 ], [ -82.544494349735928, 34.336962486009064 ], [ -82.544038774042576, 34.336737617396537 ], [ -82.543611780251268, 34.336476996181091 ], [ -82.543217431735954, 34.336183102642707 ], [ -82.543183948696537, 34.336152761021467 ], [ -82.543141301659901, 34.336137518119052 ], [ -82.542942067422842, 34.336047822496212 ], [ -82.542911732087461, 34.336119276812411 ], [ -82.542690048518665, 34.336514632049663 ], [ -82.54242335611157, 34.336890371715732 ], [ -82.542114149397975, 34.337242980455123 ], [ -82.541765320772868, 34.337569159276043 ], [ -82.54138013344577, 34.337865856424017 ], [ -82.540962190917526, 34.338130295943259 ], [ -82.54033335756516, 34.338489637641217 ], [ -82.539868619162064, 34.338727564774572 ], [ -82.539377438000926, 34.338925598249602 ], [ -82.539200635587036, 34.338979446528143 ], [ -82.539115871811958, 34.339074260623278 ], [ -82.538757727187146, 34.339402070459258 ], [ -82.53836256955087, 34.33969918166337 ], [ -82.537934204478091, 34.339962732602942 ], [ -82.537476757503214, 34.340190184852119 ], [ -82.536994634381415, 34.340379347650682 ], [ -82.536492478645528, 34.340528399013621 ], [ -82.535975126867825, 34.340635903288124 ], [ -82.535447562058181, 34.340700824988346 ], [ -82.534914865648403, 34.340722538774351 ], [ -82.534844893605708, 34.340722539443838 ], [ -82.534722140383124, 34.341125918096438 ], [ -82.534539789480192, 34.341545250059376 ], [ -82.534308400191179, 34.341947592936158 ], [ -82.534030234490928, 34.342329012364509 ], [ -82.533708011869805, 34.342685778530615 ], [ -82.533438522767426, 34.342955281724215 ], [ -82.533080539679489, 34.343279679778057 ], [ -82.532686150504617, 34.343573600702122 ], [ -82.532259108527597, 34.343834247052172 ], [ -82.531803477930282, 34.344059138052067 ], [ -82.531323595106542, 34.344246133214455 ], [ -82.530824027380888, 34.344393452722251 ], [ -82.53030952952453, 34.344499694376459 ], [ -82.529788601261686, 34.344563406320411 ], [ -82.52928053926135, 34.3447666333469 ], [ -82.529085132228275, 34.344836004547055 ], [ -82.528839086054361, 34.344957447917089 ], [ -82.528798958879946, 34.344973084299198 ], [ -82.528926692746111, 34.345395961034995 ], [ -82.529004983293916, 34.345833574275972 ], [ -82.529031183538237, 34.346275445229026 ], [ -82.529031206874961, 34.346634770555781 ], [ -82.529031240642155, 34.34717376839275 ], [ -82.52900509634587, 34.347615640674263 ], [ -82.528926859219382, 34.348053259705161 ], [ -82.528797281933606, 34.348482410906357 ], [ -82.528617611649125, 34.348898961185867 ], [ -82.528390335172318, 34.349297570844492 ], [ -82.528387952550204, 34.349310897832595 ], [ -82.528258373588955, 34.34974004927988 ], [ -82.528078700818611, 34.350156599821133 ], [ -82.527850663932327, 34.350556537654661 ], [ -82.527576458505891, 34.350936010918403 ], [ -82.527258724873903, 34.351291364794882 ], [ -82.52690052271781, 34.351619176719979 ], [ -82.526505301609731, 34.351916289356303 ], [ -82.526076867795183, 34.352179841012749 ], [ -82.525619347535027, 34.352407293217091 ], [ -82.525137147359004, 34.35259645517548 ], [ -82.524634911614626, 34.352745504882705 ], [ -82.52411747772031, 34.352853006679645 ], [ -82.523589829554624, 34.352917925088327 ], [ -82.523057049431614, 34.352939634790943 ], [ -82.522787540320508, 34.35293963489265 ], [ -82.522254760402987, 34.352917925612765 ], [ -82.521727112211451, 34.352853007634607 ], [ -82.52120967806853, 34.352745506228935 ], [ -82.52070744187337, 34.352596456829801 ], [ -82.520225241075707, 34.35240729505739 ], [ -82.519992298771257, 34.352291490404184 ], [ -82.519809134346673, 34.352237131813197 ], [ -82.519326936881214, 34.352047970474729 ], [ -82.518869418959838, 34.351820518942418 ], [ -82.518440987105109, 34.351556967967397 ], [ -82.518045767580318, 34.351259855984473 ], [ -82.517687566641385, 34.350932044653753 ], [ -82.517369833876813, 34.350576691288758 ], [ -82.517095628988599, 34.350197218437032 ], [ -82.516867592334151, 34.349797280906778 ], [ -82.516687919512293, 34.349380730557613 ], [ -82.516558340237992, 34.348951579194761 ], [ -82.516480101708126, 34.348513959924681 ], [ -82.516453956617752, 34.348072087344519 ], [ -82.516453973256418, 34.34780259257407 ], [ -82.516454014352163, 34.347173758036497 ], [ -82.516480215327135, 34.346731885596085 ], [ -82.516558507494338, 34.346294270944831 ], [ -82.516688136062754, 34.34586512847941 ], [ -82.516867851900059, 34.345448590942105 ], [ -82.517095923590716, 34.345048669625541 ], [ -82.517370154135648, 34.344669215749278 ], [ -82.517687902131257, 34.34431388337979 ], [ -82.51804610722337, 34.34398609425083 ], [ -82.518441319590352, 34.343689004822359 ], [ -82.518818985219625, 34.343456692511637 ], [ -82.518855765231493, 34.34341556156469 ], [ -82.518960925243192, 34.343319330624368 ], [ -82.51880283414782, 34.343100528747925 ], [ -82.518574816411515, 34.342700589989967 ], [ -82.518395158641681, 34.342284038338818 ], [ -82.518265590416803, 34.341854885631321 ], [ -82.518187358833501, 34.341417265006456 ], [ -82.518161216523808, 34.340975391094481 ], [ -82.518161233580273, 34.340705895710663 ], [ -82.518161274307701, 34.340077069074518 ], [ -82.518187472892848, 34.339635195623195 ], [ -82.518265758429649, 34.339197579964321 ], [ -82.518395376188636, 34.338768436518556 ], [ -82.518575077137584, 34.33835189805167 ], [ -82.518576580028451, 34.338349262538436 ], [ -82.518547295122659, 34.338186701296003 ], [ -82.518520752193297, 34.337741457795957 ], [ -82.518520791707004, 34.337112636618365 ], [ -82.518546988404339, 34.336670763910966 ], [ -82.518625270002346, 34.3362331489014 ], [ -82.518754881812811, 34.335804005986191 ], [ -82.518805955471692, 34.335685614949476 ], [ -82.518819889883389, 34.33547575652743 ], [ -82.51885036856234, 34.335234203998148 ], [ -82.518930417097806, 34.334802785144461 ], [ -82.519060385500765, 34.334379810514363 ], [ -82.519239054603048, 34.333969245391032 ], [ -82.519418450419423, 34.333612162483512 ], [ -82.519664469598581, 34.333186668583629 ], [ -82.519962755909802, 34.332784839909444 ], [ -82.520310040322187, 34.332411079256993 ], [ -82.520702517086974, 34.332069481823972 ], [ -82.521135885452523, 34.331763790352234 ], [ -82.52160539679447, 34.331497354133546 ], [ -82.521665049262822, 34.331467178123162 ], [ -82.522099690395351, 34.331269284030476 ], [ -82.522554262162018, 34.331105075196398 ], [ -82.52302498105972, 34.330975918315033 ], [ -82.523105274418512, 34.330960451605954 ], [ -82.523470110367583, 34.330830053382115 ], [ -82.523482860937065, 34.330826590263555 ], [ -82.52342643918162, 34.330695750989676 ], [ -82.523296891297505, 34.330266596906746 ], [ -82.523218673140036, 34.329828975087146 ], [ -82.523192537215024, 34.329387100187319 ], [ -82.523192555999898, 34.329117605154892 ], [ -82.523220302008767, 34.328662882847532 ], [ -82.523302264893815, 34.328217840768509 ], [ -82.523297026104572, 34.32820048590856 ], [ -82.523218808255223, 34.327762865380954 ], [ -82.523192671054602, 34.32732099163978 ], [ -82.52319270614268, 34.326782001688059 ], [ -82.523218154559757, 34.326346455241328 ], [ -82.523294204374565, 34.325914986055892 ], [ -82.523420143295667, 34.325491630936796 ], [ -82.523594792316089, 34.325080350713819 ], [ -82.52381651677058, 34.324684993188356 ], [ -82.524083241653258, 34.324309257139916 ], [ -82.524392471051144, 34.323956657728552 ], [ -82.52474131151132, 34.323630493616669 ], [ -82.525126499122337, 34.323333816117632 ], [ -82.525544430056158, 34.323069400659044 ], [ -82.525783276421024, 34.322932921072457 ], [ -82.526042093894986, 34.322696019306129 ], [ -82.526437205542564, 34.322398929513767 ], [ -82.526865509956892, 34.322135400279464 ], [ -82.527322882536879, 34.321907969211161 ], [ -82.527804918889075, 34.321718826292241 ], [ -82.528306977230585, 34.321569792802492 ], [ -82.528824223072803, 34.321462303788735 ], [ -82.529085320140439, 34.321430172880753 ], [ -82.529389025874593, 34.321279151851805 ], [ -82.52987105873305, 34.321090008651503 ], [ -82.53037311348109, 34.320940974938679 ], [ -82.530890355654122, 34.320833485765377 ], [ -82.531417804617476, 34.320768576137638 ], [ -82.531950381505354, 34.320746871054695 ], [ -82.532489341847878, 34.320746871570478 ], [ -82.532938520193596, 34.320765178752673 ], [ -82.532984747865228, 34.320763294809346 ], [ -82.532984765252792, 34.320493797812958 ], [ -82.533010957482176, 34.320051925107997 ], [ -82.533089224305726, 34.319614310176618 ], [ -82.533218811174962, 34.319185167432117 ], [ -82.53339846935593, 34.318768629633219 ], [ -82.533626467983439, 34.318368708088414 ], [ -82.533900610755396, 34.317989254032327 ], [ -82.534218257105223, 34.317633921545394 ], [ -82.534296262630008, 34.317562517094316 ], [ -82.534348650348292, 34.317271898539261 ], [ -82.534480247267311, 34.316839609976803 ], [ -82.534662664258818, 34.316420221402858 ], [ -82.53489411630234, 34.316017834968299 ], [ -82.535172338843282, 34.315636386462586 ], [ -82.535494609965468, 34.315279606824589 ], [ -82.535764109633334, 34.315010120788287 ], [ -82.536121999934409, 34.314685827564446 ], [ -82.53651626103975, 34.314392006450539 ], [ -82.536943142073255, 34.314131452482883 ], [ -82.537398581972823, 34.313906644208487 ], [ -82.537878248118389, 34.313719720116737 ], [ -82.538377577538114, 34.313572458305515 ], [ -82.538891820300975, 34.313466259574859 ], [ -82.539416084683793, 34.313402134108486 ], [ -82.53994538368373, 34.313380691869682 ], [ -82.540214863842166, 34.313380692260793 ], [ -82.540484364606925, 34.313380692913199 ], [ -82.540843682184502, 34.313380693444607 ], [ -82.541113175297681, 34.313380693652419 ], [ -82.541741990709824, 34.313380694535418 ], [ -82.542011522257297, 34.31338069607844 ], [ -82.54254081545011, 34.313402141676683 ], [ -82.543065073557386, 34.313466269567279 ], [ -82.543579309748296, 34.313572469733948 ], [ -82.544078632482083, 34.313719731960404 ], [ -82.544558292017101, 34.313906655436071 ], [ -82.545013725573753, 34.314131462075643 ], [ -82.545440600722955, 34.314392013426108 ], [ -82.545834856587888, 34.31468583100061 ], [ -82.54619274246771, 34.315010119846285 ], [ -82.546273875235016, 34.315091248549969 ], [ -82.546359234139871, 34.315038723989105 ], [ -82.546816565891618, 34.314811294818625 ], [ -82.547298559096248, 34.314622153643903 ], [ -82.547800572385697, 34.314473121727893 ], [ -82.548317771704546, 34.314365634102153 ], [ -82.548845176841013, 34.314300725755473 ], [ -82.549377709361849, 34.314279021673158 ], [ -82.550006496002737, 34.314279023054411 ], [ -82.5505237966712, 34.314299502727785 ], [ -82.551036397678075, 34.314360756063373 ], [ -82.551539642106079, 34.314462226562256 ], [ -82.552028958005664, 34.314602992356228 ], [ -82.552499899912561, 34.314781774579707 ], [ -82.553128697161313, 34.315051256856982 ], [ -82.5535956820857, 34.315276461692399 ], [ -82.554033412766273, 34.315539025477328 ], [ -82.554437563273964, 34.315836353539495 ], [ -82.554804139398485, 34.316165507640491 ], [ -82.555129518119344, 34.316523235001767 ], [ -82.555410483414647, 34.316906000438912 ], [ -82.555644258054187, 34.317310021287533 ], [ -82.555828531062019, 34.317731304775812 ], [ -82.555961480576798, 34.318165687474917 ], [ -82.556041791882748, 34.318608876437835 ], [ -82.55606867043241, 34.319056491620564 ], [ -82.556068711359657, 34.319685311443649 ] ] ] } }
]
}
